name,url,address,district,postcode,email,phone,latt,long,shopping_list_url,country,event_type,organiser_id
EATS Rosyth,https://www.eatsrosyth.org.uk/,"8 Aberlour Street
Rosyth
KY11 2RD",Fife,KY11 2RD,info@eatsrosyth.org.uk,7782848705,56.0404684,-3.4231533,https://www.eatsrosyth.org.uk/,Scotland,Food Bank,1
Galashiels,https://galashielsfoodbank.co.uk/,"St Peters Scottish Episcopal Church
Parsonage Road
Galashiels
TD1 3HS",Scottish Borders,TD1 3HS,galashielsfoodbank@gmail.com,1896753118,55.6111919,-2.8024063,https://galashielsfoodbank.co.uk/,Scotland,Food Bank,1
Queen's Park Govanhill Parish Church,https://qpgpc.com/food-bank/,"170 Queen's Drive
Glasgow
G42 8QZ",Glasgow City,G42 8QZ,officeQPG@btconnect.com,1414233654,55.8347832,-4.2696746,https://qpgpc.com/food-bank/,Scotland,Religious Institution,1
Illminster,http://ilminsterpc.org.uk/community/,"23 Silver St
Ilminster
TA19 0DH",South Somerset,TA19 0DH,office@sweet-surprise.org,146054225,50.9265785,-2.9114556,http://ilminsterpc.org.uk/community/,England,Food Bank,1
Burnley Community Kitchen,https://www.burnleyfccommunity.org/facilities/burnley-community-kitchen/,"Unit 83
Upper Market Square
Charter Walk Shopping Centre
Burnley
BB11 1PY",Burnley,BB11 1PY,n.hart@burnleyfc.com,1282704716,53.7896995,-2.2444617,https://www.burnleyfccommunity.org/facilities/burnley-community-kitchen/,England,Community Centre,1
North Plymouth,https://northplymouth.foodbank.org.uk,"North Plymouth Community Church
Plymbridge Road
Estover
Plymouth
Devon
PL6 7LF",Plymouth,PL6 7LF,info@northplymouth.foodbank.org.uk,7759258889,50.4200633,-4.0941163,https://northplymouth.foodbank.org.uk/give-help/donate-food/,England,Food Bank,1
Eggcup,https://www.eggcup.org,"Lansil Way
Lansil Industrial Estate
Caton Road
Lancaster
LA1 3QY",Lancaster,LA1 3QY,admin@eggcup.org,1524389584,54.0621765,-2.7907747,https://www.eggcup.org/donate-food/,England,Food Bank,1
E1,https://www.facebook.com/groups/628117188029280/,"Tarling East Community Centre
63 Martha Street
Shadwell
E1 2PA",Tower Hamlets,E1 2PA,info@aishahhelp.com,2080887650,51.5122435,-0.054873,https://www.facebook.com/groups/628117188029280/,England,Food Bank,1
Crawley,https://www.crawleyfoodbankpartnership.co.uk/,"Crawley Open House
Riverside House
Stephenson Way
Three Bridges
Crawley
RH10 1TN",Crawley,RH10 1TN,hramanager@crawleyopenhouse.co.uk,1293447712,51.1161047,-0.1632258,https://www.crawleyfoodbankpartnership.co.uk/,England,Food Bank,1
We Are One Foundation,https://www.weareonefoundation.co.uk/,"334 Grimsby Road
Grimsby
DN36 4AA",North East Lincolnshire,DN36 4AA,weareonefounduk@outlook.com,1472596290,53.5348822,-0.032035,https://www.weareonefoundation.co.uk/,England,Food Bank,1
Noor,https://noorfoodbank.co.uk/,"Noor Hall
Noor St
Preston
PR1 1QS",Preston,PR1 1QS,hello@noorfoodbank.co.uk,0,53.7657788,-2.6948257,https://noorfoodbank.co.uk/,England,Food Bank,1
Living Hope,https://alccholmewood.com/living-hope,"Tibshelf Road
Holmewood
Chesterfield
S42 5TA",North East Derbyshire,S42 5TA,ELIZABETHROA@SKY.COM,1246854796,53.1849271,-1.3609515,https://alccholmewood.com/living-hope,England,Food Bank,1
Machars Churches,https://www.facebook.com/MacharsBasicsFoodBank2012/,"Newton Stewart
DG8 6EL",Dumfries and Galloway,DG8 6EL,marlaneg690@btinternet.com,7884370419,54.9613047,-4.4933344,https://www.facebook.com/MacharsBasicsFoodBank2012/,Scotland,Religious Institution,1
Warrington,https://warrington.foodbank.org.uk,"Unit 9
Tanning Court
Warrington
Cheshire
WA1 2HF",Warrington,WA1 2HF,info@warrington.foodbank.org.uk,7583080521,53.3876845,-2.5870739,https://warrington.foodbank.org.uk/give-help/donate-food/,England,Food Bank,1
Inspiring Grace,http://www.inspiringgrace.co.uk/,"Top Floor
Ultimate Strength and Fitness Gym
Brunswick House
Brunswick St
Nelson
Lancashire
BB9 0HQ",Pendle,BB9 0HQ,feeding@inspiringgrace.co.uk,7908249741,53.8284784,-2.2017408,http://www.inspiringgrace.co.uk/,England,Food Bank,1
The Storehouse Congleton,https://www.nlchurch.org.uk/community/the-storehouse,"West Road 
Congleton
Cheshire
CW12 4EY",Cheshire East,CW12 4EY,thestorehouse@nichurch.org.uk,1260297961,53.164528,-2.2233886,https://www.nlchurch.org.uk/community/the-storehouse,England,Food Bank,1
Borehamwood,https://borehamwood.foodbank.org.uk,"St Teresa's Church
291 Shenley Rd
Borehamwood
Hertfordshire
WD6 1TG",Hertsmere,WD6 1TG,info@borehamwood.foodbank.org.uk,2035831109,51.6602877,-0.2687476,https://borehamwood.foodbank.org.uk/give-help/donate-food/,England,Food Bank,1
Alnwick District,https://www.alnwickdistrictfoodbank.co.uk/,"Lindisfarne Adult Learning Centre
30 Lindisfarne Road
Alnwick
NE66 1AU",Northumberland,NE66 1AU,alnwickdistrictfoodbank@gmail.com,7498488797,55.4052903,-1.7011533,https://www.alnwickdistrictfoodbank.co.uk/donations,England,Food Bank,1
Riverside Vineyard Storehouse,https://www.riversidevineyard.com/storehouse,"Riverside Vineyard Church
Air Park Way
Feltham
TW13 7LX",Hounslow,TW13 7LX,storehouse@riversidevineyard.com,2088902626,51.443165,-0.406323,https://www.riversidevineyard.com/donate,England,Food Bank,1
Godalming,https://www.parishofgodalming.org.uk/our-church-of-st-marks/food-bank/,"St.Mark's Community Centre/Church
Franklyn Road
Godalming
GU7 2LD",Waverley,GU7 2LD,stmarkscentre@googlemail.com,1483418741,51.1811048,-0.6319982,https://www.parishofgodalming.org.uk/our-church-of-st-marks/food-bank/,England,Food Bank,1
Seahaven,http://www.kings-well.org.uk/storehouse-plus-email-new.php,"Seaford Community Church
Kings-Well
115-117 Vale Road
Seaford
East Sussex
BN25 3HB",Lewes,BN25 3HB,seahavenstorehouse@gmail.com,7921844930,50.7802177,0.1147387,http://www.kings-well.org.uk/storehouse-plus-email-new.php,England,Food Bank,1
Malvern Hills,https://malvernhills.foodbank.org.uk,"Unit 4, Spring Court
Spring Lane South
Malvern
WR14 1AT",Malvern Hills,WR14 1AT,info@malvernhills.foodbank.org.uk,1684564491,52.1248602,-2.3047717,https://malvernhills.foodbank.org.uk/give-help/donate-food/,England,Food Bank,1
Tay Bridgehead,https://www.taybridgeheadfoodbank.org.uk/,"Queen Street
Tayport
DD6 9JY",Fife,DD6 9JY,mail@taybridgeheadfoodbank.org.uk,7840957039,56.4458131,-2.880561,https://www.taybridgeheadfoodbank.org.uk/donate/food-donations/,Scotland,Food Bank,1
Leeds South & East,https://leedssouthandeast.foodbank.org.uk,"7 Lenton Drive
Parkside Industrial Estate
Leeds
LS11 5JW",Leeds,LS11 5JW,info@leedssouthandeast.foodbank.org.uk,1133450850,53.7710741,-1.5423607,https://leedssouthandeast.foodbank.org.uk/give-help/donate-food/,England,Food Bank,1
Exmouth Community Larder,http://www.exmouthlarder.co.uk,"Salvation Army
Sheppards Row
Exmouth
Devon
EX8 1PW",East Devon,EX8 1PW,help@exmouthlarder.co.uk,7749322291,50.6213819,-3.4124852,http://www.exmouthlarder.co.uk,England,Community Centre,1
Selby Centre,https://www.selbytrust.co.uk/selby-food-hub,"Selby Road
Tottenham
London
N17 8JL",Haringey,N17 8JL,reception@selbytrust.co.uk,2088855499,51.6073462,-0.0782709,https://www.selbytrust.co.uk/selby-food-hub,England,Food Bank,1
Bradford on Avon,https://bradfordonavon.foodbank.org.uk,"The Hub @ BA15
Church Street
Bradford on Avon
BA15 1LS",Wiltshire,BA15 1LS,boacommunityhub@gmail.com,1225920748,51.3478187,-2.2514713,https://bradfordonavon.foodbank.org.uk/give-help/donate-food/,England,Food Bank,1
Shoreline,https://www.shorelinechurch.org.uk/what-we-do/,"9 Mornington Road
Southport
PR9 0TS",Sefton,PR9 0TS,office@shorelinechurch.org.uk,1704535989,53.6471066,-2.9964257,https://www.shorelinechurch.org.uk/what-we-do/,England,Food Bank,1
East Grinstead,https://eastgrinstead.foodbank.org.uk,"Jubilee Community Centre
Charlwoods Road
East Grinstead
West Sussex
RH19 2HL",Mid Sussex,RH19 2HL,info@eastgrinstead.foodbank.org.uk,7983209940,51.1337328,-0.0146932,https://eastgrinstead.foodbank.org.uk/give-help/donate-food/,England,Food Bank,1
Wells Storehouse,http://wellsvineyard.com/index.php/compassion,"Unit 2
Keward Mill Trading Estate
Jocelyn Drive
Wells
BA5 1DA",Mendip,BA5 1DA,info@wellsvineyard.com,7871689598,51.2017108,-2.6610171,http://wellsvineyard.com/index.php/compassion,England,Food Bank,1
Faversham,https://faversham.foodbank.org.uk/,"The Gospel Mission Church
Tanners Street
Faversham
Kent
ME13 7JL",Swale,ME13 7JL,info@faversham.foodbank.org.uk,7938720604,51.315892,0.8852076,https://faversham.foodbank.org.uk/give-help/donate-food/,England,Food Bank,1
Newcastle West End,https://newcastlewestend.foodbank.org.uk/,"The Food Bank Centre
Benwell Lane
Newcastle upon Tyne
NE15 6NG",Newcastle upon Tyne,NE15 6NG,ceo.wefb@gmail.com,7580751365,54.974127,-1.6733133,https://newcastlewestend.foodbank.org.uk/give-help/donate-food/,England,Food Bank,1
Margate,https://margate-independent-foodbank.business.site,"Union Crescent
Margate
Kent
CT9 1PL",,CT9 1PL,mifoodbank@aol.com,7752065042,51.3875719,1.3838063,https://margate-independent-foodbank.business.site,England,Food Bank,1
ReadiFood,https://readifood.org.uk,"31- 33 Boulton Road
Reading
RG2 0NH",Reading,RG2 0NH,director@fcg.org.uk,1189872672,51.4364284,-0.9738391,https://readifood.org.uk/what-food-we-need/,England,Food Bank,1
Mexborough,http://www.foodawarecic.org.uk,"The Willows Community Centre
Wath Road
Mexborough
S64 9ED",Doncaster,S64 9ED,info@foodawarecic.org.uk,1709718186,53.4953956,-1.2989348,http://www.foodawarecic.org.uk,England,Food Bank,1
Corsham Churches,https://corshamchurchesfoodbank.org.uk,"St Aldhelms Church Hall
Pickwick Road
Corsham
SN13 9BS",Wiltshire,SN13 9BS,rector@corshamandlacockchurches.org.uk,7788115095,51.4319427,-2.1881338,https://corshamchurchesfoodbank.org.uk/get-involved/,England,Religious Institution,1
Kinson & West Howe,https://kinsonwesthowe.foodbank.org.uk/,"St Andrews Church Centre
Milhams Road
Bournemouth
BH10 7LN","Bournemouth, Christchurch and Poole",BH10 7LN,info@kinsonwesthowe.foodbank.org.uk,1202911647,50.771552,-1.904379,https://kinsonwesthowe.foodbank.org.uk/give-help/donate-food/,England,Food Bank,1
Ystradgynlais,http://www.ystradgynlaisvc.org.uk/foodbank.html,"Ystradgynlais Volunteer Centre
The Old Remploy Factory
Wind Roa
 Glanrhyd
Ystradgynlais
Swansea
SA9 1AF",Powys,SA9 1AF,yvcvolunteering@gmail.com,1639845475,51.7672488,-3.774528,http://www.ystradgynlaisvc.org.uk/foodbank.html,Wales,Food Bank,1
Hartlepool,https://hartlepool.foodbank.org.uk,"28 Church Street
Hartlepool
TS24 7DH",Hartlepool,TS24 7DH,info@hartlepool.foodbank.org.uk,1429598404,54.686183,-1.2070888,https://hartlepool.foodbank.org.uk/give-help/donate-food/,England,Food Bank,1
Didcot,https://www.didcotbaptist.org.uk/mission/local-activities/emergency-foodbank.php,"43 Wantage Road
Didcot
OX11 0BS",South Oxfordshire,OX11 0BS,administration@didcotbaptist.org.uk,1235813187,51.6054045,-1.254061,https://www.didcotbaptist.org.uk/mission/local-activities/emergency-foodbank.php,England,Food Bank,1
Wellingborough & District,http://www.daylightcf.org/foodbank/,"10 High Street Place
Wellingborough
Northants
NN8 4HP",Wellingborough,NN8 4HP,foodbank@daylightcf.org,1933446490,52.3024437,-0.6965091,http://www.daylightcf.org/foodbank/foodbank-donations/,England,Food Bank,1
Lisburn,https://lisburn.foodbank.org.uk,"1-3 Graham Gardens
Lisburn
BT28 1XE",Lisburn and Castlereagh,BT28 1XE,team@lisburnfoodbank.org,7756965868,54.5119144,-6.0452407,https://lisburn.foodbank.org.uk/give-help/donate-food/,Northern Ireland,Food Bank,1
Hope Kitchen,https://www.hopekitchen.org.uk/,"2 Soroba Road
Oban
PA34 4HU",Argyll and Bute,PA34 4HU,obanhopekitchen@gmail.com,1631565730,56.4100635,-5.4698638,https://www.hopekitchen.org.uk/,Scotland,Food Bank,1
Storehouse North Down,https://storehousenorthdown.com,"12 Balloo Avenue
Bangor
Northern Ireland
BT19 7QT",Ards and North Down,BT19 7QT,info@storehousenorthdown.com,7526541168,54.642536,-5.671071,https://storehousenorthdown.com/items-needed/,Northern Ireland,Food Bank,1
Stow Park Community Centre,http://www.stowparkcommunitycentre.org.uk/what-we-do/food-bank,"Brynhyfryd Rd
Newport
NP20 4FX",Newport,NP20 4FX,stowparkcentre@yahoo.co.uk,1633843730,51.5838385,-3.0047604,http://www.stowparkcommunitycentre.org.uk/what-we-do/food-bank,Wales,Community Centre,1
Penryn & Falmouth,https://penrynfalmouth.foodbank.org.uk,"Highway House Community Centre
13-15 Church Road
Penryn
TR108DA",Cornwall,TR108DA,foodbank@highwaychurch.co.uk,1326618575,50.1706087,-5.1039001,https://penrynfalmouth.foodbank.org.uk/give-help/donate-food/,England,Food Bank,1
Central Southwark Community Hub,https://www.cschub.co.uk/what-we-do,"St Giles Parish Hall
161 Benhill Road
London
SE5 7LL",Southwark,SE5 7LL,office@cschub.co.uk,2077031653,51.4743088,-0.0864751,https://www.cschub.co.uk/get-involved,England,Community Centre,1
Helston & Lizard,https://helstonthelizard.foodbank.org.uk,"14-16 Wendron Street
Helston
Cornwall
TR13 8PS",Cornwall,TR13 8PS,info@helstonthelizard.foodbank.org.uk,1326564194,50.1014991,-5.2734967,https://helstonthelizard.foodbank.org.uk/give-help/donate-food/,England,Food Bank,1
Food4U,https://scurc.org.uk/food4u-foodcycle/,"1 Brassington Avenue
Sutton Coldfield
B73 6AA",Birmingham,B73 6AA,office@scurc.org.uk,1213551217,52.563797,-1.8245691,https://scurc.org.uk/food4u-foodcycle/,England,Food Bank,1
Nantwich,https://nantwich.foodbank.org.uk,"Market Street Church
Market Street
Nantwich
CW5 5DG",Cheshire East,CW5 5DG,info@nantwich.foodbank.org.uk,7896652209,53.068303,-2.5205468,https://nantwich.foodbank.org.uk/give-help/donate-food/,England,Food Bank,1
Isle of Wight,https://isleofwight.foodbank.org.uk,"Love Lane
Cowes
Isle of Wight
PO31 7ET",Isle of Wight,PO31 7ET,info@isleofwight.foodbank.org.uk,1983292040,50.7525144,-1.303754,https://isleofwight.foodbank.org.uk/give-help/donate-food/,England,Food Bank,1
Eilean Siar,http://www.newwinechurch.com/ministries/eilean-siar-foodbank/,"New Wine Church
Father's House
37-39 Point Street
Stornoway
Isle of Lewis
HS1 2XF",Na h-Eileanan Siar,HS1 2XF,eileansiarfoodbank@gmail.com,1851706650,58.2082658,-6.3893788,http://www.newwinechurch.com/ministries/eilean-siar-foodbank/,Scotland,Food Bank,1
Coalville,https://coalville.foodbank.org.uk,"New Life Church
Margaret Street
Coalville
Leicestershire
LE67 3LY",North West Leicestershire,LE67 3LY,info@coalville.foodbank.org.uk,1530838355,52.7241667,-1.3758333,https://coalville.foodbank.org.uk/give-help/donate-food/,England,Food Bank,1
Brixham,https://www.bxyes.org.uk,"Yes Brixham
The Edge
Bolton Street
Brixham
Torbay
TQ5 9DH",Torbay,TQ5 9DH,info@yesbrixham.org.uk,1803951414,50.393561,-3.5159901,https://www.facebook.com/YESBrixham,England,Food Bank,1
Morecambe Bay,https://morecambebay.foodbank.org.uk,"West End Community Centre
Westminster Road
Morecambe
LA4 4JE",Lancaster,LA4 4JE,info@morecambebay.foodbank.org.uk,7591763130,54.0646818,-2.8782114,https://morecambebay.foodbank.org.uk/give-help/donate-food/,England,Food Bank,1
Wokingham,https://wokingham.foodbank.org.uk/,"1 Broad Street Walk
Wokingham
RG40 1BW",Wokingham,RG40 1BW,info@wokingham.foodbank.org.uk,7926524605,51.410358,-0.8348148,https://wokingham.foodbank.org.uk/,England,Food Bank,1
Leighton-Linslade Helpers,https://www.leightonlinsladehelpers.org.uk/page-content/Food-Parcels,"67 Hockliffe Street
Leighton Buzzard
Bedfordshire
LU7 1EZ",Central Bedfordshire,LU7 1EZ,help@leightonlinsladehelpers.org.uk,3003008186,51.917865,-0.6567068,https://www.leightonlinsladehelpers.org.uk/page-content/Food-Parcels,England,Food Bank,1
Burnage,https://burnage.foodbank.org.uk/,"St Bernard's Church 
Burnage Lane
Manchester
M19 1DR",Manchester,M19 1DR,info@burnage.foodbank.org.uk,7796448205,53.4290031,-2.2019125,https://burnage.foodbank.org.uk/give-help/donate-food/,England,Food Bank,1
Luton,https://lutonfoodbank.org.uk,"3 High Town Enterprise Centre
York Street
Luton
LU2 0HA",Luton,LU2 0HA,website@lutonfoodbank.org.uk,1582725838,51.882902,-0.413832,https://lutonfoodbank.org.uk/give-foodmoney/give-food/,England,Food Bank,1
Perth and Kinross,https://perthkinross.foodbank.org.uk,"11 Cutlog Vennel
Perth
PH1 5HY",Perth and Kinross,PH1 5HY,info@perthkinross.foodbank.org.uk,1738626799,56.3970492,-3.4319118,https://perthkinross.foodbank.org.uk/give-help/donate-food/,Scotland,Food Bank,1
Whitefoot and Downham,http://wdcfplus.org.uk/,"Hope Church Downham
480 Whitefoot Lane
Downham
BR1 5SF",Lewisham,BR1 5SF,info@wdcfplus.org.uk,2086987945,51.433907,0.0085616,http://wdcfplus.org.uk/,England,Food Bank,1
High Peak,http://www.highpeakfoodbank.co.uk/,"C/O United Reformed Church
Hardwick Square East
Buxton
SK17 6PT",High Peak,SK17 6PT,hello@highpeakfoodbank.co.uk,1298214926,53.257187,-1.9101749,http://www.highpeakfoodbank.co.uk/sample-page/,England,Food Bank,1
Totnes Connection Hub,https://connectionhubs.weebly.com/food-bank.html,"2a, Burke Road
Totnes Industrial Estate
Totnes
Devon
TQ9 5XL",South Hams,TQ9 5XL,info@totnesconnectionhub.co.uk,1803840354,50.4350692,-3.6824982,https://connectionhubs.weebly.com/food-bank.html,England,Food Bank,1
Arden,https://arden.foodbank.org.uk/,"Arden Foodbank
c/o Globe House
The Priory
Alcester
B49 5DZ",Stratford-on-Avon,B49 5DZ,ardenfoodbank@gmail.com,7733551926,52.2143988,-1.8737147,https://arden.foodbank.org.uk/give-help/donate-food/,England,Food Bank,1
Swansea,https://swansea.foodbank.org.uk/,"Gorseinon Institute
Lime Street
Gorseinon
Swansea
West Glamorgan
SA4 4EE",Swansea,SA4 4EE,info@swansea.foodbank.org.uk,7815534095,51.66825,-4.03894,https://swansea.foodbank.org.uk/give-help/donate-food/,Wales,Food Bank,1
Poitiers Care,https://www.southampton-city-catholics.org.uk/More/Outreach/Poitiers-Care/Poitiers-Care.php,"Cornerways House
School Lane
Ringwood
Hampshire
BH24 1LG",New Forest,BH24 1LG,poitierscare@gmail.com,7796161047,50.8456,-1.7874416,https://www.southampton-city-catholics.org.uk/More/Outreach/Poitiers-Care/Poitiers-Care.php,England,Food Bank,1
Bexley,https://bexley.foodbank.org.uk,"c/o Avery Hill Christian Fellowship
Southspring
Sidcup
DA15 8EA",Greenwich,DA15 8EA,info@bexley.foodbank.org.uk,7932431350,51.445515,0.0847541,https://bexley.foodbank.org.uk/give-help/donate-food/,England,Food Bank,1
Strabane,https://strabane.foodbank.org.uk/,"Grass Roots Food Market
5D John Wesley Street
Strabane
Co Tyrone
BT82 8RJ",Derry City and Strabane,BT82 8RJ,foodbank@strabanecommunityproject.org.uk,2871414142,54.8264514,-7.4657603,https://strabane.foodbank.org.uk/give-help/donate-food/,Northern Ireland,Food Bank,1
Quinton & Oldbury,https://quintonoldbury.foodbank.org.uk,"St Boniface Church
Quinton Road West
Quinton
B32 2QD",Birmingham,B32 2QD,info@quintonoldbury.foodbank.org.uk,7732157619,52.452227,-1.9832241,https://quintonoldbury.foodbank.org.uk/give-help/donate-food/,England,Food Bank,1
Crediton,https://www.creditoncongregational.org/crediton-food-bank,"Crediton Congregational Church
High Street
EX17 3LF",Mid Devon,EX17 3LF,cccmanse@gmail.com,1363772577,50.7912573,-3.6617778,https://www.creditoncongregational.org/crediton-food-bank,England,Food Bank,1
Burton upon Trent YMCA,https://www.burtonymca.org,"YMCA Burton
James Court
James Street
Burton on Trent
DE14 3ST",East Staffordshire,DE14 3ST,burtonymca@aol.com,1283547211,52.8177759,-1.6268559,https://www.facebook.com/pg/burtonymca,England,Food Bank,1
Wisbech,https://wisbech.foodbank.org.uk/,"Wisbech Baptist Church
Hill Street
Wisbech
Cambridgeshire
PE13 1BD",Fenland,PE13 1BD,info@wisbech.foodbank.org.uk,7933572054,52.6655832,0.1610184,https://wisbech.foodbank.org.uk/give-help/donate-food/,England,Food Bank,1
North Cotswold,https://northcotswold.foodbank.org.uk,"Unit 2
Glebe Farm Buildings
Guiting Power
Cheltenham
Gloucestershire
GL54 5TZ",Cotswold,GL54 5TZ,info@northcotswold.foodbank.org.uk,7879375562,51.9212985,-1.8630945,https://northcotswold.foodbank.org.uk/give-help/donate-food/,England,Food Bank,1
Waveney,https://waveney.foodbank.org.uk,"Unit 9b
Fortress Close
Brome Ind Estate
Eye
IP23 7HN",Mid Suffolk,IP23 7HN,info@waveney.foodbank.org.uk,7484394749,52.339292,1.1326774,https://waveney.foodbank.org.uk/give-help/donate-food/,England,Food Bank,1
Hunstanton and District,https://hunstantondistrict.foodbank.org.uk,"St Edmund's Church Halls
Church Street
Hunstanton
Norfolk
PE36 6BE",King's Lynn and West Norfolk,PE36 6BE,alexander.monro@btinternet.com,7795491154,52.9409696,0.4905757,https://hunstantondistrict.foodbank.org.uk/give-help/donate-food/,England,Food Bank,1
Asylum Link Merseyside,https://www.asylumlink.org.uk,"St Anne's
Overbury Street
Liverpool
L7 3HJ",Liverpool,L7 3HJ,info@asylumlink.org.uk,1517091713,53.4016393,-2.9540291,https://www.asylumlink.org.uk/support-us/donating/,England,Food Bank,1
St Helens,https://sthelens.foodbank.org.uk,"Atherton Street
St Helens
Merseyside
WA10 2DT",St. Helens,WA10 2DT,info@sthelens.foodbank.org.uk,174426414,53.4573861,-2.7441447,https://sthelens.foodbank.org.uk/give-help/donate-food/,England,Food Bank,1
South Ayrshire,https://southayrshire.foodbank.org.uk,"New Life Christian Fellowship
New Life Church
62 Monkton Road
Prestwick
KA9 2PA",South Ayrshire,KA9 2PA,info@southayrshire.foodbank.org.uk,7599071114,55.5069554,-4.6032132,https://southayrshire.foodbank.org.uk/give-help/donate-food/,Scotland,Food Bank,1
Godmanchester,https://godmanchester.foodbank.org.uk,"Godmanchester Baptist Church
East Chadley Lane
Godmanchester
Huntingdon
PE29 2BJ",Huntingdonshire,PE29 2BJ,admin@gbcfoodbank.org.uk,1480277239,52.319712,-0.171472,https://godmanchester.foodbank.org.uk/give-help/donate-food/,England,Food Bank,1
Cambridge City,https://cambridgecity.foodbank.org.uk,"2 Orwell House
Orwell Furlong
Cambridge
CB4 0PP",Cambridge,CB4 0PP,info@cambridgecityfoodbank.org.uk,7772538628,52.2318087,0.1517421,https://cambridgecity.foodbank.org.uk/give-help/donate-food/,England,Food Bank,1
Walker & District,https://walkerdistrict.foodbank.org.uk,"City of God Christian Centre
25 Church Walk
Walker
Newcastle upon Tyne
NE6 3DP",Newcastle upon Tyne,NE6 3DP,info@walkerdistrict.foodbank.org.uk,7517846366,54.9737333,-1.5442295,https://walkerdistrict.foodbank.org.uk/give-help/donate-food/,England,Food Bank,1
Newham,https://newham.foodbank.org.uk/,"St Marks Centre
218 Tollgate Road
Beckton
London
E6 5YA",Newham,E6 5YA,admin@newham.foodbank.org.uk,2074743060,51.5158844,0.0557058,https://newham.foodbank.org.uk/give-help/donate-food/,England,Food Bank,1
Uttlesford,https://uttlesford.foodbank.org.uk/give-help/donate-food/,"Stansted House
Shire Hill
Saffron Walden
CB11 3AQ",Uttlesford,CB11 3AQ,sophiedurlacher@uttlesford.foodbank.org.uk,7531436335,52.0194726,0.2524541,https://uttlesford.foodbank.org.uk/give-help/donate-food/,England,Food Bank,1
Droylsden and District,https://droylsdendistrict.foodbank.org.uk,"St Mary's Church
Church Street
Droylsden
M43 7BR",Tameside,M43 7BR,info@droylsdendistrict.foodbank.org.uk,7473452813,53.4799176,-2.1441163,https://droylsdendistrict.foodbank.org.uk/give-help/donate-food/,England,Food Bank,1
Newtownards,https://newtownards.foodbank.org.uk/,"Thriving Life Church
18c Crawfordsburn Road
Newtownards
Down
BT23 4EA",Ards and North Down,BT23 4EA,info@newtownards.foodbank.org.uk,2891817487,54.5992872,-5.70515,https://newtownards.foodbank.org.uk/give-help/donate-food/,Northern Ireland,Food Bank,1
Rukhsana Khan Foundation,https://www.rukhsanakhanfoundation.org,"6-8 Greenleaf Rd
Walthamstow
London
E17 6QQ",Waltham Forest,E17 6QQ,rukhsanakhanfoundation@outlook.com,7980351351,51.5876496,-0.0217225,https://www.rukhsanakhanfoundation.org/donate,England,Food Bank,1
Gleadless Valley,https://gleadlessvalley.foodbank.org.uk,"Gleadless Valley Methodist Church
Blackstock Road
Sheffield
S14 1FT",Sheffield,S14 1FT,info@gleadlessvalley.foodbank.org.uk,1142530315,53.3442795,-1.4454877,https://gleadlessvalley.foodbank.org.uk/give-help/donate-food/,England,Food Bank,1
FEED,https://www.thevineyardchurch.co.uk/feed,"7 Ashley Road Brick Knoll Park
Ashley Road Industrial Estate
St Albans
AL1 5UG",St Albans,AL1 5UG,office@thevineyardchurch.co.uk,1727812765,51.7491667,-0.3027778,https://www.thevineyardchurch.co.uk/feed-shopping-list,England,Food Bank,1
North Ayrshire,https://northayrshire.foodbank.org.uk,"150 A Glasgow Street
Adrossan
Ayrshire
KA22 8EU",North Ayrshire,KA22 8EU,nafoodbank@btinternet.com,1294601312,55.6437638,-4.8109453,https://northayrshire.foodbank.org.uk/give-help/donate-food/,Scotland,Food Bank,1
Ledbury,http://www.ledburyfoodbank.org/,"St Katherines
High St
Ledbury
HR8 1DZ","Herefordshire, County of",HR8 1DZ,food@ledburyfoodbank.org,7581283092,52.0368072,-2.4230976,http://www.ledburyfoodbank.org/,England,Food Bank,1
Aylesbury Vineyard Storehouse,https://aylesburyvineyard.church/storehouse,"The Vineyard Centre
Gatehouse Close
Aylesbury
HP19 8DN",Buckinghamshire,HP19 8DN,office@aylesburyvineyard.org,1296424440,51.817021,-0.8243686,https://aylesburyvineyard.church/storehouse,England,Food Bank,1
Thetford,https://thetford.foodbank.org.uk,"Charles Burrell Centre
Staniforth Road
Thetford
IP24 3LH",Breckland,IP24 3LH,info@thetford.foodbank.org.uk,8442889618,52.4046147,0.7400926,https://thetford.foodbank.org.uk/give-help/donate-food/,England,Food Bank,1
Vale of Neath,https://valeofneath.foodbank.org.uk/,"Peniel Pentecostal Church
New Street
Glynneath
SA11 5AA",Neath Port Talbot,SA11 5AA,info@valeofneath.foodbank.org.uk,7561234289,51.7468088,-3.6240035,https://valeofneath.foodbank.org.uk/give-help/donate-food/,Wales,Food Bank,1
Selby & District,https://selbydistrict.foodbank.org.uk/,"30 New Lane
Selby
YO8 4QB",Selby,YO8 4QB,info@selby.foodbank.org.uk,1757703426,53.7829751,-1.0704443,https://selbydistrict.foodbank.org.uk/give-help/donate-food/,England,Food Bank,1
PACT,http://www.pact.org.uk/pact_food_store.asp,"Petersfield Methodist Church
6 Station Rd
Petersfield
GU32 3ED",East Hampshire,GU32 3ED,elaineevansknox@btinternet.com,7980842548,51.0065771,-0.9391933,http://www.pact.org.uk/pact_food_store.asp,England,Food Bank,1
Blaenau Gwent,https://blaenaugwent.foodbank.org.uk,"The Christian Centre
Crown Buildings
Off Cemetery Road
Ebbw Vale
NP23 6YQ",Blaenau Gwent,NP23 6YQ,info@blaenaugwent.foodbank.org.uk,7812425130,51.797152,-3.208118,https://blaenaugwent.foodbank.org.uk/give-help/donate-food/,Wales,Food Bank,1
Craigavon Area,https://craigavonarea.foodbank.org.uk,"Unit 5
Carn Business Park
19 Carn Road
Carn Industrial Estate
Craigavon
Armagh
BT63 5WG","Armagh City, Banbridge and Craigavon",BT63 5WG,info@craigavonfoodbank.com,8452000136,54.4535662,-6.4140462,https://craigavonarea.foodbank.org.uk/give-help/donate-food/,Northern Ireland,Food Bank,1
Swindon,https://www.swindonfoodcollective.org,"Stonehill Green
Westlea
Swindon
Wiltshire
SN5 7DG",Swindon,SN5 7DG,admin@swindonfoodcollective.org,7932108732,51.5620475,-1.8204106,https://www.swindonfoodcollective.org/donate-food/,England,Food Bank,1
Chard,http://lordslarder.chardct.org.uk/,"The Lord's Larder
Fore St
Chard
TA20 1QA",South Somerset,TA20 1QA,chardlordslarder@gmail.com,7542498366,50.8728056,-2.9616502,http://lordslarder.chardct.org.uk/donations/our-list-of-needs/,England,Food Bank,1
Llanelli,https://llanelli.foodbank.org.uk,"22 Myrtle Terrace
Llanelli
Carmarthenshire
SA15 1LH",Carmarthenshire,SA15 1LH,foodbank@myrtlehouse.org.uk,7594609952,51.6799091,-4.1545311,https://llanelli.foodbank.org.uk/give-help/donate-food/,Wales,Food Bank,1
Right Choices,http://www.rightchoices.gloweb.net/foodbank.html,"Heart Centre
Leeds
West Yorkshire
LS6 3HN",Leeds,LS6 3HN,rightchoices1@yahoo.co.uk,7505865317,53.8202573,-1.5778746,http://www.rightchoices.gloweb.net/foodbank.html,England,Food Bank,1
Seaton,https://seatonurc.wordpress.com/seaton-food-bank/,"Seaton URC Church
Cross St
Seaton Down
Seaton
EX12 2LH",East Devon,EX12 2LH,foodbankseaton@gmail.com,7598927997,50.7057121,-3.0710965,https://seatonurc.wordpress.com/seaton-food-bank/,England,Food Bank,1
West Berks,https://westberks.foodbank.org.uk,"Salvation Army Hall
8 Northcroft Lane
Newbury
RG14 1BU",West Berkshire,RG14 1BU,info@westberks.foodbank.org.uk,7955626621,51.4020143,-1.3253897,https://westberks.foodbank.org.uk/give-help/donate-food/,England,Food Bank,1
Newport,https://newport.foodbank.org.uk/,"Christchurch Centre
BT Compound
Malpas Road
Newport
NP20 5PP",Newport,NP20 5PP,info@newport.foodbank.org.uk,1633822211,51.6028862,-3.003052,https://newport.foodbank.org.uk/give-help/donate-food/,Wales,Food Bank,1
Elim Maldon,http://elimmaldon.org.uk/maldon-food-pantry/,"17 Wantz Road
Maldon
CM9 5DB",Maldon,CM9 5DB,rob_sefton@hotmail.com,7940830855,51.7292211,0.6823189,http://elimmaldon.org.uk/maldon-food-pantry/,England,Food Bank,1
Hambleton Foodshare,https://hambletonfoodshare.org.uk/,"5 Garthway Arcade
Northallerton
Hambleton
DL7 8NS",Hambleton,DL7 8NS,info@hambletonfoodshare.org.uk,1609767964,54.3406316,-1.4359608,https://hambletonfoodshare.org.uk/,England,Food Bank,1
Caerphilly,https://caerphilly.foodbank.org.uk/,"Connect Life Church
Crescent Road
Caerphilly
CF83 1AB",Caerphilly,CF83 1AB,info@caerphilly.foodbank.org.uk,2920868151,51.5738016,-3.2228165,https://caerphilly.foodbank.org.uk/give-help/donate-food/,Wales,Food Bank,1
Brechin Community Pantry,https://www.brechincommunitypantry.com,"7 Swan Street
Brechin
Angus
DD9 6EE",Angus,DD9 6EE,brechincommunitypantry5@gmail.com,1356308639,56.732372,-2.6598064,https://www.brechincommunitypantry.com,Scotland,Community Centre,1
Birmingham Central,https://birminghamcentral.foodbank.org.uk/,"Birmingham City Church
Parade
Birmingham
B1 3QQ",Birmingham,B1 3QQ,info@birminghamcentral.foodbank.org.uk,1212362997,52.48188,-1.9104446,https://birminghamcentral.foodbank.org.uk/give-help/donate-food/,England,Food Bank,1
Plymouth,https://plymouth.foodbank.org.uk,"The Oasis Project
28 Manor Street 
Plymouth
PL1 1TW",Plymouth,PL1 1TW,info@plymouth.foodbank.org.uk,1752254981,50.3707091,-4.1543097,https://plymouth.foodbank.org.uk/give-help/donate-food/,England,Food Bank,1
Melvin Hall Community Centre,https://melvinhall.org,"Melvin Road
Penge
SE20 8EU",Bromley,SE20 8EU,melvinhallcommunitygroup@hotmail.com,2087788246,51.4110354,-0.0574575,https://melvinhall.org,England,Community Centre,1
West End Impact,http://www.westendimpact.org.uk/,"4-10 Heysham Road
Morecambe
LA3 1DG",Lancaster,LA3 1DG,info@westendimpact.org.uk,1524888929,54.0469971,-2.892556,http://www.westendimpact.org.uk/,England,Food Bank,1
Holsworthy,http://holsworthyfoodbank.btck.co.uk,"Holsworthy Memorial Hall
Manor Car Park
North Rd
Holsworthy
EX22 6DJ",Torridge,EX22 6DJ,info@holsworthymemorialhall.co.uk,7391989506,50.81119,-4.35354,http://holsworthyfoodbank.btck.co.uk/Donations,England,Food Bank,1
Bounds Green,https://www.boundsgreenfoodbank.org/,"St. Michael's Hall
37 Bounds Green Road
N22 8HE",Haringey,N22 8HE,boundsgreenmutualaid@gmail.com,7933680869,51.5997459,-0.1137402,https://www.boundsgreenfoodbank.org/,England,Food Bank,1
Red Trust Bushey,https://redtrustbushey.org/foodbank,"Church House
Rectory Lane
Bushey
WD23 1BD",Hertsmere,WD23 1BD,foodbank@redtrustbushey.org,7483260440,51.6451846,-0.3675675,https://redtrustbushey.org/foodbank,England,Food Bank,1
The Hive,https://thehivefoodbank.com,"St Mary's Hornsey Rise
Ashley Road
N19 3AD",Islington,N19 3AD,hivefoodbank@gmail.com,7969214666,51.5710884,-0.123229,https://thehivefoodbank.com/get-involved/donate/,England,Food Bank,1
Kings,https://kingsfoodbank.org.uk/,"Shakespeare Centre
Yard 76
Highgate
Kendal
Cumbria
LA9 4HE",South Lakeland,LA9 4HE,kendal@southakesca.org.uk,7534609179,54.3259506,-2.7488981,https://kingsfoodbank.org.uk/be-involved/,England,Food Bank,1
Lincoln Community Larder,http://www.lincolnlarder.co.uk,"YMCA Annexe
Rosemary Lane
Lincoln
LN2 5AR",Lincoln,LN2 5AR,lincolncommunitylarder@hotmail.co.uk,1522569291,53.2291493,-0.5341335,http://www.lincolnlarder.co.uk/food-collection.php,England,Community Centre,1
Cardiff,https://cardiff.foodbank.org.uk,"Unit N5
Cardiff Bay Business Centre
Titan Road
Cardiff
CF24 5EJ",Cardiff,CF24 5EJ,info@cardiff.foodbank.org.uk,2920484120,51.4766009,-3.1537532,https://cardiff.foodbank.org.uk/give-help/donate-food/,Wales,Food Bank,1
Highway Vineyard Church,https://www.highwayvineyard.org/foodbank,"88a Romford Road
Stratford
London
E15 4EH",Newham,E15 4EH,info@highwaychurch.org,2085344019,51.5429182,0.0103423,https://www.highwayvineyard.org/foodbank,England,Religious Institution,1
Conwy,http://conwyfoodbank.co.uk,"Rhiw Road
Colwyn Bay
LL29 7TF",,LL29 7TF,conwyfoodbank@gmail.com,7305197810,53.293187,-3.7265316,http://conwyfoodbank.co.uk/food-items-needed/,Wales,Food Bank,1
Himmah,https://www.himmah.co.uk/himmah-food-bank,"Unit 2
Hubert Street
Nottingham
NG7 5AJ",Nottingham,NG7 5AJ,info@himmah.org,1158714426,52.9630738,-1.1695981,https://www.himmah.co.uk/himmah-food-bank,England,Food Bank,1
Hearts and Hands Stafford,https://heartshands.uk,"The Scout Hut
Lovelace Close
Stafford
ST17 9YB",Stafford,ST17 9YB,admin@heratshands.uk,7534831455,52.7937077,-2.1290574,https://heartshands.uk,England,Food Bank,1
Bishop's Stortford,https://www.bishopsstortfordfoodbank.com,"Bishop's Stortford Methodist Church
34b South Street
Bishop's Stortford
Hertfordshire
CM23 3AZ",East Hertfordshire,CM23 3AZ,communications.bsfb@gmail.com,7432785976,51.8684654,0.16031,https://www.bishopsstortfordfoodbank.com/food-dontations,England,Food Bank,1
Manchester Central,https://manchestercentral.foodbank.org.uk,"Manchester Universities' Catholic Student Chaplaincy
Avila House
335-337 Oxford Road
Manchester
M13 9PG",Manchester,M13 9PG,info@manchestercentral.foodbank.org.uk,7928412339,53.4647135,-2.2315115,https://manchestercentral.foodbank.org.uk/give-help/donate-food/,England,Food Bank,1
Smethwick,https://smethwick.foodbank.org.uk,"Church Hill Street
Smethwick
West Midlands
B67 7AH",Sandwell,B67 7AH,info@smethwick.foodbank.org.uk,1215170141,52.4949136,-1.9721693,https://smethwick.foodbank.org.uk/give-help/donate-food/,England,Food Bank,1
North Liverpool,https://northliverpool.foodbank.org.uk,"St Andrew's Community Network
Clubmoor Community Centre
16-18 Larkhill Lane
Liverpool
L13 9BR",Liverpool,L13 9BR,jo@standrewslive.org.uk,1512263406,53.4339827,-2.9328353,https://northliverpool.foodbank.org.uk/give-help/donate-food/,England,Food Bank,1
West Lothian,https://westlothian.foodbank.org.uk,"Unit 5 Heron Square
Deans Industrial Estate
Livingston
EH54 8QY",West Lothian,EH54 8QY,info@westlothian.foodbank.org.uk,1501229307,55.9066524,-3.5752546,https://westlothian.foodbank.org.uk/give-help/donate-food/,Scotland,Food Bank,1
Clevedon District,https://clevedondistrict.foodbank.org.uk,"Unit 1
Neads Court
Knowles Road
Clevedon
BS21 7XS",North Somerset,BS21 7XS,info@clevedondistrict.foodbank.org.uk,7722769529,51.4344345,-2.8640145,https://clevedondistrict.foodbank.org.uk/give-help/donate-food/,England,Food Bank,1
Eastleigh Basics Bank,https://eastleighbasicsbank.co.uk/,"Unit G6
Wells Place
Eastleigh
SO50 5PP",Eastleigh,SO50 5PP,office@eastleighbasicsbank.co.uk,7563609994,50.967473,-1.3532161,https://eastleighbasicsbank.co.uk/,England,Food Bank,1
Colindale,https://colindale.foodbank.org.uk/,"Trinity Church
Northwest Centre
Avion Crescent
Grahame Park Way
NW9 5QY",Barnet,NW9 5QY,info@colindale.foodbank.org.uk,7415223963,51.601445,-0.238786,https://colindale.foodbank.org.uk/give-help/donate-food/,England,Food Bank,1
Sherborne,https://www.sherbornefoodbank.org,"c/o St Paul's Church
St Paul's Close
Sherborne
DT9 4DU",Dorset,DT9 4DU,help@sherbornefoodbank.org,7854163869,51.0060522,-2.4785679,https://www.sherbornefoodbank.org/what-we-need/,England,Food Bank,1
Sevenoaks,https://stjtb.com/people-groups/loaves-fishes/,"The Clergy House
62 Quakers Hall Lane
Sevenoaks
TN13 3TX",Sevenoaks,TN13 3TX,sevenoaksfoodbank@gmail.com,1732451710,51.2832637,0.1955545,https://stjtb.com/people-groups/loaves-fishes/,England,Food Bank,1
Tottenham,https://tottenham.foodbank.org.uk,"The Tottenham Town Hall,
Town Hall Approach Road,
London
N15 4RY",Haringey,N15 4RY,info@tottenham.foodbank.org.uk,2084930050,51.5872187,-0.0725467,https://tottenham.foodbank.org.uk/give-help/donate-food/,England,Food Bank,1
Feltham,https://felthamfoodbank.org,"102 Hounslow Road
Feltham
TW14 0AX",Hounslow,TW14 0AX,felthamfoodbank@gmail.com,7448831297,51.4539528,-0.4042092,https://felthamfoodbank.org/donations/,England,Food Bank,1
Rugeley,https://rugeley.foodbank.org.uk,"Rugeley Community Centre
Burnthill Lane
Rugeley
WS15 2HX",Cannock Chase,WS15 2HX,info@rugeley.foodbank.org.uk,7528447504,52.758204,-1.938468,https://rugeley.foodbank.org.uk/give-help/donate-food/,England,Food Bank,1
Lewisham,https://lewisham.foodbank.org.uk,"Hope Centre
Malham Road
Forest Hill
London
SE23 1AN",Lewisham,SE23 1AN,info@lewisham.foodbank.org.uk,7938071854,51.4429457,-0.0443393,https://lewisham.foodbank.org.uk/give-help/donate-food/,England,Food Bank,1
Portland,http://portlandfoodbank.co.uk,"St John's Church Hall
Ventnor Road
Portland
DT5 1JE",Dorset,DT5 1JE,portlandfoodbank@gmail.com,1305823789,50.560669,-2.443731,http://portlandfoodbank.co.uk,England,Food Bank,1
Braintree Area,https://braintreearea.foodbank.org.uk,"6 Lakes Road Industrial Estate
Braintree
Essex
CM7 3RU",Braintree,CM7 3RU,info@braintreearea.foodbank.org.uk,1376330694,51.8764468,0.5639101,https://braintreearea.foodbank.org.uk/give-help/donate-food/,England,Food Bank,1
Littlehampton & District,https://littlehamptondistrict.foodbank.org.uk,"Littlehampton Baptist Church
Fitzalan Road
Littlehampton
West Sussex
BN17 5NY",Arun,BN17 5NY,info@littlehamptondistrict.foodbank.org.uk,7925862289,50.8083426,-0.5367136,https://littlehamptondistrict.foodbank.org.uk/give-help/donate-food/,England,Food Bank,1
Doorstep,http://www.mydoorstep.org.uk/what-we-do/food-bank/,"115 Pasture Street
Grimsby
NE Lincs
DN32 9EE",North East Lincolnshire,DN32 9EE,info@mydoorstep.org.uk,1472321444,53.5646531,-0.0697846,http://www.mydoorstep.org.uk/what-we-do/food-bank/,England,Food Bank,1
Thurrock,https://thurrock.foodbank.org.uk,"2-4 Chase Road
Corringham
Essex
SS17 7QH",Thurrock,SS17 7QH,info@thurrock.foodbank.org.uk,7928879068,51.5233832,0.4558437,https://thurrock.foodbank.org.uk/give-help/donate-food/,England,Food Bank,1
Oswestry and Borders,https://oswestryandborders.foodbank.org.uk,"56 Beatrice Street
Oswestry
Shropshire
SY11 1QW",Shropshire,SY11 1QW,info@oswestryandborders.foodbank.org.uk,1691671940,52.8618061,-3.0520168,https://oswestryandborders.foodbank.org.uk/give-help/donate-food/,England,Food Bank,1
Merthyr Cynon,https://merthyrcynon.foodbank.org.uk,"Gurnos Christian Centre
26 Spruce Tree Grove
Merthyr Tydfil
CF47 9AU",Merthyr Tydfil,CF47 9AU,info@merthyrcynon.foodbank.org.uk,7427537437,51.7619268,-3.384312,https://merthyrcynon.foodbank.org.uk/give-help/donate-food/,Wales,Food Bank,1
Doncaster,https://doncaster.foodbank.org.uk,"Christ Church
Thorne Road
Doncaster
DN1 2HG",Doncaster,DN1 2HG,info@doncaster.foodbank.org.uk,7885672808,53.523935,-1.1262426,https://doncaster.foodbank.org.uk/give-help/donate-food/,England,Food Bank,1
Hammersmith & Fulham,https://hammersmithfulham.foodbank.org.uk,"St. Matthews Church
Wandsworth Bridge Road
London
SW6 2TX",Hammersmith and Fulham,SW6 2TX,info@hammersmithfulham.foodbank.org.uk,2077313693,51.4689184,-0.1904887,https://hammersmithfulham.foodbank.org.uk/give-help/donate-food/,England,Food Bank,1
Middlewich & District,https://middlewichdistrict.foodbank.org.uk,"Middlewich Community Centre
34-36 Brooks Lane
Middlewich
Cheshire
CW10 0JG",Cheshire East,CW10 0JG,info@middlewichdistrict.foodbank.org.uk,7712279949,53.189173,-2.439082,https://middlewichdistrict.foodbank.org.uk/give-help/donate-food/,England,Food Bank,1
Crowborough,https://crowborough.foodbank.org.uk,"United Church
Croft Road
Crowborough
East Sussex
TN6 1HA",Wealden,TN6 1HA,info@crowborough.foodbank.org.uk,7936515798,51.0530571,0.1611676,https://crowborough.foodbank.org.uk/give-help/donate-food/,England,Food Bank,1
Hinckley Area,https://hinckleyarea.foodbank.org.uk,"Hope Community Church
Deveron Way
Hinckley
Leicestershire
LE10 0XD",Hinckley and Bosworth,LE10 0XD,info@hinckleyarea.foodbank.org.uk,1455697390,52.5440641,-1.3877352,https://hinckleyarea.foodbank.org.uk/give-help/donate-food/,England,Food Bank,1
King's Lynn,https://kingslynn.foodbank.org.uk,"TS Vancouver Building
St Margaret's Lane
King's Lynn
PE30 5DS",King's Lynn and West Norfolk,PE30 5DS,info@kingslynn.foodbank.org.uk,7582558143,52.7509214,0.3937462,https://kingslynn.foodbank.org.uk/give-help/donate-food/,England,Food Bank,1
Food For Families Penzance,https://www.foodforfamiliespenzance.co.uk/volunteer-support-food-bank-penzanc,"14 Treweath Road
Penzance
TR18 3PZ",Cornwall,TR18 3PZ,foodforfamilliescic@gmail.com,7925298587,50.1282967,-5.5421035,https://www.foodforfamiliespenzance.co.uk/volunteer-support-food-bank-penzanc,England,Food Bank,1
Sutton,https://sutton.foodbank.org.uk/,"Registered Office
Highfield Hall
320 Carshalton Road
Carshalton
SM5 3QB",Sutton,SM5 3QB,admin@suttoncommunityworks.org,7525838640,51.3628865,-0.1725485,https://sutton.foodbank.org.uk/give-help/donate-food/,England,Food Bank,1
Gainsborough,https://www.facebook.com/GainsFoodBank/,"First Floor offices
11-23 Market Street
Gainsborough
DN21 2BL",West Lindsey,DN21 2BL,enquiries@riverside-training.org.uk,1427677277,53.3999087,-0.775,https://www.facebook.com/GainsFoodBank/,England,Food Bank,1
Runnymede,https://runnymede.foodbank.org.uk,"95 Guildford Street
Chertsey
Surrey
KT16 9AS",Runnymede,KT16 9AS,info@runnymede.foodbank.org.uk,1932988350,51.3910198,-0.504905,https://runnymede.foodbank.org.uk/give-help/donate-food/,England,Food Bank,1
Stretford,https://stretford.foodbank.org.uk,"107 Barton Road
Stretford
Manchester
M32 9AF",Trafford,M32 9AF,info@stretford.foodbank.org.uk,7564387209,53.4449015,-2.3140155,https://stretford.foodbank.org.uk/give-help/donate-food/,England,Food Bank,1
Kingston,https://kingston.foodbank.org.uk,"Suite No. 1
444 Ewell Road,
Tolworth
Surrey
KT6 7EL",Kingston upon Thames,KT6 7EL,info@kingston.foodbank.org.uk,2083911100,51.3818117,-0.2817604,https://kingston.foodbank.org.uk/give-help/donate-food/,England,Food Bank,1
Aberdeenshire North,https://aberdeenshirenorth.foodbank.org.uk,"4 St James's Place
Inverurie
Aberdeenshire
AB51 3UB",Aberdeenshire,AB51 3UB,info@aberdeenshirenorth.foodbank.org.uk,7967364600,57.2770753,-2.3716413,https://aberdeenshirenorth.foodbank.org.uk/give-help/donate-food/,Scotland,Food Bank,1
PATCH,http://patchcharity.org.uk,"81 Charles Street
Milford Haven
Pembrokeshire
SA73 2HA",Pembrokeshire,SA73 2HA,contact@patchcharity.org.uk,1646699275,51.7129966,-5.0342118,http://patchcharity.org.uk/give/,Wales,Food Bank,1
Hillingdon,https://hillingdon.foodbank.org.uk,"4 New Windsor Street
Uxbridge
UB8 2TU",Hillingdon,UB8 2TU,hillingdonfoodbank@kingsborough.org.uk,1895252224,51.5445377,-0.4824202,https://hillingdon.foodbank.org.uk/give-help/donate-food/,England,Food Bank,1
Hill Street Baptist Church,https://hillstreet.wordpress.com/about-hill-street-activitiesabout-hill-street-activities/alpha-course/,"Hill Street
Swadlincote
DE11 8HL",South Derbyshire,DE11 8HL,rev.hillstbaptist@gmail.com,7765762286,52.7719524,-1.552838,https://hillstreet.wordpress.com/about-hill-street-activitiesabout-hill-street-activities/alpha-course/,England,Religious Institution,1
Euston,https://euston.foodbank.org.uk,"St. Pancras Church House
1 Lancing Street
London
NW1 1NA",Camden,NW1 1NA,info@euston.foodbank.org.uk,7400053838,51.5285006,-0.1314033,https://euston.foodbank.org.uk/give-help/donate-food/,England,Food Bank,1
Neath,https://neath.foodbank.org.uk,"Orchard Place Baptist Church
Orchard Street
Neath
SA11 1DT",Neath Port Talbot,SA11 1DT,feedthehungry@hotmail.co.uk,7534256508,51.6621407,-3.803733,https://neath.foodbank.org.uk/give-help/donate-food/,Wales,Food Bank,1
Glasgow SW,https://glasgowsw.foodbank.org.uk,"Ibrox Parish Church
Clifford Street
Glasgow
G51 1QL",Glasgow City,G51 1QL,info@glasgowsw.foodbank.org.uk,7708504130,55.849669,-4.3020594,https://glasgowsw.foodbank.org.uk/give-help/donate-food-and-toiletries/,Scotland,Food Bank,1
Hereford,https://herefordfoodbank.co.uk,"41 Monkmoor Street
Hereford
HR1 2DX","Herefordshire, County of",HR1 2DX,herefordfoodbank@rocketmail.com,1432352674,52.0585685,-2.7116404,https://herefordfoodbank.co.uk/make-a-donation,England,Food Bank,1
Antrim,https://antrim.foodbank.org.uk,"Oasis Antrim
10d High Street
Antrim
BT41 4AN",Antrim and Newtownabbey,BT41 4AN,info@antrim.foodbank.org.uk,2894469020,54.7144973,-6.2182843,https://antrim.foodbank.org.uk/give-help/donate-food/,Northern Ireland,Food Bank,1
Richmond,https://richmond.foodbank.org.uk,"The Vineyard Community Centre
The Vineyard
Richmond
TW10 6AQ",Richmond upon Thames,TW10 6AQ,foodbank@vineyardcommunity.org,2089400274,51.4575,-0.3036111,https://richmond.foodbank.org.uk/give-help/donate-food/,England,Food Bank,1
Berwick,https://berwicktrust.org.uk/food-bank/,"The William Elder Building
56 - 58 Castlegate
Berwick upon Tweed
TD15 1JT",Northumberland,TD15 1JT,info@berwicktrust.org.uk,1289330955,55.7730684,-2.0081512,https://berwicktrust.org.uk/food-bank/,England,Food Bank,1
Towcester,https://towcester.foodbank.org.uk,"St John Ambulance Hall
Islington Road
Towcester
NN12 6AU",South Northamptonshire,NN12 6AU,info@towcester.foodbank.org.uk,1327354173,52.1293859,-0.9866189,https://towcester.foodbank.org.uk/give-help/donate-food/,England,Food Bank,1
St Neots,https://stneots.foodbank.org.uk/,"c/o Brittains Unit 2B
Little End Road
Eaton Socon
St Neots
Cambridgeshire
PE19 8JH",Huntingdonshire,PE19 8JH,info@stneots.foodbank.org.uk,1480475426,52.210893,-0.29104,https://stneots.foodbank.org.uk/give-help/donate-food/,England,Food Bank,1
Haven Centre,http://www.havencentre.co,"The Haven Centre
Wadsworth Road
Stapleford
NG9 8BD",Broxtowe,NG9 8BD,Foodbank@havencentre.co,1158240287,52.9349593,-1.2614347,http://www.havencentre.co,England,Food Bank,1
Walsall North,https://walsallnorth.foodbank.org.uk/,"Pelsall Methodist Church
Chapel Street
Pelsall
WS3 4LN",Walsall,WS3 4LN,info@walsallnorth.foodbank.org.uk,7582869895,52.6284215,-1.9682499,https://walsallnorth.foodbank.org.uk/give-help/donate-food/,England,Food Bank,1
Ely,https://ely.foodbank.org.uk,"c/o 10 Chapel Street,
Ely,
Cambridgeshire
CB6 1AD",East Cambridgeshire,CB6 1AD,info@elyfoodbank.org.uk,1353468626,52.4009565,0.2620199,https://ely.foodbank.org.uk/give-help/donate-food/,England,Food Bank,1
Derby City Mission,https://www.derbycitymission.org.uk/foodbank,"Unit 6
Robinsons Industrial Estate
Shaftesbury Street
DE23 8NL",Derby,DE23 8NL,operations@derbycitymission.org.uk,1332460346,52.907944,-1.4667031,https://www.derbycitymission.org.uk/foodbank,England,Food Bank,1
Rugby,https://rugby.foodbank.org.uk,"c/o Hope4
8 Newbold Road
Rugby
CV21 2LJ",Rugby,CV21 2LJ,info@rugby.foodbank.org.uk,7557680019,52.3761675,-1.2646861,https://rugby.foodbank.org.uk/give-help/donate-food/,England,Food Bank,1
Ballycastle,https://ballycastle.foodbank.org.uk,"Dalriada House
Coleraine Road
Ballycastle
BT54 6BA",Causeway Coast and Glens,BT54 6BA,info@ballycastle.foodbank.org.uk,2820769555,55.199627,-6.2587519,https://ballycastle.foodbank.org.uk/give-help/donate-food/,Northern Ireland,Food Bank,1
Camden,https://camden.foodbank.org.uk,"RCCG City Church
14 Pratt Mews
London
NW1 0AD",Camden,NW1 0AD,info@camden.foodbank.org.uk,2073874551,51.5371453,-0.1404591,https://camden.foodbank.org.uk/give-help/donate-food/,England,Food Bank,1
EK Community,https://www.calderwoodbaptist.co.uk/Groups/270462/Food_Bank.aspx,"Calderwood Baptist Church
Maxwellton Road
Calderwood
East Kilbride
G74 3LW",South Lanarkshire,G74 3LW,info@calderwoodbaptist.co.uk,1355520765,55.776864,-4.151128,https://www.calderwoodbaptist.co.uk/Groups/270462/Food_Bank.aspx,Scotland,Community Centre,1
Wadebridge,https://www.wadebridgefoodbank.org,"Unit 2 Trevanson Street
Wadebridge
Cornwall
PL27 7AR",Cornwall,PL27 7AR,contact@wadebridgefoodbank.org,1208815374,50.5167024,-4.8373431,https://www.wadebridgefoodbank.org/give-help/donate-food/,England,Food Bank,1
South Gwynedd,https://southgwynedd.foodbank.org.uk,"Revelation
Park Road
Barmouth
Gwynedd
LL42 1PH",Gwynedd,LL42 1PH,info@southgwynedd.foodbank.org.uk,7973914599,52.7241845,-4.0583913,https://southgwynedd.foodbank.org.uk/give-help/donate-food/,Wales,Food Bank,1
Southampton Basics Bank,https://southamptoncitymission.co.uk/basics-banks/food-banks,"Unit 5 Second Ave
Millbrook
Southampton
SO15 0LP",Southampton,SO15 0LP,office@southamptoncitymission.co.uk,7929641755,50.9177449,-1.4594388,https://foodbankapp.co.uk/app/shoppingList/page/Southampton%20Basics%20Bank,England,Food Bank,1
West Dunbartonshire Community Foodshare,https://westdunbartonshirecommunityfoodshare.co.uk/,"179 High Street
Dumbarton
G82 1NW",West Dunbartonshire,G82 1NW,email@email.com,1389764135,55.9448642,-4.5735445,https://westdunbartonshirecommunityfoodshare.co.uk/,Scotland,Community Centre,1
Rhyl,https://rhyl.foodbank.org.uk,"Sussex Street Christian Centre
15 Sussex Street
Rhyl
LL18 1SE",Denbighshire,LL18 1SE,info@rhyl.foodbank.org.uk,1745342268,53.3209984,-3.4920537,https://rhyl.foodbank.org.uk/give-help/donate-food/,Wales,Food Bank,1
Walk INN,https://balcproject.org.uk/walk-inn-foodbank/,"27 Holywood Road
Belfast
BT4 3BA",Belfast,BT4 3BA,admin@balcproject.org.uk,2895933232,54.5979329,-5.8875867,https://balcproject.org.uk/walk-inn-foodbank/,Northern Ireland,Food Bank,1
CEYP,https://www.ceyp.org/,"4-8 Pound Place
London
SE9 5DN",Greenwich,SE9 5DN,info@ceyp.org,2088596644,51.4504283,0.0578639,https://www.ceyp.org/,England,Food Bank,1
Swale,https://swale.foodbank.org.uk,"The Net Church
East Street
Sittingbourne
Kent
ME10 4BL",Swale,ME10 4BL,info@swale.foodbank.org.uk,7486370709,51.3387033,0.7443918,https://swale.foodbank.org.uk/give-help/donate-food/,England,Food Bank,1
Taff-Ely,https://taffely.foodbank.org.uk,"Bethel Baptist Centre
Heol Miskin
Pontyclun
CF72 9AJ",Rhondda Cynon Taf,CF72 9AJ,Lol@taffely.foodbank.org.uk,7871552804,51.5262125,-3.3886905,https://taffely.foodbank.org.uk/give-help/donate-food/,Wales,Food Bank,1
Central and West Integration Network,https://www.cwin.org.uk/services/food-security-programme/,"Garnethill Multicultural Centre
21 Rose Street
Glasgow
G3 6RE",Glasgow City,G3 6RE,centralandwestintegration@googlemail.com,1415730978,55.8662671,-4.2615877,https://www.cwin.org.uk/services/food-security-programme/,Scotland,Food Bank,1
Corby,https://corby.foodbank.org.uk,"St Peterâ€™s and St Andrewâ€™s Church
Beanfield Ave
Corby
NN18 0EH",Corby,NN18 0EH,info@corby.foodbank.org.uk,7414191434,52.4862494,-0.7206287,https://corby.foodbank.org.uk/give-help/donate-food/,England,Food Bank,1
Hebburn Helps,https://hebburnhelps.co.uk,"South Tyneside Children's Centre
Campbell Park Road
Hebburn
Tyne and Wear
NE31 1QY",South Tyneside,NE31 1QY,admin@hebburnhelps.co.uk,1914899707,54.9754382,-1.5106201,https://hebburnhelps.co.uk,England,Food Bank,1
Dad's House,https://www.dadshouse.org.uk/,"5 Kensington Square
London
W85EP",Kensington and Chelsea,W85EP,info@dadshouse.org.uk,7765183504,51.500811,-0.1893605,https://www.dadshouse.org.uk/,England,Food Bank,1
Portsmouth,https://portsmouth.foodbank.org.uk,"Kingâ€™s Church Hall
Fraser Road
Southsea
PO5 1EE",Portsmouth,PO5 1EE,foodbank@kingschurchportsmouth.co.uk,2392987976,50.793674,-1.08432,https://portsmouth.foodbank.org.uk/give-help/donate-food/,England,Food Bank,1
Hart,https://hart.foodbank.org.uk,"c/o Fleet Methodist Church
Reading Road South
Fleet
Hampshire
GU52 7TF",Hart,GU52 7TF,hart.foodbk@hotmail.co.uk,7926806256,51.2738835,-0.8397549,https://hart.foodbank.org.uk/give-help/donate-food/,England,Food Bank,1
Hailsham,https://hailsham.foodbank.org.uk,"Sheriff Place
Market Square
Hailsham
BN27 1AG",Wealden,BN27 1AG,info@hailsham.foodbank.org.uk,1323398358,50.8622879,0.2603064,https://hailsham.foodbank.org.uk/give-help/donate-food/,England,Food Bank,1
Dorking Area,https://dorkingarea.foodbank.org.uk,"The Christian Centre
Church Street
Dorking
RH4 1DW",Mole Valley,RH4 1DW,info@dorkingarea.foodbank.org.uk,7494226743,51.2325293,-0.3326282,https://dorkingarea.foodbank.org.uk/give-help/donate-food/,England,Food Bank,1
Broxbourne,https://broxbourne.foodbank.org.uk,"18 Fairways
New River Trading Estate
Cheshunt
Hertfordshire
EN8 0NJ",Broxbourne,EN8 0NJ,infobroxbourne.foodbank@gmail.com,7943986261,51.719237,-0.0360736,https://broxbourne.foodbank.org.uk/give-help/donate-food/,England,Food Bank,1
Renfrewshire,https://renfrewshire.foodbank.org.uk,"Renfrewshire Foodbank
PO Box 11360
Paisley
PA3 9FB",Renfrewshire,PA3 9FB,info@renfrewshire.foodbank.org.uk,3001022500,55.8610636,-4.451613,https://renfrewshire.foodbank.org.uk/give-help/donate-food/,Scotland,Food Bank,1
Wandsworth,https://wandsworth.foodbank.org.uk,"St Mark's Church 
Battersea Rise 
London
SW11 1EJ",Wandsworth,SW11 1EJ,info@wandsworth.foodbank.org.uk,2073269428,51.4604982,-0.1702023,https://wandsworth.foodbank.org.uk/give-help/donate-food/,England,Food Bank,1
Inverclyde,https://inverclyde.foodbank.org.uk/,"64-66 West Blackhall Street
Greenock
PA15 1XG",Inverclyde,PA15 1XG,inverclydefoodbank@thei58project.com,1475787177,55.950722,-4.7613899,https://inverclyde.foodbank.org.uk/give-help/donate-food/,Scotland,Food Bank,1
Kidderminster,https://kidderminster.foodbank.org.uk/,"Baxter Church Hall
The Bull Ring
Kidderminster
DY10 2AA",Wyre Forest,DY10 2AA,kiddyfb188@gmail.com,1562746600,52.3885968,-2.2502027,https://kidderminster.foodbank.org.uk/give-help/donate-food-2/,England,Food Bank,1
Bristol North West,https://www.bristolnorthwestfoodbank.org.uk,"Social Justice Hub
St Andrewâ€™s Church
Avonmouth Road
Avonmouth
Bristol
BS11 9EN","Bristol, City of",BS11 9EN,office@bristolnwfoodbank.org.uk,1179235343,51.5009585,-2.6986143,https://www.bristolnorthwestfoodbank.org.uk/donate-food,England,Food Bank,1
Chorlton & Didsbury,https://chorltondidsbury.foodbank.org.uk,"St Barnabas Church
Hurstville Road
Chorlton
M21 8DH",Manchester,M21 8DH,info@chorltondidsbury.foodbank.org.uk,7938191038,53.4309911,-2.2769011,https://chorltondidsbury.foodbank.org.uk/give-help/donate-food/,England,Food Bank,1
Brecon,https://brecon.foodbank.org.uk,"St John's Centre
Pendre Close
Brecon
LD3 9EA",Powys,LD3 9EA,info@brecon.foodbank.org.uk,1874611723,51.9520007,-3.3927188,https://brecon.foodbank.org.uk/give-help/donate-food/,Wales,Food Bank,1
Kingsbridge,https://www.kingsbridgefoodbank.org.uk,"Horizons
110 Fore Street
Kingsbridge
Devon
TQ7 1AW",South Hams,TQ7 1AW,info@kingsbridgefoodbank.org.uk,7593881633,50.2875506,-3.7778867,https://www.kingsbridgefoodbank.org.uk/donate-supplies,England,Food Bank,1
FIND (Ipswich),https://www.findipswich.org.uk/,"5 Braziers Wood Road
Ipswich
IP3 0SP",Ipswich,IP3 0SP,rose.ling@genesispr.co.uk,1473833351,52.0312486,1.1887518,https://www.findipswich.org.uk/support-us,England,Food Bank,1
Normanton,https://normanton.foodbank.org.uk,"The Well Project @ Haw Hill Park
Castleford Road
Normanton
West Yorkshire
WF6 2DP",Wakefield,WF6 2DP,info@normanton.foodbank.org.uk,1924895634,53.7014818,-1.4115644,https://normanton.foodbank.org.uk/give-help/donate-food/,England,Food Bank,1
Liskeard & Looe,https://liskeardlooe.foodbank.org.uk,"Unit 1
Barras Place
Liskeard
Cornwall
PL14 6AX",Cornwall,PL14 6AX,liskeard.foodbank@gmail.com,7512011452,50.4563913,-4.4660418,https://liskeardlooe.foodbank.org.uk/give-help/donate-food/,England,Food Bank,1
BAY,http://thebayfoodbank.org.uk/,"The Barn
Meadow Well Way
Waterville Road
Meadow Well
North Shields
NE29 6BA",North Tyneside,NE29 6BA,thebayfoodbank@gmail.com,1912573820,55.0018375,-1.4676806,http://thebayfoodbank.org.uk/,England,Food Bank,1
Gravesham,https://gravesham.foodbank.org.uk,"Riverside Community Centre
Dickens Road
Gravesend
Kent
DA12 2JY",Gravesham,DA12 2JY,info@graveshamfoodbank.org.uk,1474559555,51.4352302,0.3926849,https://gravesham.foodbank.org.uk/give-help/donate-food/,England,Food Bank,1
Irlam and Cadishead,https://irlamcadishead.foodbank.org.uk/,"Boundary Road Methodist Church
Boundary Road
Irlam
M44 6HD",Salford,M44 6HD,info@irlamcadishead.foodbank.org.uk,7763645964,53.4554946,-2.408604,https://irlamcadishead.foodbank.org.uk/give-help/donate-food/,England,Food Bank,1
Newtownabbey,https://newtownabbey.foodbank.org.uk,"258 Carnmoney Road
Newtownabbey
Co Antrim
BT36 6JZ",Antrim and Newtownabbey,BT36 6JZ,info@newtownabbey.foodbank.org.uk,7581179604,54.6843193,-5.9521367,https://newtownabbey.foodbank.org.uk/give-help/donate-food/,Northern Ireland,Food Bank,1
Truro,https://truro.foodbank.org.uk,"All Saints Church
Tresawls Road
Highertown
Truro
TR1 3LD",Cornwall,TR1 3LD,trurofoodbank@gmail.com,7721711669,50.2624962,-5.0818445,https://truro.foodbank.org.uk/give-help/donate-food/,England,Food Bank,1
Waterside,https://waterside.foodbank.org.uk,"193-195 Hampton Lane
Blackfield
Southampton
Hampshire
SO45 1XA",New Forest,SO45 1XA,info@waterside.foodbank.org.uk,7768713329,50.8185773,-1.3730243,https://waterside.foodbank.org.uk/give-help/donate-food/,England,Food Bank,1
St Paul's Pantry (Crewe),http://stpaulscentre.org.uk/food-bank/,"St Paul's Centre
Hightown
Crewe
CW1 3BY",Cheshire East,CW1 3BY,pantry@stpaulscentre.org.uk,1270586186,53.100646,-2.4471458,http://stpaulscentre.org.uk/food-bank/,England,Food Bank,1
Middleton Central,https://middletoncentral.foodbank.org.uk/,"Lighthouse Project
S6b/c Middleton Shopping Centre
Limetree Road
Middleton
M24 4EL",Rochdale,M24 4EL,info@middletoncentral.foodbank.org.uk,1616431163,53.548664,-2.201735,https://middletoncentral.foodbank.org.uk/give-help/donate-food/,England,Food Bank,1
Ribble Valley,https://ribblevalley.foodbank.org.uk,"United Reformed Church
Castle Gate
Clitheroe
BB7 1AZ",Ribble Valley,BB7 1AZ,info@ribblevalley.foodbank.org.uk,7849534431,53.8711921,-2.3916425,https://ribblevalley.foodbank.org.uk/give-help/donate-food/,England,Food Bank,1
Living Well Bromley,https://www.livingwell.life/p/food-bank,"Holy Trinity Church
66 Lennard Road
London
SE20 7LX",Bromley,SE20 7LX,hello@livingwell.life,2086598991,51.4187458,-0.0487324,https://www.livingwell.life/p/food-bank,England,Food Bank,1
South Normanton Area,https://southnormantonarea.foodbank.org.uk/,"St Michael and All Angels Church
Church Street
South Normanton
Derbyshire
DE55 2BT",Bolsover,DE55 2BT,info@southnormantonarea.foodbank.org.uk,1773811273,53.1080182,-1.3409034,https://southnormantonarea.foodbank.org.uk/give-help/donate-food/,England,Food Bank,1
Ardwick & Longsight,http://ardwickandlongsightfoodbank.org.uk/,"Transformation Community Resource Centre
11 Richmond Grove
Longsight
M13 0LN",Manchester,M13 0LN,info@ardwickandlongsightfoodbank.org.uk,1612733977,53.4605352,-2.2080053,http://ardwickandlongsightfoodbank.org.uk/make-a-donation/,England,Food Bank,1
Bridgend,https://bridgend.foodbank.org.uk,"Hope Baptist Church
Station Hill
Bridgend
CF31 1EA",Bridgend,CF31 1EA,info@bridgend.foodbank.org.uk,1656858713,51.5077892,-3.5766762,https://bridgend.foodbank.org.uk/give-help/donate-food/,Wales,Food Bank,1
Salisbury,https://salisbury.foodbank.org.uk,"Unit 6b, Ashfield Trading Estate
Ashfield Road 
Salisbury
Wiltshire
SP2 7HL",Wiltshire,SP2 7HL,info@salisbury.foodbank.org.uk,1722580173,51.071943,-1.8127833,https://salisbury.foodbank.org.uk/give-help/donate-food/,England,Food Bank,1
Southport,https://southport.foodbank.org.uk,"Lakeside Church
Fairway
Southport
PR9 0LA",Sefton,PR9 0LA,foodbank@lakesidecc.org.uk,1704544419,53.6596988,-2.9986453,https://southport.foodbank.org.uk/give-help/donate-food/,England,Food Bank,1
Highbridge Area,https://highbridgearea.foodbank.org.uk,"Hope Baptist Church
Church Street
Highbridge
TA9 3HW",Sedgemoor,TA9 3HW,info@highbridgearea.foodbank.org.uk,7570707400,51.221063,-2.9758076,https://highbridgearea.foodbank.org.uk/give-help/donate-food/,England,Food Bank,1
Bestwood & Bulwell,https://bestwoodbulwell.foodbank.org.uk,"St Philip's Church
Knights Close
off Old Farm Road
Top Valley
Nottingham
NG5 9AJ",Nottingham,NG5 9AJ,info@bestwoodbulwell.foodbank.org.uk,1159751825,53.0049647,-1.1696496,https://bestwoodbulwell.foodbank.org.uk/give-help/donate-food/,England,Food Bank,1
Shrewsbury,https://www.barnabascommunityprojects.org/foodbank.html,"Community Projects Building
Barnabas Church Centre
Longden Coleham
Shrewsbury
SY3 7DN",Shropshire,SY3 7DN,shrewfoodbank@gmail.com,1743343336,52.7047712,-2.7463504,https://www.barnabascommunityprojects.org/shrewsburyfoodbank,England,Food Bank,1
Daventry,http://www.daventryfoodbank.org.uk,"18A Benbow Close
Daventry
Northamptonshire
NN11 4JP",Daventry,NN11 4JP,foodbank@vineyardcommunity.org.uk,1327577851,52.2584685,-1.14853,https://referral.daventryfoodbank.org.uk/Stock_list.php,England,Food Bank,1
Leeds North & West,https://leedsnorthandwest.foodbank.org.uk,"62a Burley Road
Leeds
LS3 1JX",Leeds,LS3 1JX,info@leedsnorthandwest.foodbank.org.uk,1132444696,53.8028341,-1.5659634,https://leedsnorthandwest.foodbank.org.uk/give-help/donate-food/,England,Food Bank,1
Penzance,https://www.churchestogetherinpenzance.co.uk/ctipafoodbank.htm,"The Store
Treweath Road
Treneere Estate
Penzance
TR18 3PZ",Cornwall,TR18 3PZ,roger.rule5@btinternet.com,7950159841,50.1286255,-5.54136,https://www.churchestogetherinpenzance.co.uk/ctipafoodbank.htm,England,Food Bank,1
The Orchard Liverpool,https://www.facebook.com/orchardliverpool/,"Garston Urban Village Hall 
70 Banks Road
Garston
Liverpool
L19 8JZ",Liverpool,L19 8JZ,email@email.com,1512077744,53.3487091,-2.8926632,https://www.facebook.com/orchardliverpool/,England,Food Bank,1
Westminster,https://www.westminsterchapel.org.uk/ministries/foodbank/,"Westminster Chapel
Buckingham Gate
London
SW1E 6BS",Westminster,SW1E 6BS,foodbank@westminsterchapel.org.uk,02078341731x224,51.498885,-0.138101,https://www.westminsterchapel.org.uk/ministries/foodbank/,England,Food Bank,1
Edinburgh SE,https://edinburghse.foodbank.org.uk,"Blythswood Care
47 Southhouse Broadway
Edinburgh
EH17 8AS",City of Edinburgh,EH17 8AS,jrossapc@googlemail.com,1316649353,55.8983525,-3.1579156,https://edinburghse.foodbank.org.uk/give-help/donate-food/,Scotland,Food Bank,1
Whitby,http://www.foodbank4whitby.org.uk,"Whitby Evangelical Church
12 Skinner St
Whitby
YO21 3AJ",Scarborough,YO21 3AJ,b.g.davies141@gmail.com,7789765696,54.4871557,-0.6174978,http://www.foodbank4whitby.org.uk/?page_id=878,England,Food Bank,1
Basingstoke,https://basingstoke.foodbank.org.uk,"Sarum Hall
Trinity Methodist Church
Sarum Hill
Basingstoke
RG21 8SR",Basingstoke and Deane,RG21 8SR,admin@basingstoke.foodbank.org.uk,7722673645,51.2626953,-1.0911414,https://basingstoke.foodbank.org.uk/give-help/donate-food/,England,Food Bank,1
Earlsfield,https://www.earlsfieldtogether.com/foodbank,"St. Andrews Church
Wayneflete Street
Earlsfield
London
SW18 3QG",Wandsworth,SW18 3QG,sue.knowles@outlook.com,2088793440,51.4402785,-0.1864695,https://www.earlsfieldtogether.com/foodbank,England,Food Bank,1
Norwich,http://www.norwichfoodbank.co.uk,"Unit 14
Henderson Industrial Units
Ivy Road
Norwich
Norfolk
NR5 8BF",Norwich,NR5 8BF,admin@norwich.foodbank.org.uk,1603251733,52.635319,1.2547852,https://www.networknorwich.co.uk/Articles/210559/Network_Norwich_and_Norfolk/Partners/Norwich_Foodbank/Admin_Articles/What_food_do_we_need.aspx,England,Food Bank,1
Carrickfergus,https://carrickfergus.foodbank.org.uk/,"75 Woodburn Road
Carrickfergus
Co Antrim
BT38 8PS",Mid and East Antrim,BT38 8PS,info@carrickfergus.foodbank.org.uk,2893438475,54.7248492,-5.8333355,https://carrickfergus.foodbank.org.uk/give-help/donate-food/,Northern Ireland,Food Bank,1
Yiewsley & West Drayton,https://yiewsleywestdrayton.foodbank.org.uk,"St Matthew's Church Centre
High Street
Yiewsley
UB7 7QH",Hillingdon,UB7 7QH,info@yiewsleywestdrayton.foodbank.org.uk,7462097357,51.5131608,-0.4730141,https://yiewsleywestdrayton.foodbank.org.uk/give-help/donate-food/,England,Food Bank,1
Kensington & Chelsea,https://kensingtonchelsea.foodbank.org.uk,"Notting Hill Methodist Church
240 Lancaster Rd
London
W11 4AH",Kensington and Chelsea,W11 4AH,info@kensingtonchelsea.foodbank.org.uk,2037289003,51.5150198,-0.2139442,https://kensingtonchelsea.foodbank.org.uk/give-help/donate-food/,England,Food Bank,1
Wyke,https://wyke.foodbank.org.uk/,"The Hub
68 Blackstone Avenue
Wyke
Bradford
BD12 8SJ",Bradford,BD12 8SJ,info@wyke.foodbank.org.uk,7941326723,53.7343373,-1.7721299,https://wyke.foodbank.org.uk/give-help/donate-food/,England,Food Bank,1
Alton,https://alton.foodbank.org.uk,"15 Market Square
Alton
Hampshire
GU34 1HD",East Hampshire,GU34 1HD,info@alton.foodbank.org.uk,7773034447,51.1484812,-0.9785286,https://alton.foodbank.org.uk/give-help/donate-food/,England,Food Bank,1
Teignbridge Homeless Action Today,https://www.thatfoodbank.com/,"8 Queensway House
Buckland
Newton Abbot
TQ12 4BA",Teignbridge,TQ12 4BA,thatfoodbank@gmail.com,1626437310,50.5255057,-3.591804,https://www.thatfoodbank.com/donate,England,Food Bank,1
Aylesbury,https://aylesbury.foodbank.org.uk,"44 Rabans Close
Aylesbury
Buckinghamshire
HP19 8RS",Aylesbury Vale,HP19 8RS,info@aylesbury.foodbank.org.uk,1296395514,51.8233485,-0.8518391,https://aylesbury.foodbank.org.uk/give-help/donate-food/,England,Food Bank,1
Aberdeen North,https://aberdeennorth.foodbank.org.uk,"The Kings Communities Church
10 Urquhart Road
Aberdeen
AB24 5LL",Aberdeen City,AB24 5LL,info@aberdeennorth.foodbank.org.uk,1224651000,57.1543411,-2.094537,https://aberdeennorth.foodbank.org.uk/give-help/donate-food/,Scotland,Food Bank,1
Bedford,https://bedford.foodbank.org.uk/,"71 Murdock Road
Manton Industrial Estate
Bedford
MK41 7PL",Bedford,MK41 7PL,info@bedford.foodbank.org.uk,1234268569,52.1547418,-0.4735833,https://bedford.foodbank.org.uk/,England,Food Bank,1
Hedge End,https://www.facebook.com/hedgeendfoodcentre/,"Kings Community Church
Upper Northam Road
Southampton
SO30 4BZ",Eastleigh,SO30 4BZ,admin@kccsouthampton.org,1489784333,50.9123483,-1.3154357,https://www.facebook.com/hedgeendfoodcentre/,England,Food Bank,1
Freedom,https://www.fcgroup.org.uk/project/food-bank/,"Hillstown Methodist Church
Langwith Road
Bolsover
S44 6LY",Bolsover,S44 6LY,info@freedom.charity,3003020334,53.2231893,-1.2817066,https://www.fcgroup.org.uk/project/food-bank/,England,Food Bank,1
Hayle,http://www.haylemethodist.co.uk/about-us/hayle-foodbank/,"Hayle Methodist Church
6 Chapel Hill
Hayle
Cornwall
TR27 4JU",Cornwall,TR27 4JU,haylefoodbank@yahoo.co.uk,1736754583,50.189237,-5.4174621,http://www.haylemethodist.co.uk/about-us/hayle-foodbank/,England,Food Bank,1
Helensburgh & Lomond,https://helensburghlomondfoodbank.org,"Red Cross Hall
116, East Princes Street
Helensburgh
G84 7DQ",Argyll and Bute,G84 7DQ,helensburghfoodbank@gmail.com,1436672507,56.0021937,-4.7242533,https://helensburghlomondfoodbank.org,Scotland,Food Bank,1
One Big Family Kent,https://www.helpingthehomeless.org.uk/medway,"22 Waghorn Street
Chatham
ME4 5LT",Medway,ME4 5LT,info@helpingthehomeless.org.uk,7825254224,51.3744138,0.5352985,https://www.helpingthehomeless.org.uk/medway,England,Food Bank,1
Wansbeck Valley,https://wansbeckvalleyfoodbank.org,"Northgate Hospital
Morpeth
NE61 3EY",Northumberland,NE61 3EY,Wansbeckvalleyfoodbank@gmail.com,7841908477,55.1842753,-1.7098245,https://wansbeckvalleyfoodbank.org/frequently-asked-questions/,England,Food Bank,1
Lyme Regis,https://www.lymeforward.com/foodbank,"The Hub
Church Street
Lyme Regis
DT7 3BS",Dorset,DT7 3BS,lymeforward@gmail.com,1297441224,50.7254417,-2.9318556,https://www.lymeforward.com/foodbank,England,Food Bank,1
Braes Storehouse,http://www.braesstorehouse.org.uk,"Main Rd
Maddiston
Falkirk
FK2 0LU",Falkirk,FK2 0LU,braesstorehouse@hotmail.com,7763521053,55.969829,-3.697538,http://www.braesstorehouse.org.uk,Scotland,Food Bank,1
Grantham,http://granthamfoodbank.org.uk,"Unit 1-2
Grey Friars
Grantham
NG31 6PG",South Kesteven,NG31 6PG,gfbenquiry@hotmail.com,7816872561,52.9123952,-0.6461274,http://granthamfoodbank.org.uk/wpress/donors/shortages-and-how-to-help/,England,Food Bank,1
Wirral,https://wirral.foodbank.org.uk,"Unit 14 Wirral Business Centre 
Dock Road 
Birkenhead
CH41 1JW",Wirral,CH41 1JW,enquiries@wirralfoodbank.org.uk,1516387090,53.4063675,-3.0371518,https://wirral.foodbank.org.uk/give-help/donate-food/,England,Food Bank,1
The Raft Foundation,http://www.raftfoundation.org,"Suite 35, 3rd Floor
Hardmans Business Centre
New Hall Hey
Rawtenstall
BB4 6AJ",Rossendale,BB4 6AJ,info@raftfoundation.org,7874206854,53.6968428,-2.2975389,http://www.raftfoundation.org/,England,Food Bank,1
Leighton Linslade Community,https://www.llhsblackhorse.org.uk/,"The Black Horse
21 North Street
Leighton Buzzard
LU7 1EQ",Central Bedfordshire,LU7 1EQ,info@llhsblackhorse.org.uk,7842122429,51.9178564,-0.6608434,https://www.llhsblackhorse.org.uk/copy-of-donations,England,Community Centre,1
Kettering,https://www.ketteringfoodbank.org/,"Praise Community Church
Alexandra Street
Kettering
NN16 0SX",Kettering,NN16 0SX,ketteringfoodbank@gmail.com,7709741353,52.4002778,-0.7222222,https://www.ketteringfoodbank.org/pages/donate-food,England,Food Bank,1
Banc Bwyd Bro Ddyfi,http://www.machynllethstpeters.co.uk/index.php/food-bank,"Room 300
Plas Machynlleth
Aberystwyth Road
Machynlleth
SY20 8ER",Powys,SY20 8ER,cliveandhelena@hotmail.co.uk,7983715162,52.5888808,-3.8514288,http://www.machynllethstpeters.co.uk/index.php/food-bank,Wales,Food Bank,1
North Lakes,https://www.thefoodbank.org.uk/,"Lorton St Methodist Church
Lorton St
Cockermouth
CA13 9RH",Allerdale,CA13 9RH,info@thefoodbank.org.uk,7502311452,54.6607888,-3.3629449,https://www.thefoodbank.org.uk/,England,Food Bank,1
Oxford CEF,http://www.cefoxford.co.uk/,"Rectory Farmhouse
2 Church Street
Bladon
OX20 1RS",West Oxfordshire,OX20 1RS,info@cefoxford.co.uk,1993810622,51.8293083,-1.3499452,http://www.cefoxford.co.uk/foodlist.asp,England,Food Bank,1
Sunderland,https://sunderland.foodbank.org.uk,"90 Coronation Street
Sunderland
SR1 2HE",Sunderland,SR1 2HE,coordinator@sunderlandfoodbank.org.uk,1915437191,54.9069246,-1.3709725,https://sunderland.foodbank.org.uk/give-help/donate-food/,England,Food Bank,1
Great Yarmouth,https://www.greatyarmouthfoodbank.co.uk,"The Salvation Army
Tolhouse Street
Great Yarmouth
NR30 2SQ",Great Yarmouth,NR30 2SQ,info@greatyarmouthfoodbank.co.uk,1493858069,52.6046346,1.7273647,https://www.greatyarmouthfoodbank.co.uk/supplies-list-donate/,England,Food Bank,1
Sleaford New Life Community Larder,http://www.communitylarder.co.uk/,"New Life Centre
Mareham Lane
Sleaford
NG34 7JP",North Kesteven,NG34 7JP,community.larder@nlcm.org.uk,1529413063,52.9940748,-0.4063291,http://www.communitylarder.co.uk/how-can-i-help/4576769127,England,Community Centre,1
Bute,https://www.buteadvice.org.uk/foodbank,"Bute Advice Centre
22/26 Bishop Street
Rothesay
Isle of Bute
PA20 9DG",Argyll and Bute,PA20 9DG,info@buteadvice.org.uk,1700502784,55.836741,-5.0521529,https://www.buteadvice.org.uk/foodbank,Scotland,Food Bank,1
Growth Foodbank,https://www.growthchurch.co.uk/growth-foodbank,"36 Eastwood Road
Rayleigh
Essex
SS6 7JQ",Rochford,SS6 7JQ,foodbank@recchurch.co.uk,1268779821,51.5838448,0.6072919,https://www.facebook.com/RECChurchRayleigh/,England,Food Bank,1
Holbeach Community Larder,https://allsaintsholbeach.org.uk/community-larder/,"The Vicarage
5 Church Street    
Holbeach    
Spalding    
Lincolnshire
PE12 7LL",South Holland,PE12 7LL,rosamund.seal@btinternet.com,1406424989,52.8027465,0.0137282,https://allsaintsholbeach.org.uk/community-larder/,England,Community Centre,1
Govan Community Project,https://www.govancommunityproject.org.uk/food-distribution.html,"The Pearce Institute
The Fairfield Hall
840 Govan Road
â€‹Glasgow
G51 3UU",Glasgow City,G51 3UU,philippa@govancommunityproject.org.uk,1414453718,55.8635545,-4.3128865,https://www.govancommunityproject.org.uk/food-distribution.html,Scotland,Community Centre,1
King's Cross,https://www.kxc.org.uk/foodbank,"237 Pentonville Rd
London
N1 9NG",Islington,N1 9NG,hello@kxc.org.uk,2034325396,51.5309658,-0.1182034,https://www.kxc.org.uk/foodbank,England,Food Bank,1
Prestatyn & Meliden,https://prestatynmeliden.foodbank.org.uk,"200 Victoria Road
Prestatyn
Denbighshire
LL19 7TL",Denbighshire,LL19 7TL,info@prestatynmeliden.foodbank.org.uk,7722749773,53.3361973,-3.4222086,https://prestatynmeliden.foodbank.org.uk/give-help/donate-food/,Wales,Food Bank,1
Harlow,http://mrct.org.uk/foodbank/,"Unit 8, Housham Hall Farm
Harlow Road
Matching Tye
Harlow
Essex
CM17 0PB",Epping Forest,CM17 0PB,enquiries@mrct.org.uk,1279724515,51.7866474,0.1794445,http://mrct.org.uk/foodbank/,England,Food Bank,1
Fosse,https://fosse.foodbank.org.uk,"St Peter's Church
Warwick Road
Kineton Warwick
CV35 0HN",Stratford-on-Avon,CV35 0HN,info@fosse.foodbank.org.uk,7964412010,52.1569891,-1.510636,https://fosse.foodbank.org.uk/give-help/donate-food/,England,Food Bank,1
Bangor NI,https://bangorni.foodbank.org.uk,"3 Balloo Court
Balloo Drive
Bangor
BT19 7AT",Ards and North Down,BT19 7AT,info@bangorni.foodbank.org.uk,7821791674,54.6450101,-5.6673482,https://bangorni.foodbank.org.uk/give-help/donate-food/,Northern Ireland,Food Bank,1
Wrexham,https://wrexham.foodbank.org.uk,"Unit 1A
Puleston Industrial Estate
Ruabon Road
Wrexham
LL13 7RF",Wrexham,LL13 7RF,info@wrexham.foodbank.org.uk,7538547971,53.03679,-3.0093518,https://wrexham.foodbank.org.uk/give-help/donate-food/,Wales,Food Bank,1
Edinburgh Food Project,https://edinburghfoodproject.org,"Unit 12
New Lairdship Yards 
Edinburgh
EH11 3UY",City of Edinburgh,EH11 3UY,info@edinburghfoodproject.org,1314440030,55.926822,-3.281812,https://edinburghfoodproject.org/donate-food/,Scotland,Food Bank,1
Ammanford,https://ammanford.foodbank.org.uk/,"Ammanford Evangelical Church
Wind Street
Carmarthenshire
Ammanford
SA18 3DR",Carmarthenshire,SA18 3DR,info@ammanford.foodbank.org.uk,7804189830,51.7916642,-3.9896772,https://ammanford.foodbank.org.uk/give-help/donate-food/,Wales,Food Bank,1
Black Country,https://www.blackcountryfoodbank.org.uk,"Albion Street
Brierley Hill
DY5 3EE",Dudley,DY5 3EE,admin@blackcountryfoodbank.org.uk,1384671250,52.4816464,-2.1225946,https://www.blackcountryfoodbank.org.uk/support/shortages/,England,Food Bank,1
Stevenage Community,https://stevenagecommunityfoodbank.org.uk/,"Daneshill House
Stevenage
SG1 1HN",Stevenage,SG1 1HN,stevenagecommunityfoodbank@gmail.com,1438242242,51.9013555,-0.2032213,https://stevenagecommunityfoodbank.org.uk/donations/,England,Community Centre,1
Nottingham,https://nottingham.foodbank.org.uk,"N/A
NG1 3AX",Nottingham,NG1 3AX,n@a.com,N/A,52.9540019,-1.2401012,https://nottingham.foodbank.org.uk/give-help/donate-food/,England,Food Bank,1
Albrighton,https://www.albrightonparishchurch.org.uk/albrightonfoodbank.htm,"The Parish Office
St Mary's Church Centre
Vicarage Fields, off High Street
Albrighton
WV7 3EQ",Shropshire,WV7 3EQ,revmarythomas@gmail.com,1902373415,52.6370646,-2.2836204,https://www.albrightonparishchurch.org.uk/foodbankwanteditems.htm,England,Food Bank,1
Woodgate Community Food,https://tinyurl.com/woodgatefood,"c/o Fosse Mutual Aid Association
Woodgate Resources Centre
36 Woodgate
Leicester
LE3 5GE",Leicester,LE3 5GE,woodgatecommunityfood@gmail.com,1164030146,52.643616,-1.1462531,https://tinyurl.com/woodgatefood,England,Community Centre,1
Hamilton District,https://hamiltondistrict.foodbank.org.uk,"22 Townhead St
Hamilton
ML3 7BE",South Lanarkshire,ML3 7BE,info@hamiltondistrict.foodbank.org.uk,7884451512,55.7754176,-4.0331173,https://hamiltondistrict.foodbank.org.uk/give-help/donate-food/,Scotland,Food Bank,1
Bridgnorth,https://www.bridgnorthfoodbank.co.uk,"7 West Castle Street
Bridgnorth
Shropshire
WV16 4AB",Shropshire,WV16 4AB,contactus@bridgnorthfoodbank.co.uk,7960285520,52.5337997,-2.4197887,https://www.bridgnorthfoodbank.co.uk/giving-help/,England,Food Bank,1
Salford,https://salford.foodbank.org.uk,"Christ Central
Mocha Parade
Salford
M7 1QE",Salford,M7 1QE,info@salfordcentral.foodbank.org.uk,1616374500,53.4914694,-2.25976,https://salford.foodbank.org.uk/give-help/donate-food/,England,Food Bank,1
People Matter,https://standrewscullompton.com/getting-involved/serving-others/people-matter/,"Cullompton Community Centre
Cullompton
EX15 1JX",Mid Devon,EX15 1JX,admin@standrewscullompton.com,188433249,50.8561022,-3.3912221,https://standrewscullompton.com/getting-involved/serving-others/people-matter/,England,Food Bank,1
Runcorn District,https://runcorndistrict.foodbank.org.uk,"53A Russell Road
Runcorn
WA7 4BH",Halton,WA7 4BH,info@runcorndistrict.foodbank.org.uk,1928577679,53.329767,-2.7485325,https://runcorndistrict.foodbank.org.uk,England,Food Bank,1
Anglesey,https://anglesey.foodbank.org.uk,"Elim Church
Thomas Street
Holyhead
Anglesey
LL65 1RR",Isle of Anglesey,LL65 1RR,info@anglesey.foodbank.org.uk,7557333498,53.309576,-4.634007,https://anglesey.foodbank.org.uk/give-help/donate-food/,Wales,Food Bank,1
Bow,http://www.bowfoodbank.org/,"St Maryâ€™s Church
230 Bow Road,
London
E3 3AH",Tower Hamlets,E3 3AH,info@bowfoodbank.org,2089803961,51.5287729,-0.016626,http://www.bowfoodbank.org/wp/foodbank-favourites/,England,Food Bank,1
Storehouse Melton,https://www.storehousemelton.org.uk,"Hope Centre
42-44 Nottingham St
Melton Mowbray
LE13 1NW",Melton,LE13 1NW,info@meltonvineyard.org.uk,1664511021,52.7661353,-0.8877626,https://www.storehousemelton.org.uk/how-can-i-support.html,England,Food Bank,1
Blackwood & District,https://blackwooddistrict.foodbank.org.uk,"Oasis Christian Centre
Bryn Road
Blackwood
NP12 3LY",Caerphilly,NP12 3LY,info@blackwooddistrict.foodbank.org.uk,7971668547,51.6669444,-3.2074721,https://blackwooddistrict.foodbank.org.uk/give-help/donate-food/,Wales,Food Bank,1
Rainham,https://rainham.foodbank.org.uk/,"First Floor
The Mick Fury House
Lowen Road
Rainham
Essex
RM13 8HT",Havering,RM13 8HT,info@rainham.foodbank.org.uk,1708397484,51.5135329,0.2311196,https://rainham.foodbank.org.uk/give-help/donate-food/,England,Food Bank,1
Sherwood Forest,https://sherwoodforest.foodbank.org.uk,"Stable Centre
12 Church Street
Mansfield Woodhouse
Nottinghamshire
NG19 8AH",Mansfield,NG19 8AH,info@sherwoodforest.foodbank.org.uk,7932452533,53.1642308,-1.193436,https://sherwoodforest.foodbank.org.uk/give-help/donate-food/,England,Food Bank,1
Bethnal Green,http://st-matthews.org.uk/food-bank/,"St Matthew's Bethnal Green
St Matthew's Row
London
E2 6DT",Tower Hamlets,E2 6DT,bethnalgreenfoodbank@gmail.com,2077397586,51.5250773,-0.0669307,http://st-matthews.org.uk/food-bank/,England,Food Bank,1
Potters Bar,https://pottersbar.foodbank.org.uk,"Jubilee Wayside Community Centre
Wayside
Potters Bar
Hertfordshire
EN6 5NE",Hertsmere,EN6 5NE,info@pottersbar.foodbank.org.uk,7792152238,51.693319,-0.167459,https://pottersbar.foodbank.org.uk/give-help/donate-food/,England,Food Bank,1
Gillingham Street Angels,https://www.thestreet-angels.org,"90A Sturdee Avenue
Gillingham
Kent
ME7 2HN",Medway,ME7 2HN,Neil@thestreet-angels.org,1634579398,51.3791838,0.5639737,https://www.thestreet-angels.org,England,Food Bank,1
Northfleet Hive Hope,http://www.hivehope.btck.co.uk/,"Northfleet Central
The Rainbow Centre
Rose Street
Northfleet
DA11 9EQ",Gravesham,DA11 9EQ,hivehopeuk@gmail.com,7850887070,51.4454132,0.3266802,http://www.hivehope.btck.co.uk/,England,Food Bank,1
Newmarket Open Door,https://newmarketopendoor.org.uk/foodbank,"Unit 5
Craven Way
Newmarket
CB8 0BW",West Suffolk,CB8 0BW,portland.house@ntlworld.com,1638561711,52.2561773,0.3923308,https://newmarketopendoor.org.uk/foodbank,England,Food Bank,1
St Annes Advice Nottingham,https://stannsadvice.org.uk/,"Neighbourhood Centre
Robin Hood Chase
St Anns
Nottingham
NG3 4EZ",Nottingham,NG3 4EZ,info@stannsadvice.org.uk,7979159095,52.962741,-1.1374927,https://stannsadvice.org.uk/,England,Food Bank,1
Belfast West,https://westbelfast.foodbank.org.uk,"Conway Mill
5-7 Conway Street
Belfast
BT13 2DE",Belfast,BT13 2DE,info@westbelfast.foodbank.org.uk,7802462836,54.5996863,-5.9510637,https://westbelfast.foodbank.org.uk/give-help/donate-food/,Northern Ireland,Food Bank,1
North Oxfordshire,http://www.northoxfordshirecommunityfoodbank.org.uk/,"Kidlington Baptist Church
High Street
Kidlington
OX5 2DS",Cherwell,OX5 2DS,admin@northoxfordshirecommunityfoodbank.org.uk,07929-721172,51.8258791,-1.2834209,http://www.northoxfordshirecommunityfoodbank.org.uk/what-we-need/4550859460,England,Food Bank,1
Burgess Hill,http://www.burgesshillfoodbank.org.uk/,"85 Church Walk
Burgess Hill
RH15 9BQ",Mid Sussex,RH15 9BQ,enquiries@burgesshillfoodbank.org.uk,1444241814,50.9564258,-0.1320025,http://www.burgesshillfoodbank.org.uk/page7.php,England,Food Bank,1
L'chaim Chabad,https://www.lchaimfoodbank.co.uk,"Beis Menachem
Park Lane
Salford
Lancashire
M7 4JD",Salford,M7 4JD,foodbank@lchaim.org.uk,1617926335,53.515457,-2.261125,https://www.lchaimfoodbank.co.uk,England,Food Bank,1
Start Up,https://startupstirling.org.uk/,"16b Whitehouse Road
Stirling
FK7 7SP",Stirling,FK7 7SP,mail@startupstirling.org.uk,1786561027,56.1146395,-3.9176682,https://startupstirling.org.uk/how-to-help,Scotland,Food Bank,1
Thorne And Moorends,https://www.facebook.com/TMCHfoodbank/,"The Rugby Clubhouse
Church Balk
Thorne
Doncaster
DN8 5BU",Doncaster,DN8 5BU,tm.foodbank@gmail.com,7539567629,53.6138461,-0.951649,https://www.facebook.com/TMCHfoodbank/,England,Food Bank,1
Crookson,https://ccg.scot/projects/1073/,"56 Beltrees Road
Glasgow
G53 5TF",Glasgow City,G53 5TF,info@myccg.co.uk,141882333,55.8328687,-4.3604443,https://ccg.scot/projects/1073/,Scotland,Food Bank,1
Abergavenny,https://abergavenny.foodbank.org.uk,"c/o Abergavenny Baptist Church
Frogmore Street
Abergavenny
NP7 5AH",Monmouthshire,NP7 5AH,info@abergavenny.foodbank.org.uk,7340795328,51.8249064,-3.0213632,https://abergavenny.foodbank.org.uk/give-help/donate-food/,Wales,Food Bank,1
Droitwich Spa,https://droitwichspa.foodbank.org.uk/,"Droitwich Baptist Church
Ombersley Street East
WR9 8QS",Wychavon,WR9 8QS,info@droitwichspa.foodbank.org.uk,7532130604,52.2672321,-2.1518796,https://droitwichspa.foodbank.org.uk/give-help/donate-food/,England,Food Bank,1
Northern Devon,https://northerndevon.foodbank.org.uk,"Supreme House
Pitt Lane
Bideford
EX39 3JA",Torridge,EX39 3JA,admin@northerndevon.foodbank.org.uk,1237422243,51.018445,-4.2092909,https://northerndevon.foodbank.org.uk/give-help/donate-food/,England,Food Bank,1
Keynsham,https://keynsham.foodbank.org.uk,"91 Lays Drive
Keynsham
Somerset
BS31 2LD",Bath and North East Somerset,BS31 2LD,keynshamfoodbank@gmail.com,1179837923,51.4094256,-2.5151942,https://keynsham.foodbank.org.uk/give-help/donate-food/,England,Food Bank,1
Uist & Barra,https://uistbarra.foodbank.org.uk,"East Camp
Balivanich
Benbecula
HS7 5LA",Na h-Eileanan Siar,HS7 5LA,info@uistbarra.foodbank.org.uk,1870603819,57.473033,-7.364731,https://uistbarra.foodbank.org.uk/give-help/donate-food/,Scotland,Food Bank,1
Tewkesbury,https://tewkesbury.foodbank.org.uk,"76 Church Street
Tewkesbury
Gloucestershire
GL20 5RX",Tewkesbury,GL20 5RX,info@tewkesbury.foodbank.org.uk,1684296824,51.9915054,-2.1598628,https://tewkesbury.foodbank.org.uk/give-help/donate-food/,England,Food Bank,1
Highland,https://www.blythswood.org/foodbank-addresses,"1 Glebe Street
Inverness
IV1 1RF",Highland,IV1 1RF,foodbank.admin@blythswood.org,1463717630,57.4817492,-4.2302764,https://www.blythswood.org/foodbank-addresses,Scotland,Food Bank,1
Loughborough Area,https://loughborougharea.foodbank.org.uk,"New Life Community Church,
2 De Montfort Close
Loughborough
Leicestershire
LE11 4RL",Charnwood,LE11 4RL,info@loughborougharea.foodbank.co.uk,7495561408,52.778896,-1.2400907,https://loughborougharea.foodbank.org.uk/give-help/donate-food/,England,Food Bank,1
Redcar,https://redcararea.foodbank.org.uk,"10 Queen Street
Redcar
TS10 1DY",Redcar and Cleveland,TS10 1DY,info@redcararea.foodbank.org.uk,1642484842,54.6186105,-1.0695945,https://redcararea.foodbank.org.uk/give-help/donate-food/,England,Food Bank,1
Wimborne,https://wimbornefoodbank.org.uk,"Leigh Park Community Centre
Gordon Road
Wimborne
BH21 2AP",Dorset,BH21 2AP,wimbornefoodbank@gmail.com,7766395944,50.7961579,-1.9715282,https://wimbornefoodbank.org.uk/supportus/,England,Food Bank,1
Deal Area,https://dealarea.foodbank.org.uk,"Unit C4
Enterprise Trading Estate
Western Road
Deal
CT14 6PJ",Dover,CT14 6PJ,info@dealarea.foodbank.org.uk,1304728428,51.2271449,1.3978064,https://dealarea.foodbank.org.uk/give-help/donate-food/,England,Food Bank,1
Ballymena,https://ballymena.foodbank.org.uk/,"Dream Centre
Ballee Drive
Ballee
Ballymena
Co Antrim
BT42 3EX",Mid and East Antrim,BT42 3EX,info@ballymena.foodbank.org.uk,2825650123,54.8483945,-6.2706294,https://ballymena.foodbank.org.uk/give-help/donate-food/,Northern Ireland,Food Bank,1
Norwood & Brixton,https://norwoodbrixton.foodbank.org.uk,"St Luke's Church
Knights Hill
West Norwood
London
SE27 0HS",Lambeth,SE27 0HS,info@norwoodbrixton.foodbank.org.uk,7722121108,51.4324167,-0.1034595,https://norwoodbrixton.foodbank.org.uk/give-help/donate-food/,England,Food Bank,1
Bexhill,https://bexhill.foodbank.org.uk,"19-20 Station Road
Bexhill-on-Sea
TN40 1RE",Rother,TN40 1RE,info@bexhill.foodbank.org.uk,7866570468,50.8412666,0.4740029,https://bexhill.foodbank.org.uk/give-help/donate-food/,England,Food Bank,1
East Ayrshire,https://ayrshireeast.foodbank.org.uk/,"CVO East Ayrshire
Belford Mill
16 Brewery Road
Kilmarnock
KA1 3HZ",East Ayrshire,KA1 3HZ,alistair.murison@cvoea.co.uk,1563574000,55.6026688,-4.4928043,https://ayrshireeast.foodbank.org.uk/give-help/donate-food/,Scotland,Food Bank,1
Bristol East,https://eastbristol.foodbank.org.uk,"32 Stapleton Road
Easton
Bristol
BS5 0QY","Bristol, City of",BS5 0QY,ebfoodbank@crisis-centre.org.uk,7584625082,51.4597049,-2.5757172,https://eastbristol.foodbank.org.uk/give-help/donate-food/,England,Food Bank,1
Ivybridge,https://ivybridge.foodbank.org.uk,"Ivybridge Methodist Church
Fore Street
Ivybridge
Devon
PL21 9AB",South Hams,PL21 9AB,info@ivybridge.foodbank.org.uk,7706457336,50.3881076,-3.9231451,https://ivybridge.foodbank.org.uk/give-help/donate-food/,England,Food Bank,1
Re:store Northampton,https://www.restorenorthampton.org.uk/food-bank.html,"Central Vineyard
42 Sheep Street
Northampton
NN12LZ",Northampton,NN12LZ,admin@restorenorthampton.org.uk,1604328046,52.2402576,-0.8970836,https://www.restorenorthampton.org.uk/food-bank.html,England,Food Bank,1
Letchworth,https://letchworth.foodbank.org.uk,"Mrs Howard Memorial Hall
Norton Way South
Letchworth Garden City
SG6 1NX",North Hertfordshire,SG6 1NX,info@letchworth.foodbank.org.uk,7825300437,51.978246,-0.223557,https://letchworth.foodbank.org.uk/give-help/donate-food/,England,Food Bank,1
Booth Centre,https://www.boothcentre.org.uk,"Edward Holt House
Pimblett Street
Manchester
M3 1FU",Manchester,M3 1FU,info@boothcentre.org.uk,1618352499,53.4905332,-2.2437818,https://www.boothcentre.org.uk/donate-items.html,England,Food Bank,1
North Paddington,https://www.npfoodbank.org.uk/,"WECH Community Centre
Selbourne House
36a Elgin Avenue
London
W9 3AZ",Westminster,W9 3AZ,info@npfoodbank.org.uk,2072663347,51.5246884,-0.1987499,https://www.npfoodbank.org.uk/,England,Food Bank,1
Belfast South,https://southbelfast.foodbank.org.uk,"Unit 4 Radiant Works
23 Sunwich Street
Ravenhill Avenue
Belfast
BT6 8JT",Belfast,BT6 8JT,info@southbelfast.foodbank.org.uk,7743332489,54.5878955,-5.9069457,https://southbelfast.foodbank.org.uk/give-help/donate-food/,Northern Ireland,Food Bank,1
Fitzjohn's,https://www.escis.org.uk/advice/fitzjohns-food-bank-lewes/,"Christ Church
Prince Edward Road
Lewes
BN7 1BL",Lewes,BN7 1BL,Fitzjohnsfoodbank@gmail.com,7395156873,50.8760002,-0.0024633,https://www.escis.org.uk/advice/fitzjohns-food-bank-lewes/,England,Food Bank,1
Newcastle (Staffs),https://newcastlestaffs.foodbank.org.uk,"Unit 2
Brick Kiln Lane
Parkhouse Industrial Estate West
Newcastle
Staffordshire
ST5 7AS",Newcastle-under-Lyme,ST5 7AS,info@newcastlestaffs.foodbank.org.uk,7519159061,53.0441443,-2.2479407,https://newcastlestaffs.foodbank.org.uk/give-help/donate-food/,England,Food Bank,1
Hatfield,https://hatfield.foodbank.org.uk,"Gracemead Church
Gracemead House
Woods Avenue
Hatfield
AL10 8HX",Welwyn Hatfield,AL10 8HX,info@hatfield.foodbank.org.uk,7504627359,51.7616373,-0.227269,https://hatfield.foodbank.org.uk/give-help/donate-food/,England,Food Bank,1
Aberdeenshire South,https://aberdeenshiresouth.foodbank.org.uk/,"Banchory West Parish Church of Scotland
High Street
Banchory
Aberdeenshire
AB31 5TB",Aberdeenshire,AB31 5TB,info@aberdeenshiresouth.foodbank.org.uk,7926969408,57.0516819,-2.505223,https://aberdeenshiresouth.foodbank.org.uk/give-help/donate-food/,Scotland,Food Bank,1
Devizes & District,https://devizesdistrict.foodbank.org.uk,"c/o Parish Office
St. James Church
Church Walk
Devizes
SN10 3AA",Wiltshire,SN10 3AA,info@devizesdistrict.foodbank.org.uk,7807973605,51.3527085,-1.9858132,https://devizesdistrict.foodbank.org.uk/give-help/donate-food/,England,Food Bank,1
AFRIL,http://www.afril.org.uk/food-bank/,"St. Peter's Church
Eltham Road
Lee
London
SE12 8HQ",Greenwich,SE12 8HQ,foodbank@afril.org.uk,7872161271,51.4550288,0.0183932,http://www.afril.org.uk/food-bank/,England,Food Bank,1
One Can Trust (High Wycombe),https://onecantrust.org.uk/,"11B Duke Street
High Wycombe
Buckinghamshire
HP13 6EE",Wycombe,HP13 6EE,onecan@live.co.uk,1494512277,51.6292646,-0.7425178,https://onecantrust.org.uk/donate/donate-food/,England,Food Bank,1
Lincoln,https://lincoln.foodbank.org.uk/,"Alive Church
22 Newland 
Lincoln
LN1 1XD",Lincoln,LN1 1XD,info@lincolnfoodbank.org.uk,1522542166,53.2295979,-0.5428775,https://lincoln.foodbank.org.uk/give-help/donate-food/,England,Food Bank,1
Orkney,https://orkney.foodbank.org.uk/give-help/donate-food/,"18 Junction Road
Kirkwall
Orkney
KW15 1AB",Orkney Islands,KW15 1AB,info@orkney.foodbank.org.uk,7719293378,58.9829953,-2.9617101,https://orkney.foodbank.org.uk/give-help/donate-food/,Scotland,Food Bank,1
Vauxhall,https://vauxhall.foodbank.org.uk,"105 Tyers Street
Vauxhall
London
SE11 5HS",Lambeth,SE11 5HS,foodbank@christchurchlondon.org,2073846486,51.4884309,-0.1189379,https://vauxhall.foodbank.org.uk/give/donate-food/,England,Food Bank,1
Aston & Nechells,https://astonnechells.foodbank.org.uk,"St Matthews Church
63 Wardlow Road
Nechells
B7 4JH",Birmingham,B7 4JH,info@astonnechells.foodbank.org.uk,1213590801,52.4906449,-1.8771657,https://astonnechells.foodbank.org.uk/give-help/donate-food/,England,Food Bank,1
Leek & District,https://leekdistrict.foodbank.org.uk,"34 West Street
Leek
Staffordshire
ST13 8AA",Staffordshire Moorlands,ST13 8AA,info@leekdistrict.foodbank.org.uk,1538373289,53.1067891,-2.0302771,https://leekdistrict.foodbank.org.uk/give-help/donate-food/,England,Food Bank,1
Ottery St Mary,https://otteryurc.wordpress.com/food-bank/,"Ottery St Mary United Reformed Church
Jesu Street
Ottery St Mary
Devon
EX11 1EU",East Devon,EX11 1EU,osmurcsec.com@gmail.com,1404814475,50.7514523,-3.2777752,https://otteryurc.wordpress.com/food-bank/,England,Food Bank,1
King's (Darlington),https://www.kingschurchdarlington.org/foodbank/,"Kingâ€™s Church
Prospect Place
Whessoe Road
Darlington
DL3 0QT",Darlington,DL3 0QT,admin@kingschurchdarlington.org,1325469884,54.5413385,-1.558539,https://www.kingschurchdarlington.org/foodbank/donations/,England,Food Bank,1
Bournemouth,https://bournemouth.foodbank.org.uk,"118 Haviland Rd
Bournemouth
BH7 6HW","Bournemouth, Christchurch and Poole",BH7 6HW,info@bournemouth.foodbank.org.uk,1202394505,50.728193,-1.8356186,https://bournemouth.foodbank.org.uk/give-help/donate-food/,England,Food Bank,1
Northampton Hope Centre,https://northamptonhopecentre.org.uk/,"Oasis House
35-37 Campbell Street
Northampton
NN1 3DS",Northampton,NN1 3DS,office@northamptonhopecentre.org.uk,1604214300,52.2424865,-0.8962771,https://northamptonhopecentre.org.uk/,England,Food Bank,1
Shoreham,https://shoreham.foodbank.org.uk,"Shoreham Free Church
Huntingdon Hall
Buckingham Road
Shoreham-By-Sea
West Sussex
BN43 6WF",Adur,BN43 6WF,info@shoreham.foodbank.org.uk,7708384906,50.8351345,-0.2720314,https://shoreham.foodbank.org.uk/give-help/donate-food/,England,Food Bank,1
Clay Cross,https://claycross.foodbank.org.uk,"Community of Christ
Thanet Street
Clay Cross
S45 9JS",North East Derbyshire,S45 9JS,info@claycross.foodbank.org.uk,7899878398,53.1633346,-1.4139602,https://claycross.foodbank.org.uk/give-help/donate-food/,England,Food Bank,1
Swanley and District,https://swanleydistrict.foodbank.org.uk,"11 Lynden Way
Swanley
Kent
BR8 7DN",Sevenoaks,BR8 7DN,info@swanleydistrict.foodbank.org.uk,7798872573,51.3964485,0.1640163,https://swanleydistrict.foodbank.org.uk/give-help/donate-food/,England,Food Bank,1
New Forest Basics Bank,https://basicsbank.org.uk,"Cannon Street East Car Park
Lymington
SO41 9BR",New Forest,SO41 9BR,admin@basicsbank.org.uk,1590610008,50.7597594,-1.5410809,https://basicsbank.org.uk/please-donate-food-and-household-consumables/,England,Food Bank,1
Skegness,https://www.thestorehouse.co.uk/skegness-food-bank,"The Storehouse
North Parade
Skegness
PE25  1BY",East Lindsey,PE25  1BY,info@thestorehouse.co.uk,1754763362,53.150057,0.3461814,https://www.thestorehouse.co.uk/skegness-food-bank,England,Food Bank,1
Lichfield,https://lichfield.foodbank.org.uk,"Wade Street Church
Wade Street
Lichfield
Staffordshire
WS13 6HL",Lichfield,WS13 6HL,info@lichfield.foodbank.org.uk,1543253003,52.6821269,-1.8270721,https://lichfield.foodbank.org.uk/give-help/donate-food/,England,Food Bank,1
Skelmersdale,https://skelmersdale.foodbank.org.uk,"The Ecumenical Centre
Northway
Skelmersdale
WN8 6LU",West Lancashire,WN8 6LU,info@skelmersdale.foodbank.org.uk,7989052832,53.5518096,-2.7725291,https://skelmersdale.foodbank.org.uk/give-help/donate-food/,England,Food Bank,1
Clifton NG11,https://cliftonng11.foodbank.org.uk,"Hope Centre
Southchurch Drive
Clifton
Nottingham
NG11 8AQ",Nottingham,NG11 8AQ,info@cliftonng11.foodbank.org.uk,7538916757,52.9110884,-1.170207,https://cliftonng11.foodbank.org.uk/give-help/donate-food/,England,Food Bank,1
Chipping Barnet,https://chippingbarnet.foodbank.org.uk,"Mary Immaculate and St Peter
63 Somerset Road
New Barnet
Hertfordshire
EN5 1RF",Barnet,EN5 1RF,info@chippingbarnet.foodbank.org.uk,7716890535,51.6480086,-0.1758741,https://chippingbarnet.foodbank.org.uk/give-help/donate-food/,England,Food Bank,1
Milton Keynes,http://mkfoodbank.org.uk/,"Unit 9
Hollin Lane
Stacey Bushes
MK12 6HT",Milton Keynes,MK12 6HT,thefoodbank@mkcc.org.uk,1908322800,52.0507401,-0.8008078,http://mkfoodbank.org.uk/support-the-food-bank/help-the-food-bank/give-food/,England,Food Bank,1
B30,https://b30.foodbank.org.uk,"The Cotteridge Church 
24 Pershore Road South 
Birmingham
B30 3EJ",Birmingham,B30 3EJ,info@b30.foodbank.org.uk,7582143972,52.415713,-1.9304708,https://b30.foodbank.org.uk/give-help/donate-food/,England,Food Bank,1
Farnborough,https://farnborough.foodbank.org.uk,"Browning Barracks
Alisons Road
Aldershot
Hampshire
GU11 2BU",Rushmoor,GU11 2BU,info@farnborough.foodbank.org.uk,1252331668,51.2612966,-0.7627082,https://farnborough.foodbank.org.uk/give-help/donate-food/,England,Food Bank,1
Dumfriesshire,https://dumfriesshire.foodbank.org.uk,"Apex Scotland 
77-79 Friars Vennel 
Dumfries
DG1 2RF",Dumfries and Galloway,DG1 2RF,info@dumfriesshire.foodbank.org.uk,1387256310,55.0696732,-3.61288,https://dumfriesshire.foodbank.org.uk/give-help/donate-food/,Scotland,Food Bank,1
Erdington,https://erdington.foodbank.org.uk/,"Erdington Foodbank
Erdington Six Ways Baptist Church
Wood End Road
Erdington
Birmingham
B24 8AD",Birmingham,B24 8AD,wunnay@btinternet.com,7474683927,52.5214527,-1.8432542,https://erdington.foodbank.org.uk/give-help/donate-food/,England,Food Bank,1
Bromley Borough,https://bromleyborough.foodbank.org.uk,"United Reformed Church
20 Widmore Road
Bromley
Kent
BR1 1RY",Bromley,BR1 1RY,info@bromleyborough.foodbank.org.uk,7876809430,51.4059987,0.0173284,https://bromleyborough.foodbank.org.uk/give-help/donate-food/,England,Food Bank,1
Brentwood,https://brentwood.foodbank.org.uk,"Breakthru Church
The Christian Centre
165 Hanging Hill Lane
Hutton
Essex
CM13 2QH",Brentwood,CM13 2QH,admin@breakthru-church.com,1277229189,51.6273178,0.3451408,https://brentwood.foodbank.org.uk/give-help/donate-food/,England,Food Bank,1
Oldham,https://oldham.foodbank.org.uk,"Unit B
Prince of Wales Industrial Units
Vulcan Street
Oldham
OL1 4ER",Oldham,OL1 4ER,info@oldham.foodbank.org.uk,1616221061,53.5508596,-2.0889036,https://oldham.foodbank.org.uk/give-help/donate-food/,England,Food Bank,1
Greenwich,https://greenwich.foodbank.org.uk,"Shooters Hill
London
SE18 3HP",Greenwich,SE18 3HP,contact@greenwichfoodbank.co.uk,7771830549,51.4686798,0.0714145,https://greenwich.foodbank.org.uk/give-help/donate-food/,England,Food Bank,1
Cheadle and District,https://cheadledistrict.foodbank.org.uk,"Guild Hall
Tape Street
Cheadle
ST10 1BG",Staffordshire Moorlands,ST10 1BG,pm@cheadledistrict.foodbank.org.uk,7902835158,52.9877618,-1.9861473,https://cheadledistrict.foodbank.org.uk/give-help/donate-food/,England,Food Bank,1
Stroud District,https://strouddistrict.foodbank.org.uk,"Unit 2a, Brimscombe Port
Brimscombe
Stroud
GL5 2QQ",Stroud,GL5 2QQ,office@strouddistrictfoodbank.org.uk,1453367077,51.7194755,-2.191809,https://strouddistrict.foodbank.org.uk/give-help/donate-food/,England,Food Bank,1
Gatehouse (Bury St Edmunds),http://www.gatehouse.org.uk/food-bank/,"Gatehouse
Dettigen Way
Bury St Edmunds
Suffolk
IP33 3TU",West Suffolk,IP33 3TU,info@gatehouse.org.uk,1284754967,52.2477518,0.6865469,http://www.gatehouse.org.uk/shopping-list/,England,Food Bank,1
Christchurch,https://faithworkswessex.org.uk/projects/foodbank/christchurch/,"St Josephâ€™s Church
67 Purewell
Christchurch
Dorset
BH23 1EH","Bournemouth, Christchurch and Poole",BH23 1EH,christchurchfoodbank@gmail.com,7587371088,50.7358571,-1.763172,https://faithworkswessex.org.uk/projects/foodbank/christchurch/,England,Religious Institution,1
East Dunbartonshire,https://eastdunbartonshire.foodbank.org.uk,"52 Townhead
Kirkintilloch
Glasgow
G66 1NL",East Dunbartonshire,G66 1NL,info@eastdunbartonshire.foodbank.org.uk,7425134131,55.9368555,-4.1535228,https://eastdunbartonshire.foodbank.org.uk/give-help/donate-food/,Scotland,Food Bank,1
Rickmansworth,https://rickmansworth.foodbank.org.uk,"Methodist Church
Berry Lane
Rickmansworth
Hertfordshire
WD3 7HJ",Three Rivers,WD3 7HJ,info@rickmansworth.foodbank.org.uk,7716856892,51.6395907,-0.4895046,https://rickmansworth.foodbank.org.uk/give-help/donate-food/,England,Food Bank,1
Dundonald,https://dundonald.foodbank.org.uk,"971 Upper Newtownards Road
Dundonald
Belfast
BT16 1RL",Lisburn and Castlereagh,BT16 1RL,info@dundonald.foodbank.org.uk,2895435310,54.5943987,-5.8050947,https://dundonald.foodbank.org.uk/give-help/donate-food/,Northern Ireland,Food Bank,1
Glastonbury,https://together.ourchurchweb.org.uk/glastonbury/churches/foodbank/,"Sunnymead
Edgarley Field Lane
Havyatt
Glastonbury
BA6 8FH",Mendip,BA6 8FH,glastonburyfoodbank@gmail.com,1458834809,51.1380585,-2.6739006,https://together.ourchurchweb.org.uk/glastonbury/features/needs/,England,Food Bank,1
Glenrothes,https://glenrothes.foodbank.org.uk,"Caledonia House
Pentland Park Saltire Centre
Glenrothes
Fife
KY6 2AL",Fife,KY6 2AL,info@glenrothes.foodbank.org.uk,1592631088,56.1893732,-3.1842082,https://glenrothes.foodbank.org.uk/give-help/donate-food/,Scotland,Food Bank,1
Medway,https://medway.foodbank.org.uk,"Unit 19
Riverside Estate
Sir Thomas Longley Road
Medway City Estate
Rochester
ME2 4DP",Medway,ME2 4DP,info@medway.foodbank.org.uk,1634757057,51.3886846,0.519519,https://medway.foodbank.org.uk/give-help/donate-food/,England,Food Bank,1
Glasgow NW,https://glasgownw.foodbank.org.uk,"Blawarthill Parish Church
Millbrix Avenue
Scotstoun
Glasgow
G14 0EP",Glasgow City,G14 0EP,info@glasgowNW.foodbank.org.uk,1419599813,55.8857348,-4.3644138,https://glasgownw.foodbank.org.uk/give-help/donate-food/,Scotland,Food Bank,1
Carmarthen,https://carmarthen.foodbank.org.uk/,"Carmarthen Foodbank
Xcel Project 
Llansteffan Road
Johnstown
Carmarthen
SA31 3BP",Carmarthenshire,SA31 3BP,carmarthenfoodbank@towychurch.co.uk,1267232101,51.8485689,-4.3218479,https://carmarthen.foodbank.org.uk/give-help/donate-food/,Wales,Food Bank,1
Slough,https://slough.foodbank.org.uk,"411 Montrose Avenue
Slough
Berkshire
SL1 4TJ",Slough,SL1 4TJ,office@slough.foodbank.org.uk,1753550303,51.5237758,-0.6192653,https://slough.foodbank.org.uk/give-help-2/foodbank-wishlist/,England,Food Bank,1
Farnham,https://farnham.foodbank.org.uk,"The Vineyard Centre
Church House
Union Road
Farnham
Surrey
GU9 7PT",Waverley,GU9 7PT,info@farnham.foodbank.org.uk,7901581539,51.2136501,-0.7967873,https://farnham.foodbank.org.uk/give-help/donate-food/,England,Food Bank,1
Barrow,https://barrow.foodbank.org.uk,"Abbey Road Baptist Church
Abbey Road
Barrow-in-Furness
LA13 9BD",Barrow-in-Furness,LA13 9BD,projectmanager@barrowfoodbank.co.uk,1229343436,54.1206385,-3.2197493,https://barrow.foodbank.org.uk/give-help/donate-food/,England,Food Bank,1
Selkirk,http://selkirkparish.church/action-menu-only/community/,"Selkirk Parish Church
High Street
Selkirk
TD7 4JX",Scottish Borders,TD7 4JX,office@selkirkparish.church,175020078,55.5489013,-2.8378843,http://selkirkparish.church/action-menu-only/community/,Scotland,Food Bank,1
Bath,https://bath.foodbank.org.uk,"The Old School House
St Johnâ€™s Court
South Parade
Bath
BA2 4AF",Bath and North East Somerset,BA2 4AF,info@bath.foodbank.org.uk,1225463549,51.3799718,-2.3559432,https://bath.foodbank.org.uk/give-help/donate-food/,England,Food Bank,1
The Whitehawk,https://thewhitehawk.foodbank.org.uk,"St Cuthmans Church
Whitehawk Way
Whitehawk
Brighton
BN2 5HE",Brighton and Hove,BN2 5HE,info@thewhitehawk.foodbank.org.uk,7941397648,50.8282184,-0.1053245,https://thewhitehawk.foodbank.org.uk/give-help/donate-food/,England,Food Bank,1
Lowestoft,https://lowestoft.foodbank.org.uk,"Lowestoft Community Church
8 Hadenham Road
Lowestoft
NR33 7NF",East Suffolk,NR33 7NF,info@lowestoft.foodbank.org.uk,1502537527,52.4450529,1.7204587,https://lowestoft.foodbank.org.uk/give-help/donate-food/,England,Food Bank,1
Gateshead,https://gateshead.foodbank.org.uk,"99 Southend Road
Gateshead
Tyne & Wear
NE9 6XS",Gateshead,NE9 6XS,info@gatesheadfoodbank.org,7496840720,54.9331674,-1.5879191,https://gateshead.foodbank.org.uk/give-help/donate-food/,England,Food Bank,1
Heywood,http://heywoodfoodbank.com/,"94 Adelaide Street
Heywood
OL10 4HE",Rochdale,OL10 4HE,info@HeywoodFoodbank.co.uk,7396071193,53.5937357,-2.2153573,http://heywoodfoodbank.com/,England,Food Bank,1
Cromer & District,https://cromerdistrict.foodbank.org.uk,"Cromer Methodist Church Hall
Corner of West St and Hall Road
Cromer
NR27 9DT",North Norfolk,NR27 9DT,info@cromerdistrict.foodbank.org.uk,7826376343,52.9301621,1.2955201,https://cromerdistrict.foodbank.org.uk/give-help/donate-food/,England,Food Bank,1
Armagh,https://armagh.foodbank.org.uk/,"Armagh Elim Church
Drummanmore Road
Armagh
BT61 8RN","Armagh City, Banbridge and Craigavon",BT61 8RN,info@armagh.foodbank.org.uk,7752680805,54.3593046,-6.6265439,https://armagh.foodbank.org.uk/give-help/donate-food/,Northern Ireland,Food Bank,1
Action Homeless,https://actionhomeless.org.uk/,"Central Services
Ridgeway House
Little Hill
Wigston
Leicester
LE18 3SE",Oadby and Wigston,LE18 3SE,info@actionhomeless.org.uk,1162211851,52.5811087,-1.1009707,https://actionhomeless.org.uk/,England,Food Bank,1
Epping Forest,https://eppingforest.foodbank.org.uk,"Unit D8
Loughton Seedbed Centre
Langston Road
Loughton
IG10 3TQ",Epping Forest,IG10 3TQ,info@eppingforest.foodbank.org.uk,2087877149,51.644534,0.0888774,https://eppingforest.foodbank.org.uk/give-help/donate-food/,England,Food Bank,1
Sutton Coldfield,https://www.scbc.org.uk/community/food-bank/,"Trinity Hill
Sutton Coldfield
West Midlands
B72 1TA",Birmingham,B72 1TA,office@scbc.org.uk,1213555088,52.5636409,-1.8218609,https://www.scbc.org.uk/community/food-bank/,England,Food Bank,1
Cupar,https://cupar.foodbank.org.uk,"21 St Catherine Street
Cupar
Fife
KY15 4TA",Fife,KY15 4TA,info@cupar.foodbank.org.uk,7474453153,56.3193876,-3.0104061,https://cupar.foodbank.org.uk/give-help/donate-food/,Scotland,Food Bank,1
Rhondda,https://rhondda.foodbank.org.uk,"236-237 East Road
Tylorstown
Ferndale
CF43 3DA",Rhondda Cynon Taf,CF43 3DA,info@rhondda.foodbank.org.uk,7928451374,51.6471789,-3.4320487,https://rhondda.foodbank.org.uk/give-help/donate-food/,Wales,Food Bank,1
Cirencester,https://cirencester.foodbank.org.uk/,"Cirencester Ashcroft Church
Ashcroft Road
Circencester
Gl7 1RA",Cotswold,Gl7 1RA,info@cirencester.foodbank.org.uk,7506174373,51.7148822,-1.9682462,https://cirencester.foodbank.org.uk/give-help/donate-food/,England,Food Bank,1
Skipton,https://www.skiptonfoodbank.org,"Skipton Baptist Church
Rectory Road
Skipton
BD23 1ET",Craven,BD23 1ET,food@skiptonfoodbank.org,7856080194,53.9615847,-2.012734,https://www.skiptonfoodbank.org/donation-list,England,Food Bank,1
Great Barr,https://greatbarr.foodbank.org.uk/,"St Bernard's Church
Broome Avenue
Birmingham
B43 5AL",Sandwell,B43 5AL,info@greatbarr.foodbank.org.uk,1213575399,52.5382697,-1.9507611,https://greatbarr.foodbank.org.uk/give-help/donate-food/,England,Food Bank,1
Bracknell,https://bracknell.foodbank.org.uk,"Kerith Community Church
Church Road
Bracknell
RG12 1EH",Bracknell Forest,RG12 1EH,foodbank@kerith.church,1344862699,51.4145177,-0.7465572,https://bracknell.foodbank.org.uk/give-help/donate-food/,England,Food Bank,1
Basildon,https://basildon.foodbank.org.uk,"Pitsea Leisure Centre
Northlands Pavement
Pitsea
Basildon
Essex
SS13 3DU",Basildon,SS13 3DU,info@basildon.foodbank.org.uk,7424660862,51.5669719,0.5042091,https://basildon.foodbank.org.uk/give-help/donate-food/,England,Food Bank,1
Redbridge,https://redbridge.foodbank.org.uk,"Jubilee Church
14 Granville Road
Ilford
IG1 4JY",Redbridge,IG1 4JY,info@redbridgefoodbank.org,2085180056,51.5645184,0.0703049,https://redbridge.foodbank.org.uk/give-help/donate-food/,England,Food Bank,1
Dover,https://dover.foodbank.org.uk,"c/o Dover Baptist Church
27-32 Maison Dieu Road
Dover
Kent
CT16 1RF",Dover,CT16 1RF,info@dover.foodbank.org.uk,7870361180,51.1298648,1.3097305,https://dover.foodbank.org.uk/give-help/donate-food/,England,Food Bank,1
Pontefract,https://pontefract.foodbank.org.uk,"Central Methodist Church
Newgate
Pontefract
West Yorkshire
WF8 1NB",Wakefield,WF8 1NB,info@pontefract.foodbank.org.uk,7935530583,53.6894216,-1.3147338,https://pontefract.foodbank.org.uk/give-help/donate-food/,England,Food Bank,1
Malmesbury & District,https://malmesburydistrict.foodbank.org.uk,"United Reformed Church
West Street
Malmesbury
Wiltshire
SN16 0AR",Wiltshire,SN16 0AR,info@malmesburydistrict.foodbank.org.uk,7710082085,51.5862245,-2.1023148,https://malmesburydistrict.foodbank.org.uk/give-help/donate-food/,England,Food Bank,1
Dunfermline,https://dunfermline.foodbank.org.uk,"Liberty Centre
Pitreavie Way
Pitreavie Business Park
Dunfermline
Fife
KY11 8QS",Fife,KY11 8QS,info@dunfermline.foodbank.org.uk,7580231286,56.0553736,-3.442711,https://dunfermline.foodbank.org.uk/give-help/donate-food/,England,Food Bank,1
Larne,https://larne.foodbank.org.uk,"Craigyhill Methodist Church
Brustin Brae Road
Larne
BT40 2HS",Mid and East Antrim,BT40 2HS,info@larne.foodbank.org.uk,2828277530,54.8638797,-5.836378,https://larne.foodbank.org.uk/give-help/donate-food/,Northern Ireland,Food Bank,1
Widnes,https://widnesfoodbank.org.uk,"c/o Trinity Methodist Church
Peel House Lane
Widnes
Cheshire
WA8 6TJ",Halton,WA8 6TJ,contact@widnesfoodbank.org.uk,1514220031,53.3716054,-2.7217818,https://widnesfoodbank.org.uk/give-help/shopping-list/,England,Food Bank,1
Angus,https://angus.foodbank.org.uk,"43 Craig O Loch Road
Forfar
Angus
DD8 1BZ",Angus,DD8 1BZ,info@angus.foodbank.org.uk,1307466841,56.643577,-2.8956168,https://angus.foodbank.org.uk/give-help/donate-food/,Scotland,Food Bank,1
Dunstable,https://dunstable.foodbank.org.uk/,"c/o Christ Church,
West Street
Dunstable
Bedfordshire
LU6 1SX",Central Bedfordshire,LU6 1SX,info@dunstablefoodbank.org.uk,7874200056,51.8857781,-0.522089,https://dunstable.foodbank.org.uk/give-help/donate-food/,England,Food Bank,1
Chepstow,https://chepstow.foodbank.org.uk,"Unit 1A
Bulwark Industrial Estate
Bulwark Rd
Chepstow
NP16 5QZ",Monmouthshire,NP16 5QZ,info@chepstow.foodbank.org.uk,7931911869,51.6329728,-2.6733099,https://chepstow.foodbank.org.uk/give-help/donate-food/,Wales,Food Bank,1
Yeovil,https://www.ycstyeovil.org.uk/the-lords-larder/,"The Lord's Larder Office
The Gateway
Addlewell Lane
Yeovil
Somerset
BA20 1QN",South Somerset,BA20 1QN,lordslarderyeovil@gmail.com,1935479398,50.937508,-2.6303889,https://www.ycstyeovil.org.uk/what-we-are-currently-need-most-in-the-larder/,England,Food Bank,1
Port Talbot,https://porttalbot.foodbank.org.uk/,"Carmel Chapel Riverside
Glan-yr-Afon
Port Talbot
Neath
Port Talbot
SA13 1PQ",Neath Port Talbot,SA13 1PQ,info@porttalbot.foodbank.org.uk,7491922211,51.6057292,-3.8132304,https://porttalbot.foodbank.org.uk/give-help/donate-food/,Wales,Food Bank,1
Romsey,https://romsey.foodbank.org.uk,"Unit 20
Romsey Industrial Estate
Greatbridge Rd
Romsey
SO51 0HR",Test Valley,SO51 0HR,info@romsey.foodbank.org.uk,7761405870,50.994878,-1.4952155,https://romsey.foodbank.org.uk/give-help/donate-food/,England,Food Bank,1
Glasgow NE,https://glasgowne.foodbank.org.uk,"Calton Parkhead Parish Church
142 Helenvale Street
Parkhead
Glasgow
G31 4NA",Glasgow City,G31 4NA,info@glasgowne.foodbank.org.uk,7951749363,55.8480092,-4.198737,https://glasgowne.foodbank.org.uk/give-help/donate-food/,Scotland,Food Bank,1
Bloxwich & Blakenall,https://bloxwichblakenall.foodbank.org.uk,"Blakenall Village Centre
Thames Road
Blakenall
Walsall
WS3 1LZ",Walsall,WS3 1LZ,info@bloxwichblakenall.foodbank.org.uk,7747301374,52.6146742,-1.9866677,https://bloxwichblakenall.foodbank.org.uk/give-help/donate-food/,England,Food Bank,1
Enniskillen,https://enniskillen.foodbank.org.uk,"The Lakes Vineyard Church
6â€“8 Cross Street
Enniskillen
BT74 7DX",Fermanagh and Omagh,BT74 7DX,info@enniskillen.foodbank.org.uk,7512548849,54.3454368,-7.6386684,https://enniskillen.foodbank.org.uk/give-help/donate-food/,Northern Ireland,Food Bank,1
Canterbury,https://www.canterburyfoodbank.org,"Riverside Church
Thanet Way
Chestfield
Whitstable
Kent
CT5 3JQ",Canterbury,CT5 3JQ,info@canterburyfoodbank.org,7718108875,51.358083,1.059079,https://www.canterburyfoodbank.org,England,Food Bank,1
Barking,https://barking.foodbank.org.uk,"9 Minden Gardens
Barking
IG11 0SF",Barking and Dagenham,IG11 0SF,barkingfoodbank@gmail.com,2088610660,51.5260084,0.1158387,https://barking.foodbank.org.uk/give-help/donate-food/,England,Food Bank,1
Somer Valley,https://somervalley.foodbank.org.uk,"The Ammerdown Centre
Ammerdown Park
Radstock
Somerset
BA3 5SW",Mendip,BA3 5SW,info@somervalley.foodbank.org.uk,7729523986,51.27279,-2.415766,https://somervalley.foodbank.org.uk/give-help/donate-food/,England,Food Bank,1
Nuneaton,https://nuneaton.foodbank.org.uk,"c/o 157 Windermere Avenue
Nuneaton
Warwickshire
CV11 6HN",Nuneaton and Bedworth,CV11 6HN,info@nuneaton.foodbank.org.uk,7842074987,52.5302968,-1.4458295,https://nuneaton.foodbank.org.uk/give-help/donate-food/,England,Food Bank,1
Sid Valley,http://www.sidvalleyfoodbank.org.uk,"Sidmouth Youth Centre
Manstone Lane
Sidmouth
EX10 9TS",East Devon,EX10 9TS,info@sidvalleyfoodbank.org.uk,7936917507,50.6955654,-3.238144,http://www.sidvalleyfoodbank.org.uk/shopping-list/,England,Food Bank,1
Tameside South & Longdendale,https://tamesidesouthlongdendale.foodbank.org.uk,"Hattersley Baptist Church
Melandra Crescent
Hattersley
SK14 3RB",Tameside,SK14 3RB,info@tamesidesouthlongdendale.foodbank.org.uk,7901786905,53.4499941,-2.0248679,https://tamesidesouthlongdendale.foodbank.org.uk/give-help/donate-food/,England,Food Bank,1
Risca,https://risca.foodbank.org.uk/,"The Salvation Army
66a Commercial Street
Pontymister
Risca
Newport
NP11 6BA",Caerphilly,NP11 6BA,info@risca.foodbank.org.uk,7599973312,51.6040296,-3.0948891,https://risca.foodbank.org.uk/give-help/donate-food/,Wales,Food Bank,1
Ealing,https://ealing.foodbank.org.uk,"St Mellitus Hall
1 Church Rd
Hanwell
W7 3BB",Ealing,W7 3BB,info@ealing.foodbank.org.uk,2088409428,51.50971,-0.334853,https://ealing.foodbank.org.uk/give-help/donate-food/,England,Food Bank,1
Horsham District,https://horshamdistrict.foodbank.org.uk,"Micah House
Blatchford Road
Horsham
RH13 5QR",Horsham,RH13 5QR,support@horsham-matters.org.uk,1403211833,51.06818,-0.308668,https://horshamdistrict.foodbank.org.uk/give-help/donate-food/,England,Food Bank,1
Peeblesshire,https://peeblesshire.foodbank.org.uk/,"3 Rowan Court
Cavalry Park
Peebles
EH45 9BU",Scottish Borders,EH45 9BU,info@peeblesshire.foodbank.org.uk,7413484174,55.6454203,-3.1724527,https://peeblesshire.foodbank.org.uk/give-help/donate-food/,Scotland,Food Bank,1
Hackney,https://hackney.foodbank.org.uk,"Florence Bennett Centre
Cherbury St
London
N1 6TL",Hackney,N1 6TL,info@hackney.foodbank.org.uk,2072542464,51.5315321,-0.0846358,https://hackney.foodbank.org.uk/give-help/donate-food/,England,Food Bank,1
Airdrie,https://airdrie.foodbank.org.uk,"Calderbank Parish Church of Scotland
Main Street
Calderbank
ML6 9SG",North Lanarkshire,ML6 9SG,info@airdrie.foodbank.org.uk,1236793423,55.8458285,-3.9655223,https://airdrie.foodbank.org.uk/give-help/donate-food/,Scotland,Food Bank,1
Gloucester,https://gloucester.foodbank.org.uk,"George Whitfield Centre,
107 Great Western Road,
Gloucester
GL1 3NF",Gloucester,GL1 3NF,info@gloucester.foodbank.org.uk,1452309683,51.8665059,-2.2391061,https://gloucester.foodbank.org.uk/give-help/donate-food/,England,Food Bank,1
St. Mary's Haughton Green,https://www.stmaryshg.org.uk/food-bank,"St. Mary's
Meadow Lane
Haughton Green
Denton
Manchester
M34 7GD",Tameside,M34 7GD,foodbank@smhg.org.uk,7479256785,53.4386468,-2.1018127,https://www.stmaryshg.org.uk/food-bank,England,Food Bank,1
Llandrindod,https://llandrindod.foodbank.org.uk,"The Basement
Crescent Chambers
South Crescent
Llandrindod Wells
Powys
LD1 5DH",Powys,LD1 5DH,info@llandrindod.foodbank.org.uk,7519839189,52.2405841,-3.3785995,https://llandrindod.foodbank.org.uk/give-help/donate-food/,Wales,Food Bank,1
Belfast South West,https://southwestbelfast.foodbank.org.uk,"124 Stewartstown Road
Belfast
BT11 9JQ",Belfast,BT11 9JQ,info@southwestbelfast.foodbank.org.uk,7938706552,54.567995,-6.009415,https://southwestbelfast.foodbank.org.uk/give-help/donate-food/,Northern Ireland,Food Bank,1
Walton & Hersham,https://waltonhersham.foodbank.org.uk,"No 2 Quintet
Churchfield Road
Walton on Thames
Surrey
KT12 2TZ",Elmbridge,KT12 2TZ,info@waltonhersham.foodbank.org.uk,2033280243,51.3857973,-0.4182822,https://waltonhersham.foodbank.org.uk/give-help/donate-food/,England,Food Bank,1
St Albans and District,https://stalbansdistrict.foodbank.org.uk,"28 - 30 Coldharbour Lane
Harpenden
Hertfordshire
AL5 4UN",St Albans,AL5 4UN,info@stalbansdistrict.foodbank.org.uk,1727613019,51.8266312,-0.3445707,https://stalbansdistrict.foodbank.org.uk/give-help/donate-food/,England,Food Bank,1
Pembrokeshire,https://pembrokeshire.foodbank.org.uk,"Liberty Cafe
Grace Court House
Market Square
Narberth
SA67 7AU",Pembrokeshire,SA67 7AU,info@pembrokeshire.foodbank.org.uk,1834861999,51.7975349,-4.7427313,https://pembrokeshire.foodbank.org.uk/give-help/donate-food/,Wales,Food Bank,1
Cramlington,https://cramlington.foodbank.org.uk,"Hope Centre
Forum Way
Cramlington
NE23 6SJ",Northumberland,NE23 6SJ,info@cramlington.foodbank.org.uk,1670737808,55.0846714,-1.5915069,https://cramlington.foodbank.org.uk/give-help/donate-food/,England,Food Bank,1
Market Drayton,https://marketdrayton.foodbank.org.uk,"The Parish Rooms
Church Street
Market Drayton
TF9 1AF",Shropshire,TF9 1AF,info@marketdrayton.foodbank.org.uk,1630654007,52.902205,-2.48564,https://marketdrayton.foodbank.org.uk/give-help/donate-food/,England,Food Bank,1
Atherton & Leigh,https://athertonleigh.foodbank.org.uk,"Atherton Parish Church St John the Baptist
Market Street
Atherton
Manchester
M46 0DD",,M46 0DD,info@athertonleigh.foodbank.org.uk,7980881925,53.5238909,-2.490125,https://athertonleigh.foodbank.org.uk/give-help/donate-food/,England,Food Bank,1
CPR,http://transformationcpr.org/cpr-foodbank,"7 Wesley St
Camborne
TR14 8DP",Cornwall,TR14 8DP,transformationcpr@hotmail.co.uk,1209719415,50.2149355,-5.2930696,http://transformationcpr.org/cpr-foodbank/donate-food/,England,Food Bank,1
Sparkhill,https://sparkhill.foodbank.org.uk/,"Units 20-21, Rovex Business Park
Hay Hall Road
Tyseley
Birmingham
B11 2AQ",Birmingham,B11 2AQ,foodbank@narthex.org.uk,1217081398,52.4562635,-1.8409112,https://sparkhill.foodbank.org.uk/give-help/donate-food/,England,Food Bank,1
Bude,https://www.budefoodbank.org.uk/,"7-31 Berries Avenue
Bude
EX23 8PP",Cornwall,EX23 8PP,info@budefoodbank.org.ukï»¿,1288488748,50.8234353,-4.5399576,https://www.budefoodbank.org.uk/,England,Food Bank,1
Shetland,https://shetland.foodbank.org.uk,"20a St Magnus Street
Lerwick
Shetland
ZE1 0JT",Shetland Islands,ZE1 0JT,info@shetland.foodbank.org.uk,1595741263,60.1572042,-1.1483547,https://shetland.foodbank.org.uk/give-help/donate-food/,Scotland,Food Bank,1
Chiltern,https://chiltern.foodbank.org.uk,"71 Broadway
Chesham
Buckinghamshire
HP5 1BX",Chiltern,HP5 1BX,dave@chiltern.foodbank.org.uk,1494775668,51.7060815,-0.6119341,https://chiltern.foodbank.org.uk/give-help/donate-food/,England,Food Bank,1
Kingfisher,https://kingfisherfoodbank.weebly.com/,"Auckland Hall
Sunbeam Close
Smiths Wood
Birmingham
B369JR",Solihull,B369JR,Kingfisherfoodbank@gmail.com,7902030134,52.5087599,-1.7529862,https://kingfisherfoodbank.weebly.com/,England,Food Bank,1
Croydon,https://croydon.foodbank.org.uk,"Unit 5
46 Pilton Estate
Pitlake
Croydon
CR0 3RA",Croydon,CR0 3RA,croydonfoodbank@mail.com,2086865664,51.3773267,-0.106766,https://croydon.foodbank.org.uk/give-help/donate-food/,England,Food Bank,1
Dorchester,https://dorchesterbc.org.uk/food-bank,"Dorford Centre
Bridport Road
Dorchester
DT1 1RR",Dorset,DT1 1RR,foodbank@dorchesterbc.org.uk,7554983978,50.714591,-2.4424145,https://dorchesterbc.org.uk/food-bank,England,Food Bank,1
Cumbernauld,https://cumbernauld.foodbank.org.uk/,"Freedom City Church
6 St Mungoâ€™s Road
Cumbernauld
G67 1QR",North Lanarkshire,G67 1QR,info@cumbernauld.foodbank.org.uk,7365808810,55.9465286,-3.9926579,https://cumbernauld.foodbank.org.uk/give-help/donate-food/,Scotland,Food Bank,1
Cardigan,https://cardigan.foodbank.org.uk,"New Life Christian Centre
Quay Street
Cardigan
Ceredigion
SA43 1HU",Ceredigion,SA43 1HU,info@cardigan.foodbank.org.uk,1239615864,52.0817981,-4.6620663,https://cardigan.foodbank.org.uk/give-help/donate-food/,Wales,Food Bank,1
Bradford North,https://bradfordnorth.foodbank.org.uk,"Unit 12
Newlands House Two
Inspire Bradford Business Park
Bradford
BD10 0JE",Bradford,BD10 0JE,info@bradfordnorth.foodbank.org.uk,1274292256,53.8229447,-1.7120171,https://bradfordnorth.foodbank.org.uk/give-help/donate-food/,England,Food Bank,1
Bridgwater,https://bridgwater.foodbank.org.uk,"Mount Street Day Centre
Mount Street
Bridgwater
TA6 3ER",Sedgemoor,TA6 3ER,info@bridgwater.foodbank.org.uk,1278434636,51.1284036,-3.0094357,https://bridgwater.foodbank.org.uk/give-help/donate-food/,England,Food Bank,1
Gillingham,https://gillingham.foodbank.org.uk,"The Old Library
6 Station Road
Gillingham
Dorset
SP8 4PY",Dorset,SP8 4PY,info@gillingham.foodbank.org.uk,7895148094,51.0369037,-2.2724959,https://gillingham.foodbank.org.uk/give-help/donate-food/,England,Food Bank,1
Clapham Park,https://claphampark.foodbank.org.uk,"All Nations Baptist Church
The Bonneville Centre
12 Poynders Road
Clapham Park
London
SW4 8NY",Lambeth,SW4 8NY,info@claphampark.foodbank.org.uk,2086757661,51.4504007,-0.1407343,https://claphampark.foodbank.org.uk/give-help/donate-food/,England,Food Bank,1
Long Eaton & Sawley,https://longeatonsawley.foodbank.org.uk,"Christ Church Methodist Church
1 College Street
Long Eaton
Nottingham
NG10 4NE",Erewash,NG10 4NE,info@longeatonsawley.foodbank.org.uk,7950547671,52.9020494,-1.2818906,https://longeatonsawley.foodbank.org.uk/give-help/donate-food/,England,Food Bank,1
Taunton,https://taunton.foodbank.org.uk,"Unit 4, Belvedere Trading Estate
Albemarle Road
Taunton
TA1 1BH",Somerset West and Taunton,TA1 1BH,info@taunton.foodbank.org.uk,7761624216,51.0226855,-3.1078483,https://taunton.foodbank.org.uk/give-help/donate-food/,England,Food Bank,1
St Ives,http://www.stivesparishchurch.org.uk/foodbank/,"All Saints Parish Church
Church Street
St Ives
Cambridgeshire
PE27 6DG",Huntingdonshire,PE27 6DG,foodbank.stives@gmail.com,7835521541,52.326567,-0.0794487,http://www.stivesparishchurch.org.uk/foodbank/,England,Food Bank,1
Huddersfield,https://www.thewelcomecentre.org/,"15 Lord Street
Huddersfield
HD1 1QB",,HD1 1QB,emma.thewelcomecente@gmail.com,1484515086,53.6480075,-1.780351,https://www.thewelcomecentre.org/pages/12-donate-food,England,Food Bank,1
North Belfast,https://northbelfast.foodbank.org.uk,"Immanuel Presbyterian Church
35 Agnes Street
Belfast
BT13 1GG",Belfast,BT13 1GG,info@northbelfast.foodbank.org.uk,7902099840,54.6081356,-5.9474124,https://northbelfast.foodbank.org.uk/give-help/donate-food/,England,Food Bank,1
Witney & West Oxfordshire,https://witney.foodbank.org.uk,"Cottsway House
Heynes Place, Avenue Two
Witney
Oxfordshire
OX28 4YG",West Oxfordshire,OX28 4YG,info@witney.foodbank.org.uk,1993890000,51.7771608,-1.4869738,https://witney.foodbank.org.uk/give-help/donate-food/,England,Food Bank,1
Dacorum,https://www.dens.org.uk/our-services/foodbank/,"The Hub
Paradise Depot
Hemel Hempstead
Hertfordshire
HP2 4TF",Dacorum,HP2 4TF,office@dacorumfoodbank.org.uk,1442250969,51.7493158,-0.4692614,https://www.dens.org.uk/get-involved/food-donations/,England,Food Bank,1
Redditch,https://redditch.foodbank.org.uk,"24 Church Green E
Redditch
B98 8DE",Redditch,B98 8DE,info@redditch.foodbank.org.uk,7847618539,52.3065222,-1.9396058,https://redditch.foodbank.org.uk/give-help/donate-food/,England,Food Bank,1
St Austell,https://staustell.foodbank.org.uk,"The Light & Life Centre
Units 4-5 Brunel Business Park
The Sidings
St Austell
PL25 4TJ",Cornwall,PL25 4TJ,info@staustell.foodbank.org.uk,172665313,50.3390489,-4.7811723,https://staustell.foodbank.org.uk/give-help/donate-food/,England,Food Bank,1
Burngreave,https://burngreave.foodbank.org.uk,"Rock Christian Centre
177 Spital Hill
Sheffield
S4 7LF",Sheffield,S4 7LF,info@burngreave.foodbank.org.uk,7542888671,53.3919963,-1.4585994,https://burngreave.foodbank.org.uk/give-help/donate-food/,England,Food Bank,1
Uckfield,https://uckfield.foodbank.org.uk,"15 Horsted Square
Bellbrook Industrial Estate
Uckfield
East Sussex
TN22 1QG",Wealden,TN22 1QG,admin@uckfield.foodbank.org.uk,1825745489,50.9662362,0.0824903,https://uckfield.foodbank.org.uk/give-help/donate-food/,England,Food Bank,1
Waterloo,https://waterloo.foodbank.org.uk,"Oasis UK
1 Kennington Road
London
SE17QP",Lambeth,SE17QP,foodbank@oasiswaterloo.org,2079214205,51.4981372,-0.1118536,https://waterloo.foodbank.org.uk/give-help/donate-food/,England,Food Bank,1
Crowthorne,https://crowthorne.foodbank.org.uk,"Vineyard Church Centre
25 Wellington Business Park
Duke's Ride
Crowthorne
RG45 6LS",Bracknell Forest,RG45 6LS,info@crowthorne.foodbank.org.uk,1344780087,51.366104,-0.817393,https://crowthorne.foodbank.org.uk/give-help/donate-food/,England,Food Bank,1
King's Centre (Honiton),http://www.thecommunitychurch.co.uk/community-action-team/food-bank/,"Lees Buildings
The King's Centre
High St
Honiton
EX14 1DH",East Devon,EX14 1DH,office@thecommunitychurch.co.uk,140443800,50.7981275,-3.1926317,http://www.thecommunitychurch.co.uk/community-action-team/food-bank/,England,Food Bank,1
Rhymney Valley,https://rhymneyvalley.foodbank.org.uk,"White Rose Resource Centre
Elliotstown
New Tredegar
NP24 6EF",Caerphilly,NP24 6EF,info@rhymneyvalley.foodbank.org.uk,1443829556,51.7170712,-3.2352747,https://rhymneyvalley.foodbank.org.uk/give-help/donate-food/,Wales,Food Bank,1
East Elmbridge,https://eastelmbridge.foodbank.org.uk,"Esher Green Baptist Church
6 Park Road
Esher
Surrey
KT10 8NP",Elmbridge,KT10 8NP,info@eastelmbridge.foodbank.org.uk,7908777475,51.369431,-0.3667559,https://eastelmbridge.foodbank.org.uk/give-help/donate-food/,England,Food Bank,1
Hertford & District,https://hertforddistrict.foodbank.org.uk,"Hertford United Reformed Church
Cowbridge
Hertford
SG14 1PG",East Hertfordshire,SG14 1PG,info@hertforddistrict.foodbank.org.uk,7851708470,51.7978264,-0.0818593,https://hertforddistrict.foodbank.org.uk/give-help/donate-food/,England,Food Bank,1
Social Action Hub,https://www.socialactionhub.com/foodshare-community-fridge,"Kirklington Road
Rainworth
Mansfield
NG21 0JR",Newark and Sherwood,NG21 0JR,info@socialactionhub.com,1623490498,53.1191538,-1.1119416,https://www.socialactionhub.com/foodshare-community-fridge,England,Food Bank,1
ACT,https://www.stthomasstluke.org.uk/ourtown/actfoodbank/,"St. Thomas' Church
Warrington Road
Ashton-in-Makerfield
WN4 9PL",Wigan,WN4 9PL,actfoodbank@stthomasstluke.org.uk,1942273721,53.4853217,-2.6388766,https://www.stthomasstluke.org.uk/ourtown/actfoodbank/,England,Food Bank,1
Blandford,https://faithworkswessex.org.uk/projects/foodbank/blandford/,"Methodist Church
The Close
Blandford Forum
DT11 7HA",Dorset,DT11 7HA,blandfordfood@faithworkswessex.org.uk,1258456093,50.8570876,-2.1628901,https://faithworkswessex.org.uk/projects/foodbank/blandford/,England,Food Bank,1
Salma,https://www.salma-foodbank.org,"Unit 8
Ash Court
Crystal drive
Smethwick
B66 1QG",Sandwell,B66 1QG,donations@salma-foodbank.org,7767164246,52.50423,-1.995353,https://www.salma-foodbank.org/donations,England,Food Bank,1
Flintshire,https://flintshire.foodbank.org.uk,"Former Library HQ
Raikes Lane
Mold
CH7 6NW
CH7 6NW",Flintshire,CH7 6NW,info@flintshire.foodbank.org.uk,1352757235,53.1781679,-3.1377608,https://flintshire.foodbank.org.uk/give-help/donate-food/,Wales,Food Bank,1
Brighton,http://www.brightonfoodbank.org.uk/,"Calvary Church Building
Stanley Road
Brighton
BN1 4NJ",Brighton and Hove,BN1 4NJ,foodbank@bhcm.org.uk,1273609484,50.833776,-0.137889,http://www.brightonfoodbank.org.uk/how-can-you-help/,England,Food Bank,1
CHAT,https://chatmid.org/foodbank/,"Cogganâ€™s Well House
Phoenix Lane
Tiverton
EX16 6LU",Mid Devon,EX16 6LU,theoffice@chatmid.co.uk,1884255606,50.9018788,-3.4874512,https://chatmid.org/donating/,England,Food Bank,1
Exeter,https://exeter.foodbank.org.uk,"The Mint Methodist Church
Fore Street
Exeter
EX4 3AT",Exeter,EX4 3AT,info@exeterfoodbank.org.uk,7818226524,50.7217866,-3.5345016,https://exeter.foodbank.org.uk/give-help/donate-food/,England,Food Bank,1
Stanwell,http://www.stanwellfoodbank.org.uk,"The Pavilion
53 Cambria Gardens
Stanwell
TW19 7ER",Spelthorne,TW19 7ER,info@stanwellfoodbank.org.uk,7429584286,51.4526277,-0.4707553,http://www.stanwellfoodbank.org.uk/help.html,England,Food Bank,1
Mid Cheshire,https://midcheshire.foodbank.org.uk,"Unit 14
The Business Centre
Barlow Drive
Winsford
CW7 2GN",Cheshire West and Chester,CW7 2GN,info@midcheshire.foodbank.org.uk,1606590992,53.1864118,-2.5575115,https://midcheshire.foodbank.org.uk/give-help/donate-food/,England,Food Bank,1
Deepings,https://deepings.foodbank.org.uk/,"The Deepings School
Park Rd
Deeping St James
Lincolnshire
PE6 8NF",South Kesteven,PE6 8NF,info@deepings.foodbank.org.uk,7516717346,52.674841,-0.296964,https://deepings.foodbank.org.uk/give-help/donate-food/,England,Food Bank,1
Bradford Central,https://bradfordcentral.foodbank.org.uk,"86 Captain Street
Bradford
BD1 4EL",Bradford,BD1 4EL,info@bradfordcentral.foodbank.org.uk,1274734314,53.796761,-1.7478796,https://bradfordcentral.foodbank.org.uk/give-help/donate-food/,England,Food Bank,1
Brent,https://brent.foodbank.org.uk,"The Vestry Hall
Neasden Lane
London
NW10 2TS",Brent,NW10 2TS,info@brent.foodbank.org.uk,2037455972,51.5487855,-0.2495346,https://brent.foodbank.org.uk/give-help/donate-food/,England,Food Bank,1
Winchester Basics Bank,https://winchesterbasicsbank.co.uk,"21A Penton Place
Milland Road
Winchester
Hampshire
SO23 0PZ",Winchester,SO23 0PZ,winchbbank@gmail.com,1962855774,51.0563807,-1.3035291,https://winchesterbasicsbank.co.uk/donate/,England,Food Bank,1
Levenmouth,https://levenmouth.foodbank.org.uk,"Methil Evangelical Church
Bowling Green Street
Methil
KY8 3DH",Fife,KY8 3DH,info@levenmouth.foodbank.org.uk,7966502854,56.1854286,-3.0132777,https://levenmouth.foodbank.org.uk/give-help/donate-food/,Scotland,Food Bank,1
East Yorkshire,https://eastyorkshire.foodbank.org.uk/,"87 Mill Lane
Beverley
East Riding of Yorkshire
HU17 9DH",East Riding of Yorkshire,HU17 9DH,info@eastyorkshire.foodbank.org.uk,7842753728,53.8456393,-0.4240848,https://eastyorkshire.foodbank.org.uk/give-help/donate-food/,England,Food Bank,1
Pontypridd,https://pontypridd.foodbank.org.uk,"St Lukes Church
Cardiff Road
Rhydyfelin
Pontypridd
CF37 5LG",,CF37 5LG,info@pontypridd.foodbank.org.uk,1443492033,51.5820748,-3.3134041,https://pontypridd.foodbank.org.uk/give-help/donate-food/,Wales,Food Bank,1
Sufra NW London,https://www.sufra-nwlondon.org.uk,"160 Pitfield Way
Stonebridge
London
NW10 0PW",Brent,NW10 0PW,admin@sufra-nwlondon.org.uk,2034411335,51.5488522,-0.2660772,https://www.sufra-nwlondon.org.uk/get-involved/food-donations/,England,Food Bank,1
Whitchurch,https://whitchurch.foodbank.org.uk,"Bargates Hall
Church Street
Whitchurch
Shropshire
SY13 1LR",Shropshire,SY13 1LR,info@whitchurch.foodbank.org.uk,1948663943,52.9727527,-2.6870941,https://whitchurch.foodbank.org.uk/give-help/donate-food/,England,Religious Institution,1
Chelmsford,https://chelmsford.foodbank.org.uk,"PO Box 9174
Chelmsford
CM1 9AE",Chelmsford,CM1 9AE,info@chelmsford.foodbank.org.uk,7512574542,51.7358346,0.4700428,https://chelmsford.foodbank.org.uk/give-help/donate-food/,England,Food Bank,1
Mosaic,https://www.mosaicchurch.org.uk/foodbank.html,"Manor House Neighbourhood Centre
Haddenham Road
Leicester
LE3 2BG",Leicester,LE3 2BG,foodbank@mosaicchurch.org.uk,1162221021,52.6192322,-1.1543312,https://www.mosaicchurch.org.uk/foodbank.html,England,Food Bank,1
The Community,https://www.stsaviourssunbury.org.uk/foodbank,"St Saviours Church 
205 Vicarage Road
Sunbury
TW16 7TP",Spelthorne,TW16 7TP,community@stsaviourssunbury.org.uk,7549952161,51.4211184,-0.419563,https://www.stsaviourssunbury.org.uk/foodbank,England,Community Centre,1
Manna Food Bank (Hatfield),http://openheavenshatfield.com,"62A Town Centre
Hatfield 
Hertfordshire
AL10 0JJ",Welwyn Hatfield,AL10 0JJ,openheavenschristiancentre@yahoo.co.uk,7917454445,51.7638587,-0.2262955,http://openheavenshatfield.com,England,Food Bank,1
Mission Trinity,https://www.missiontrinity.org,"1 St. John Street
Goole
DN14 5QL",East Riding of Yorkshire,DN14 5QL,contact@missiontrinity.org,7543290407,53.70211,-0.871171,https://www.missiontrinity.org/ways-you-can-help-too.html,England,Food Bank,1
Compassion,https://www.compassionministries.co.uk/food-bank,"Church of God of Prophecy
300 Moss Lane East
Moss Side
Manchester
M14 4SS",Manchester,M14 4SS,admin@compassionministries.co.uk,7908622190,53.4575184,-2.2407422,https://www.compassionministries.co.uk/food-bank,England,Food Bank,1
York,https://york.foodbank.org.uk,"Unit 5 Sterling Park
Bleriot Way
Clifton Moor
YO30 4WU",York,YO30 4WU,info@york.foodbank.org.uk,7871610894,53.9900425,-1.0983492,https://york.foodbank.org.uk/give-help/donate-food/,England,Food Bank,1
S20,http://www.sheffieldfoodbank.org.uk/s20/,"25 Kelgate
Mosborough
Sheffield
S20 5EJ",Sheffield,S20 5EJ,s20foodbank@gmail.com,7732823028,53.321106,-1.3604052,http://www.sheffieldfoodbank.org.uk/s20/,England,Food Bank,1
Blackpool,https://www.facebook.com/blackpoolfoodbank/,"Dickson Road Self Storage Units
Blackpool
FY1 2AJ",Blackpool,FY1 2AJ,info@blackpoolfoodbank.co.uk,1253358842,53.8220414,-3.0527681,https://www.facebook.com/blackpoolfoodbank/,England,Food Bank,1
St Augustine's Pantry,https://saintaugustines.org.uk/peoples-pantry-food-bank/,"St Augustine's Church
2 Church Gate
Hedon
Hull
HU12 8FG",East Riding of Yorkshire,HU12 8FG,office@saintaugustines.org.uk,1236423044,53.7414526,-0.1996896,https://saintaugustines.org.uk/peoples-pantry-food-bank/,England,Food Bank,1
Fallowfield & Withington,https://fallowfieldwithington.foodbank.org.uk,"Union Chapel
2b Wellington Road
Fallowfield
M14 6EQ",Manchester,M14 6EQ,info@fallowfieldwithington.foodbank.org.uk,7411077654,53.4420952,-2.2231236,https://fallowfieldwithington.foodbank.org.uk/give-help/donate-food/,England,Food Bank,1
Beaminster,https://www.proutbridgeproject.com/food-bank,"6 Prout Hill
Beaminster
DT8 3AY",Dorset,DT8 3AY,proutbridgeproject@gmail.com,7802514171,50.8083553,-2.7379718,https://www.proutbridgeproject.com/food-bank,England,Food Bank,1
PANTRY,https://www.pantryfoodbank.org,"The Tabernacle
Thomas Street
Pontardawe
SA8 4HD",Neath Port Talbot,SA8 4HD,info@pantryfoodbank.org,7565711311,51.7221123,-3.8488829,https://www.pantryfoodbank.org/donate.html,Wales,Food Bank,1
Chapters,http://chaptersfoodbank.org/,"29 Telegraph Mews
Goodmayes
Ilford
IG3 8TA",Redbridge,IG3 8TA,info@chaptersfoodbank.org,7752415343,51.5671278,0.1104231,http://chaptersfoodbank.org/current-needs/,England,Food Bank,1
Sandbach,http://www.sandbachmethodist.org.uk/newhomer.html,"Sandbach Methodist Church
Wesley Ave
Sandbach
CW11 1DG",Cheshire East,CW11 1DG,sandbachfoodbank@gmail.com,1270750078,53.1448156,-2.3660259,http://www.sandbachmethodist.org.uk/newhomer.html,England,Food Bank,1
Telford,https://telfordcrisissupport.org.uk,"78-83 Severn Walk
Sutton Hill
TF7 4AS",Telford and Wrekin,TF7 4AS,tcsfoodbank@gmail.com,1952586646,52.6302721,-2.4409182,https://telfordcrisissupport.org.uk/donatefood,England,Food Bank,1
Weston-super-Mare,https://westonsupermare.foodbank.org.uk,"North Street
Weston-Super-Mare
BS23 1QF",North Somerset,BS23 1QF,info@wsmfoodbank.org.uk,1934708906,51.3486822,-2.977725,https://westonsupermare.foodbank.org.uk/give-help/donate-food/,England,Food Bank,1
Edinburgh City Mission,https://www.edinburghcitymission.org.uk/where-to-find-help/basics-bank.php,"The Coracle
41 Bryson Road
Edinburgh
EH11 1DS",City of Edinburgh,EH11 1DS,mail@edinburghcitymission.org.uk,1312259445,55.9377054,-3.2233384,https://www.edinburghcitymission.org.uk/where-to-find-help/basics-bank.php,Scotland,Food Bank,1
Loaves & Fishes,https://loavesandfishesek.com/,"40 Singer Road
East Kilbride
G75 0XS",South Lanarkshire,G75 0XS,loavesandfishesek@gmail.com,1355223657,55.7472087,-4.1694484,https://loavesandfishesek.com/,Scotland,Food Bank,1
Brandlesholme,https://www.brandlesholme.com,"375b Brandlesholme Road
Bury
BL8 1HS",Bury,BL8 1HS,info@brandlesholme.com,1617977366,53.609469,-2.3147508,https://www.brandlesholme.com/donate,England,Food Bank,1
Middlesbrough,https://middlesbrough.foodbank.org.uk/,"Unit 5 Wear Court
Wallis Road
Skippers Lane Industrial Estate
Southbank
Middlesbrough
TS6 6DU",Redcar and Cleveland,TS6 6DU,info@middlesbrough.foodbank.org.uk,7954131337,54.5716787,-1.1825682,https://middlesbrough.foodbank.org.uk/give-help/donate-food/,England,Food Bank,1
West Cheshire,https://westcheshire.foodbank.org.uk,"Units 3 and 4
Stanney Mill Industrial Estate
Dutton Green
Chester
CH2 4SA",Cheshire West and Chester,CH2 4SA,info@westcheshire.foodbank.org.uk,1513557730,53.2699549,-2.8721315,https://westcheshire.foodbank.org.uk/give-help/donate-food/,England,Food Bank,1
Cafe 43 - House of Bread,https://www.hobstafford.co.uk/food-bank/,"43 Browning St
Stafford
ST16 3AX",Stafford,ST16 3AX,info@hobstafford.co.uk,1785243492,52.8130889,-2.1195641,https://www.hobstafford.co.uk/food-bank/,England,Food Bank,1
"Clyde, Avon & Nethan",https://clydeavonnethan.foodbank.org.uk/,"Trinity Cottage
96 Union Street
Larkhall
ML9 1EF",South Lanarkshire,ML9 1EF,info@clydeavonnethan.foodbank.org.uk,7591104027,55.7389698,-3.9735691,https://clydeavonnethan.foodbank.org.uk/give-help/donate-food/,Scotland,Food Bank,1
Washington Community,http://wcfp.org.uk/,"Unit O
Washington Galleries
Washington
Tyne and Wear
NE38 7SD",Sunderland,NE38 7SD,washingtoncfp@gmail.com,7450766226,54.9000461,-1.5325551,http://wcfp.org.uk/,England,Community Centre,1
Windermere & District,https://windermeredistrict.foodbank.org.uk,"The Methodist Church Basement
Main Road
Windermere
LA23 1DY",South Lakeland,LA23 1DY,info@windermeredistrict.foodbank.org.uk,1539422569,54.3794916,-2.9066187,https://windermeredistrict.foodbank.org.uk/give-help/donate-food/,England,Food Bank,1
Barnsley,https://barnsley.foodbank.org.uk,"Unit 14
Aldham Industrial Estate
Wombwell
Barnsley
South Yorkshire
S73 8HA",Barnsley,S73 8HA,manager@barnsley.foodbank.org.uk,7741414810,53.5332954,-1.4142517,https://barnsley.foodbank.org.uk/give-help/donate-food/,England,Food Bank,1
Billingham & Stockton Borough,https://billinghamstocktonborough.foodbank.org.uk,"4-6 West Precinct
Billingham Town Centre
Billingham
TS23 2NH",Stockton-on-Tees,TS23 2NH,info@billinghamstocktonborough.foodbank.org.uk,7583575522,54.6072595,-1.2946318,https://billinghamstocktonborough.foodbank.org.uk/give-help/donate-food/,England,Food Bank,1
Rutland,https://rutland.foodbank.org.uk/,"Rear of 40 Melton Road
Oakham
LE15 6AY",Rutland,LE15 6AY,info@rutland.foodbank.org.uk,7582783363,52.6707444,-0.7339176,https://rutland.foodbank.org.uk/give-help/donate-food/,England,Food Bank,1
Grace,https://gracefoodbanksheffield.org.uk/,"240 Lowedges Road
Sheffield
South Yorkshire
S8 7JB",Sheffield,S8 7JB,office@gracefoodbanksheffield.org.uk,7964896283,53.3206281,-1.4909674,https://gracefoodbanksheffield.org.uk/,England,Food Bank,1
Newcastle East,https://newcastleeast.foodbank.org.uk/,"Elim Church Newcastle
The Dream Centre
Heaton Road
Newcastle-upon-Tyne
NE6 1SB",Newcastle upon Tyne,NE6 1SB,info@newcastleeast.foodbank.org.uk,1912242422,54.979784,-1.580527,https://newcastleeast.foodbank.org.uk/give-help/donate-food/,England,Food Bank,1
Northfield,https://www.northfieldcommunity.org/copy-of-sexual-health,"693 Bristol Road South
Northfield
Birmingham
B31 2JT",Birmingham,B31 2JT,info@northfieldcommunity.org,1214112157,52.4173229,-1.9687917,https://www.northfieldcommunity.org/copy-of-sexual-health,England,Food Bank,1
Isle of Man,https://isleofmanfoodbank.wordpress.com,"Ballafletcher House
Ballafletcher Farm Road
Cronkbourne
Douglas
IM4 4QE",,IM4 4QE,isleofmanfoodbank@gmail.com,1624646999,54.1698041,-4.4987848,https://isleofmanfoodbank.wordpress.com/shopping-list/,Isle of Man,Food Bank,1
Cannock & District,https://cannockdistrict.foodbank.org.uk/,"Pye Green Christian Centre
521 Pye Green Road
Hednesford
Cannock
Staffordshire
WS12 4LP",Cannock Chase,WS12 4LP,info@cannockdistrict.foodbank.org.uk,1543422394,52.7178366,-2.0221927,https://cannockdistrict.foodbank.org.uk/give-help/donate-food/,England,Food Bank,1
Manchester South Central,https://manchestersouthcentral.foodbank.org.uk,"Unit 3
The Wesley Centre
Corner of Old York Street/ Royce Road
Hulme
Manchester
M15 5BP",Manchester,M15 5BP,info@manchestersouthcentral.foodbank.org.uk,7842093922,53.4675233,-2.2542837,https://manchestersouthcentral.foodbank.org.uk/give-help/donate-food/,England,Food Bank,1
Kettering and District,http://www.kcultd.org.uk,"51 Gold St
Kettering
Northants
NN16 8JB",Kettering,NN16 8JB,kcu@kcultd.org.uk,1536481989,52.4002105,-0.7222393,http://www.kcultd.org.uk/donate-the-foodbank-hub/,England,Food Bank,1
Ramsey,https://ramsey.foodbank.org.uk,"St Thomas a Becket Church
High Street
Ramsey
Cambridgeshire
PE26 1DW",Huntingdonshire,PE26 1DW,info@ramsey.foodbank.org.uk,1487812648,52.4490575,-0.1021787,https://ramsey.foodbank.org.uk/give-help/donate-food/,England,Food Bank,1
Bethlehem House Of Bread,http://bethlehemhouseofbreadfoodbank.co.uk/,"1 Esk Walk
Cumbernauld
G67 1BZ",North Lanarkshire,G67 1BZ,admin@cornerstone-house.org.uk,7737999104,55.946537,-3.9902,http://bethlehemhouseofbreadfoodbank.co.uk/,Scotland,Food Bank,1
Sheffield S6,https://sheffields6.foodbank.org.uk,"St Thomas' Church
Philadelphia Campus
6 Gilpin Street
Sheffield
S6 3BL",Sheffield,S6 3BL,info@sheffields6.foodbank.org.uk,1142419560,53.392364,-1.4838389,https://sheffields6.foodbank.org.uk/give-help/donate-food/,England,Food Bank,1
AY Group,https://www.ay-group.org/,"Estate Office Block A
Peabody Hall
Fulham Estate
Lillie Road
SW6 1UH",Hammersmith and Fulham,SW6 1UH,office@ay-group.org,7852945928,51.4858132,-0.2010802,https://www.ay-group.org/,England,Food Bank,1
Stratford Upon Avon,https://stratforduponavon.foodbank.org.uk,"Stratford Methodist Church
Old Town
Stratford-upon-Avon
CV37 6BG",Stratford-on-Avon,CV37 6BG,info@stratforduponavon.foodbank.org.uk,7884418732,52.1869557,-1.7085495,https://stratforduponavon.foodbank.org.uk/give-help/donate-food/,England,Food Bank,1
West Somerset Food Cupboard,https://together.ourchurchweb.org.uk/minehead/features/page111114/,"St. Michael The Archangel Church
Church Street
Alcombe
Minehead
TA24 6BL",Somerset West and Taunton,TA24 6BL,foodcupboardws@outlook.com,7795080637,51.1961752,-3.4670573,https://together.ourchurchweb.org.uk/minehead/features/page111114/,England,Food Bank,1
Holbeck,http://holbeckfoodbank.org.uk,"Holbeck Community Centre
90a Elland Road
Leeds
LS11 0AB",Leeds,LS11 0AB,holbeckfoodbank@gmail.com,7710467587,53.7815206,-1.56151,http://holbeckfoodbank.org.uk,England,Food Bank,1
Wetherby & District,https://wetherbyanddistrict.foodbank.org.uk/,"Wetherby and District Foodbank Warehouse
Unit 605
Avenue D
Thorp Arch Trading Estate
Wetherby
LS23 7FS",Leeds,LS23 7FS,info@wetherbyanddistrict.foodbank.org.uk,7840455725,53.9095318,-1.3204206,https://wetherbyanddistrict.foodbank.org.uk/give-help/donate-food/,England,Food Bank,1
Kintyre,http://www.kintyrefoodbank.org.uk/,"Unit 3
Mull Of Kintyre Ind Estate
Albyn Road
Campbeltown
PA28 6TP",Argyll and Bute,PA28 6TP,enquiries@kintyrefoodbank.org.uk,7936034600,55.4283213,-5.6114616,http://www.kintyrefoodbank.org.uk/,Scotland,Food Bank,1
Rotherham,https://rotherham.foodbank.org.uk/,"Hope Centre 
Grove Road 
Rotherham
S60 2ER",Rotherham,S60 2ER,stephen@rotherham.foodbank.org.uk,1709372104,53.427492,-1.355362,https://rotherham.foodbank.org.uk/give-help/donate-food/,England,Food Bank,1
The Kings Storehouse,http://www.kingsstorehouse.org.uk,"Wellspring Christian Centre
140 Vale Road
Rhyl
LL18 2PD",Denbighshire,LL18 2PD,markwjones@hotmail.com,1745851582,53.3171127,-3.4819162,http://www.kingsstorehouse.org.uk/donations-3/,Wales,Food Bank,1
Bristol North,https://northbristol.foodbank.org.uk,"Ebenezer Church
286 Filton Avenue 
Horfield
Bristol
BS7 0BA","Bristol, City of",BS7 0BA,info@northbristol.foodbank.org.uk,1179791399,51.4941194,-2.5749741,https://northbristol.foodbank.org.uk/give-help/donate-food/,England,Food Bank,1
AFECC,https://www.afecc.co.uk/departments/social-welfare/food-bank/,"32-38 Dixon Avenue
Crosshill
Glasgow
G42 8EJ",Glasgow City,G42 8EJ,office@afecc.co.uk,1414332686,55.8344198,-4.2610132,https://www.afecc.co.uk/departments/social-welfare/food-bank/,Scotland,Food Bank,1
Callington,https://callington.foodbank.org.uk,"1 Launceston Road
Callington
Cornwall
PL17 7BS",Cornwall,PL17 7BS,callingtonfoodbank@gmail.com,7931011459,50.5050676,-4.3144536,https://callington.foodbank.org.uk/give-help/donate-food/,England,Food Bank,1
Eastern Valley,https://easternvalley.foodbank.org.uk,"Hope Centre
Unit 5 Pavillion Industrial Estate
Pontnewynydd
Pontypool
NP4 6NF",Torfaen,NP4 6NF,info@easternvalley.foodbank.org.uk,1495760605,51.7102934,-3.0515378,https://easternvalley.foodbank.org.uk/give-help/donate-food/,Wales,Food Bank,1
Holy Trinity,http://www.holytrinityfoodbank.org.uk/,"Stapleton Hall Road
Alongside St. Aidanâ€™s School
Stroud Green
Haringey
N4 4RR",Haringey,N4 4RR,info@holytrinityfoodbank.org.uk,2083489181,51.5752134,-0.1104196,http://www.holytrinityfoodbank.org.uk/,England,Food Bank,1
Falkirk,https://falkirk.foodbank.org.uk,"Unit 1
Tamfourhill Industrial Estate
Tamfourhill Avenue
Falkirk
FK1 4RT",Falkirk,FK1 4RT,info@falkirk.foodbank.org.uk,7809340919,55.9987012,-3.8227593,https://falkirk.foodbank.org.uk/give-help/donate-food/,Scotland,Food Bank,1
Coventry,https://coventry.foodbank.org.uk/,"Coventry Foodbank
Progress Way
Coventry
West Midlands
CV3 2NT",Coventry,CV3 2NT,info@coventry.foodbank.org.uk,2476993770,52.3946734,-1.4383041,https://coventry.foodbank.org.uk/give-help/donate-food/,England,Food Bank,1
Cobham Area,https://cobhamarea.foodbank.org.uk,"c/o Parish Office
Church Gate House
Downside Bridge Road
Cobham
KT11 3EJ",Elmbridge,KT11 3EJ,manager@cobhamarea.foodbank.org.uk,1932450282,51.32603,-0.4114019,https://cobhamarea.foodbank.org.uk/give-help/donate-food/,England,Food Bank,1
Clacton,https://clacton.foodbank.org.uk/,"103 Old Rd
Clacton-on-Sea
CO15 1HN",Tendring,CO15 1HN,tracy.cooke@salvationarmy.org.uk,1255431760,51.7931743,1.1477981,https://clacton.foodbank.org.uk/give-help/donate-food/,England,Food Bank,1
FC United,http://www.fc-utd.co.uk,"Broadhurst Park
310 Lightbowne Road
Moston
Manchester
M40 0FJ",Manchester,M40 0FJ,vinny.thompson@fc-utd.net,7792833086,53.5165913,-2.1804694,http://www.fc-utd.co.uk,England,Food Bank,1
Lutterworth and Villages,https://lutterworthvillages.foodbank.org.uk,"St Mary's Church
C/o Church Gate Centre
Church Gate
Lutterworth
Leicestershire
LE17 4AN",Harborough,LE17 4AN,info@lutterworthvillages.foodbank.org.uk,1455558797,52.4553706,-1.2031654,https://lutterworthvillages.foodbank.org.uk/give-help/donate-food/,England,Food Bank,1
Time for the Homeless,https://www.facebook.com/pages/category/Charity-Organization/Time-For-The-Homeless-250523678990484/,"44a Chancery Rd
Cliffe
ME37TL",Medway,ME37TL,timeforthehomeless@outlook.com,7496108583,51.4591598,0.5010173,https://www.facebook.com/pages/category/Charity-Organization/Time-For-The-Homeless-250523678990484/,England,Food Bank,1
Southend,https://southend.foodbank.org.uk,"Friendship House
484 Southchurch Road
Southend on Sea
SS1 2QA",Southend-on-Sea,SS1 2QA,info@southend.foodbank.org.uk,7456426203,51.5402847,0.7296432,https://southend.foodbank.org.uk/give-help/donate-food/,England,Food Bank,1
Lalley Centre,https://www.caritassalford.org.uk/service-view/services-5/,"St Malachyâ€™s RC Primary School Basement
Eggington St
Collyhurst
Manchester
M40 7RG",Manchester,M40 7RG,lalleycentre@caritassalford.org.uk,1612052754,53.4981302,-2.2235598,https://www.caritassalford.org.uk/service-view/services-5/,England,Food Bank,1
North Enfield,https://northenfield.foodbank.org.uk/,"Jubilee Central
Unit 2 Lumina Way
Enfield
Middlesex
EN1 1FS",Enfield,EN1 1FS,info@northenfield.foodbank.org.uk,7826542119,51.6444661,-0.0585284,https://northenfield.foodbank.org.uk/give-help/donate-food/,England,Food Bank,1
Muswell Hill,https://muswellhill.foodbank.org.uk,"Pembroke Road Church
68 Pembroke Road
Muswell Hill
London
N10 2HT",Barnet,N10 2HT,info@muswellhill.foodbank.org.uk,2088830434,51.6047022,-0.1458411,https://muswellhill.foodbank.org.uk/give-help/donate-food/,England,Food Bank,1
Glasgow SE,https://glasgowse.foodbank.org.uk,"173 Butterbiggins Road 
Govanhill 
Glasgow
G42 7AS",Glasgow City,G42 7AS,foodbank@glasgowelim.org.uk,7456868628,55.8403422,-4.2577429,https://glasgowse.foodbank.org.uk/give-help/donate-food/,Scotland,Food Bank,1
Woking,https://woking.foodbank.org.uk,"The Lighthouse
8-10 High Street
Woking
GU21 6BG",Woking,GU21 6BG,info@woking.foodbank.org.uk,7376952892,51.3184732,-0.5579809,https://woking.foodbank.org.uk/give-help/donate-food/,England,Food Bank,1
Harold Hill,https://haroldhill.foodbank.org.uk,"Unit 1 Guardian Business Centre 
Faringdon Avenue 
Harold Hill 
Romford 
Essex
RM38FD",Havering,RM38FD,mark@haroldhill.foodbank.org.uk,1708386323,51.5984143,0.2195799,https://haroldhill.foodbank.org.uk/give-help/donate-food/,England,Food Bank,1
Dunbar Basics,http://www.dunbarparishchurch.org/basics-bank.html,"Dunbar Parish Church Hall
32A High Street
Dunbar
EH42 1AA",East Lothian,EH42 1AA,dunbarbasicsbank@gmail.com,7703527240,56.0008788,-2.5153245,http://www.dunbarparishchurch.org/basics-bank.html,Scotland,Food Bank,1
Canaan Trust,http://www.canaan-trust.co.uk/mission-statement/kings-cupboard/,"14 Main St
Long Eaton
Nottingham
NG10 1GR",Erewash,NG10 1GR,office@canaan-trust.co.uk,1159464903,52.8945771,-1.2659442,http://www.canaan-trust.co.uk/mission-statement/kings-cupboard/,England,Food Bank,1
Edinburgh NE,https://edinburghne.foodbank.org.uk/,"South Leith Parish Church Halls
6 Henderson Street
Edinburgh
EH6 6BS",City of Edinburgh,EH6 6BS,info@edinburghne.foodbank.org.uk,1315542578,55.9720302,-3.1703828,https://edinburghne.foodbank.org.uk/give-help/donate-food/,Scotland,Food Bank,1
Saltash,https://saltash.foodbank.org.uk,"Lower Ground Floor
18 Belle Vue Road
Saltash
PL12 6ES",Cornwall,PL12 6ES,info@saltash.foodbank.org.uk,8003282124,50.4094824,-4.2132055,https://saltash.foodbank.org.uk/give-help/donate-food/,England,Food Bank,1
Porch Boxes,https://porchboxes.wordpress.com,"Bradley Fold
Radcliffe
Manchester
BL2 6RS",Bury,BL2 6RS,michaeltperrin@tiscali.co.uk,1617615908,53.5724694,-2.360186,https://porchboxes.wordpress.com/what-items-can-you-donate/,England,Food Bank,1
Stockport,https://stockport.foodbank.org.uk,"Hazel Grove Baptist Church
Station Street
Hazel Grove
Stockport
SK7 4EX",Stockport,SK7 4EX,foodbank@stockportfoodbank.org.uk,7843115349,53.3780289,-2.1217634,https://stockport.foodbank.org.uk/give-help/donate-food/,England,Food Bank,1
Purley,https://www.purleyfoodhub.net/,"Purley United Reformed Church
906 Brighton Road
Purley
CR8 2LN",Croydon,CR8 2LN,PurleyFoodHub@gmail.com,7546635295,51.3403377,-0.1155737,https://www.purleyfoodhub.net/,England,Food Bank,1
West Bromwich,https://westbromwichfoodbank.com/,"West Bromwich Community Church
23 Victoria St
West Bromwich
B70 8EX",Sandwell,B70 8EX,keith@elimwestbrom.com,1215800068,52.5184098,-1.9969278,https://www.elimwestbrom.com/food-bank/,England,Food Bank,1
Weymouth,https://www.weymouthbaptists.com/foodbanksinweymouthandportland.htm,"Weymouth Baptist Church
18 The Esplanade
Weymouth
DT4 8DT",Dorset,DT4 8DT,weymouthfb@outlook.com,7531167465,50.6078645,-2.4518965,https://www.weymouthbaptists.com/foodbanksinweymouthandportland.htm,England,Food Bank,1
Leominster,https://www.leominsterfoodbank.org/,"Unit 1 Hinton Terrace
New Street
Leominster
HR6 8FN","Herefordshire, County of",HR6 8FN,leominsterfoodbank@gmail.com,7715410575,52.228632,-2.73999,https://www.leominsterfoodbank.org/,England,Food Bank,1
South Liverpool,https://southliverpool.foodbank.org.uk,"Bridge Chapel Centre
Heath Road
Liverpool
L19 4XR",Liverpool,L19 4XR,admin@slfoodbank.org,7760718640,53.3665155,-2.8962238,https://southliverpool.foodbank.org.uk/give-help/donate-food/,England,Food Bank,1
Nourish Community,https://www.nourishcommunityfoodbank.org.uk/,"YMCA
14-18 Goods Station Road
Tunbridge Wells
Kent
TN1 2BL",Tunbridge Wells,TN1 2BL,office@nourishcommunityfoodbank.org.uk,1892548892,51.1354096,0.2648217,https://www.nourishcommunityfoodbank.org.uk/,England,Community Centre,1
Lifeshare (Llanelli),https://www.antiochcentre.co.uk/lifeshare-food-and-clothes-bank,"Antioch Centre
Copperworks Road
Llanelli
SA15 2NE",Carmarthenshire,SA15 2NE,info@antiochchurch.co.uk,1554741674,51.6732188,-4.1609641,https://www.antiochcentre.co.uk/lifeshare-food-and-clothes-bank,Wales,Food Bank,1
Meon Valley,https://www.meonvalleyfoodbank.co.uk/,"Bishop's Waltham Youth Hall
Malt Lane
Winchester Road
Bishop's Waltham
SO32 1BA",Winchester,SO32 1BA,suepardon@gmail.com,7956375447,50.9540153,-1.2143111,https://www.meonvalleyfoodbank.co.uk/donate/,England,Food Bank,1
Ludlow,https://www.ludlowbaptistchurch.org.uk/our-church/foodbank,"Ludlow Baptist Church
Rockspring Community Centre
Sandford Road
Ludlow
SY8 1SX",Shropshire,SY8 1SX,foodparcelsatlbc@gmail.com,1584874076,52.3700049,-2.7048284,https://www.ludlowbaptistchurch.org.uk/our-church/foodbank,England,Food Bank,1
St Helier,https://www.methodistcentre.je/get-involved/food-store/,"St Helier Methodist Centre
Halkett Place
St. Helier
Jersey
JE2 4WH",,JE2 4WH,office@methodistcentre.je,1534877517,49.1860215,-2.1044371,https://www.methodistcentre.je/get-involved/food-store/,Jersey,Food Bank,1
Somebody Cares,https://www.somebodycaresscotland.org/warehouse/,"Greenwell Road
Aberdeen
AB12 3AX",Aberdeen City,AB12 3AX,info@somebodycaresuk.org,1224460700,57.1288695,-2.0812124,https://www.somebodycaresscotland.org/warehouse/,Scotland,Food Bank,1
Fylde,https://fylde.foodbank.org.uk/,"The Annex
United Reformed Church
St George's Road
Lytham St Anne's 
Lancashire
FY8 2AE",Fylde,FY8 2AE,info@fylde.foodbank.org.uk,7592542670,53.7518242,-3.033611,https://fylde.foodbank.org.uk/give-help/donate-food/,England,Food Bank,1
Godalming & Villages Community Store,https://godalming-tc.gov.uk/community-store/,"Wilfrid Noyce Centre
Crown Court Car Park
Godalming
GU7 1DY",Waverley,GU7 1DY,office@godalming-tc.gov.uk,1483523575,51.1865177,-0.6116717,https://godalming-tc.gov.uk/community-store/,England,Community Centre,1
Boston,https://boston.foodbank.org.uk/,"St Christopher's Church Centre
Fenside Road
Boston
Lincolnshire
PE21 8HY",Boston,PE21 8HY,info@boston.foodbank.org.uk,1205310929,52.982804,-0.041431,https://boston.foodbank.org.uk/give-help/donate-food/,England,Food Bank,1
The River,https://therivermanchester.org.uk/,"1300 Ashton Old Road
Openshaw
Manchester
M11 1JG",Manchester,M11 1JG,therivermanchester@gmail.com,1613715522,53.4728395,-2.1629362,https://therivermanchester.org.uk/,England,Food Bank,1
Duns,https://dunsanddistrict.org.uk/activities/foodbank/,"Duns Parish Church
Church Square
Duns
TD11 3DD",Scottish Borders,TD11 3DD,admin@dunsanddistrict.org.uk,1361884502,55.7776113,-2.3423988,https://dunsanddistrict.org.uk/activities/foodbank/,Scotland,Food Bank,1
Hull,https://hull.foodbank.org.uk,"Jubilee Central 
King Edward Street 
Hull
HU1 3SQ","Kingston upon Hull, City of",HU1 3SQ,admin@hull.foodbank.org.uk,1482224783,53.745474,-0.34137,https://hull.foodbank.org.uk/give-help/donate-food/,England,Food Bank,1
Clydesdale,https://clydesdalefoodbank.org.uk,"66 High Street
Carluke
ML8 4AJ",South Lanarkshire,ML8 4AJ,cfoodbank@yahoo.co.uk,1555771700,55.7340357,-3.8378262,https://clydesdalefoodbank.org.uk/Give-Help/,Scotland,Food Bank,1
Banc Bwyd Pwllheli,https://www.facebook.com/bancbwydpwllhelifoodbank/,"St Peter's Church
9 Church Place
Pwllheli
LL53 5DS",Gwynedd,LL53 5DS,pwllhelifoodbank@gmail.com,7747800320,52.8902338,-4.4183953,https://www.facebook.com/bancbwydpwllhelifoodbank/,Wales,Food Bank,1
Fusion,https://www.fusionhousing.org.uk/Our-Services/fusion-foodbank-and-more/,"Pearl House
10 John William Street
Huddersfield
HD1 1BA",Kirklees,HD1 1BA,info@fusionhousing.org.uk,1484414782,53.6473329,-1.7821674,https://www.fusionhousing.org.uk/Our-Services/fusion-foodbank-and-more/,England,Food Bank,1
Largs,https://www.facebook.com/groups/378509985634984/about/,"Clark Memorial Church
Bath St
Largs
KA30 8BL",North Ayrshire,KA30 8BL,sdell193@btinternet.com,7482508875,55.7935494,-4.8700976,https://www.facebook.com/NCFoodbank/,Scotland,Food Bank,1
Vale,https://vale.foodbank.org.uk,"Coastlands Family Church
The Gateway Centre
Tennyson Road
Colcot
Barry
Vale of Glamorgan
CF62 9TN",Vale of Glamorgan,CF62 9TN,info@vale.foodbank.org.uk,7879562077,51.41969,-3.275921,https://vale.foodbank.org.uk/give-help/donate-food/,Wales,Food Bank,1
Cheddar Valley,https://cheddarvalley.foodbank.org.uk,"Cheddar Valley Community Church
The Oasis
Tweentown
Cheddar
BS27 3JB",Sedgemoor,BS27 3JB,info@cheddarvalley.foodbank.org.uk,7922309369,51.2795121,-2.7770899,https://cheddarvalley.foodbank.org.uk/give-help/donate-food/,England,Food Bank,1
Cheltenham,https://cheltenham.foodbank.org.uk,"Elim Christian Centre
115-117 St George's Road
Cheltenham
GL50 3EG",Cheltenham,GL50 3EG,foodbank@cheltenhamelim.org,1242570080,51.9010612,-2.0858436,https://cheltenham.foodbank.org.uk/give-help/donate-food/,England,Food Bank,1
Trafford South,https://traffordsouth.foodbank.org.uk,"St Albans Church
Lindsell Road
Altrincham
Cheshire
WA14 5NX",Trafford,WA14 5NX,manager@traffordsouth.foodbank.org.uk,7749378447,53.4024644,-2.3519647,https://traffordsouth.foodbank.org.uk/give-help/donate-food/,England,Food Bank,1
Bangor Cathedral,https://www.bangorfoodbank.org,"Bangor Cathedral Diocesan Centre
Cathedral Close
Bangor
LL57 1RL",Gwynedd,LL57 1RL,rheolwr@cathedralfoodbank.org,1248354999,53.2265157,-4.1274275,https://www.bangorfoodbank.org/donations,Wales,Food Bank,1
Abergele District,https://abergeledistrict.foodbank.org.uk/,"Hesketh House
Bridge Street
Abergele
Conwy
LL22 7HA",Conwy,LL22 7HA,info@abergeledistrict.foodbank.org.uk,1745826570,53.2843728,-3.5795863,https://abergeledistrict.foodbank.org.uk/give-help/donate-food/,Wales,Food Bank,1
Southbourne,https://faithworkswessex.org.uk/projects/foodbank/southbourne/,"Immanuel Church
120 Southbourne Road
Bournemouth
BH6 3QJ","Bournemouth, Christchurch and Poole",BH6 3QJ,office.immanuelsouthbourne@gmail.com,7517507221,50.7251956,-1.8084213,https://faithworkswessex.org.uk/projects/foodbank/southbourne/,England,Food Bank,1
Handsworth,https://handsworth.foodbank.org.uk,"Life Centre
1 Richmond Road
Handsworth
Sheffield
South Yorkshire
S13 8TB",Sheffield,S13 8TB,foodbank@sheffieldchristianlifecentre.co.uk,7599878715,53.3709182,-1.3873052,https://handsworth.foodbank.org.uk/give-help/donate-food/,England,Food Bank,1
Dagenham,https://dagenham.foodbank.org.uk,"RCCG House Of Faith Connections
The BEACON
104 New Road
Dagenham
Essex
RM9 6PE",Barking and Dagenham,RM9 6PE,info@dagenham.foodbank.org.uk,2085950122,51.5289753,0.1547422,https://dagenham.foodbank.org.uk/give-help/donate-food/,England,Food Bank,1
Buckfastleigh,https://buckfastleigh.foodbank.org.uk,"St Luke's Church
Plymouth Road
Buckfastleigh
TQ11 0DA",Teignbridge,TQ11 0DA,info@buckfastleighfoodbank.org.uk,1364644875,50.4805158,-3.778598,https://buckfastleigh.foodbank.org.uk/give-help/donate-food/,England,Food Bank,1
Calne,https://www.calnemethodist.org.uk/html/food_bank.html,"Calne Methodist Church
7 South Pl
Calne
SN11 0JA",Wiltshire,SN11 0JA,foodbank@calnemethodist.org.uk,1249821451,51.434744,-2.0033409,https://www.calnemethodist.org.uk/html/food_bank.html,England,Food Bank,1
Enfield,http://www.hasifoundation.org/projects_foodbank.php,"40 Kipling Terrace
Great Cambridge Road
London
N9 9UJ",Enfield,N9 9UJ,info@hasifoundation.org,2039832556,51.6262772,-0.0807827,http://www.hasifoundation.org/projects_foodbank.php,England,Food Bank,1
South Sefton,https://southsefton.foodbank.org.uk,"St Leonard's Youth and Community Centre
60 Peel Road
Bootle
Merseyside
L20 4RW",Sefton,L20 4RW,info@southsefton.foodbank.org.uk,1519331300,53.4574505,-3.0051719,https://southsefton.foodbank.org.uk/give-help/donate-food/,England,Food Bank,1
Magherafelt,https://magherafelt.foodbank.org.uk/,"Magherafelt Foodbank Office
19a Rainey Street
Magherafelt
Londonderry
BT45 5DA",Mid Ulster,BT45 5DA,info@magherafelt.foodbank.org.uk,7393451504,54.7555692,-6.6083896,https://magherafelt.foodbank.org.uk/give-help/donate-food/,Northern Ireland,Food Bank,1
East Lothian,https://eastlothian.foodbank.org.uk,"3 Civic Square
Tranent
EH33 1LH",East Lothian,EH33 1LH,info@eastlothian.foodbank.org.uk,7516510617,55.9442926,-2.9539721,https://eastlothian.foodbank.org.uk/give-help/donate-food/,Scotland,Food Bank,1
Foyle,https://foyle.foodbank.org.uk/,"Unit 15 
Apex Living Centre 
Springtown Industrial Est
Derry City
Londonderry
BT48 0LY",Derry City and Strabane,BT48 0LY,info@foyle.foodbank.org.uk,2871263699,55.0165266,-7.3306109,https://foyle.foodbank.org.uk/give-help/donate-food/,Northern Ireland,Food Bank,1
Peterborough,https://peterborough.foodbank.org.uk,"Dodson House
Dodson Way
Fengate
PE1 5XG",Peterborough,PE1 5XG,info@peterborough.foodbank.org.uk,1733575083,52.5748661,-0.2080677,https://peterborough.foodbank.org.uk/give-help/donate-food/,England,Food Bank,1
Warwick District,https://warwickdistrict.foodbank.org.uk,"St Mary's Church
St Mary's Road
Leamington Spa
CV31 1JW",Warwick,CV31 1JW,info@warwickdistrict.foodbank.org.uk,7850293383,52.2835983,-1.5218858,https://warwickdistrict.foodbank.org.uk/give-help/donate-food/,England,Food Bank,1
Kirkcaldy,http://www.kirkcaldyfoodbank.org.uk,"Viewforth Church Hall
Viewforth Terrace
Kirkcaldy
KY1 3BW",Fife,KY1 3BW,kirkcaldyfoodbank@gmail.com,0,56.1291407,-3.1358292,http://www.kirkcaldyfoodbank.org.uk/Index.asp?MainID=21288,Scotland,Food Bank,1
Knowsley,https://knowsley.foodbank.org.uk/,"Link Road Depot
Link Road
Huyton
L36 6AP",Knowsley,L36 6AP,info@knowsley.foodbank.org.uk,7731789794,53.4061358,-2.8179209,https://knowsley.foodbank.org.uk/give-help/donate-food/,England,Food Bank,1
Caring Hands,http://www.chands.org.uk,"Vale Of Evesham Christian Centre
Bewdley Street
Evesham
WR11 4AD",Wychavon,WR11 4AD,info@chands.org.uk,7721559387,52.0928338,-1.9501009,http://www.chands.org.uk/how_to_help.htm,England,Food Bank,1
Weston Favell Centre,https://westonfavellcentre.foodbank.org.uk,"Emmanuel Church
Weston Favell Centre
Northampton
NN3 8JR",Northampton,NN3 8JR,info@westonfavellcentre.foodbank.org.uk,1604402150,52.2569827,-0.8344739,https://westonfavellcentre.foodbank.org.uk/give-help/donate-food/,England,Food Bank,1
Ringwood,https://ringwood.foodbank.org.uk,"Unit 10a
Forest Corner Farm
Hangersley
Ringwood
Hampshire
BH24 3JW",New Forest,BH24 3JW,info@ringwood.foodbank.org.uk,1425600134,50.8541446,-1.7518477,https://ringwood.foodbank.org.uk/give-help/donate-food/,England,Food Bank,1
Hastings,https://hastings.foodbank.org.uk,"King's Church Hastings 
The Hastings Centre 
The Ridge 
Hastings
TN34 2SA",Hastings,TN34 2SA,info@hastings.foodbank.org.uk,7526066453,50.8869344,0.5700093,https://hastings.foodbank.org.uk/give-help/donate-food/,England,Food Bank,1
Otley,https://otleyparishchurch.org/otleyfoodbank/,"Otley Parish Church
Kirkgate
Otley
West Yorkshire
LS21 3HW",Leeds,LS21 3HW,fbotley@outlook.com,7464974993,53.9040241,-1.6946713,https://otleyparishchurch.org/otleyfoodbank/,England,Food Bank,1
Midlothian,https://midlothian.foodbank.org.uk,"96 Hunterfield Road
Gorebridge
Midlothian
EH23 4TT",Midlothian,EH23 4TT,janiceburns@midlothian.foodbank.org.uk,7789173276,55.8461339,-3.0511454,https://midlothian.foodbank.org.uk/give-help/donate-food/,Scotland,Food Bank,1
Farnworth & Kearsley,https://farnworthkearsley.foodbank.org.uk/,"The Well
Trafford Street
Farnworth
BL4 7PQ",Bolton,BL4 7PQ,info@farnworthkearsley.foodbank.org.uk,1204861671,53.551295,-2.3963402,https://farnworthkearsley.foodbank.org.uk/give-help/donate-food/,England,Food Bank,1
Oxford,https://oxfordfoodbank.org/,"Unit 12
Curtis Industrial Estate
North Hinksey Lane
Botley
Oxford
OX2 0LX",Vale of White Horse,OX2 0LX,info@oxfordfoodbank.org,1865379272,51.7517239,-1.2947035,https://oxfordfoodbank.org/,England,Food Bank,1
Wimbledon,https://wimbledon.foodbank.org.uk,"Elim Pentecostal Church Wimbledon
76 Kingston Road
Wimbledon
SW19 1LA",Merton,SW19 1LA,wimbledonfoodbank@gmail.com,2085440126,51.4151704,-0.196254,https://wimbledon.foodbank.org.uk/give-help/donate-food/,England,Food Bank,1
Parson Cross,https://pxiprojects.wordpress.com/,"Mount Tabor Methodist Church
Wordsworth Avenue
Sheffield
S5 8NJ",Sheffield,S5 8NJ,pxi.enquries@gmail.com,1142815799,53.4240387,-1.4859281,https://pxiprojects.wordpress.com/,England,Food Bank,1
Leicester South,https://leicestersouth.foodbank.org.uk,"The Kings Centre
56 Bull Head Street
Wigston
Leicester
LE18 1PA",Oadby and Wigston,LE18 1PA,info@leicestersouth.foodbank.org.uk,7912194783,52.5841565,-1.1030804,https://leicestersouth.foodbank.org.uk/give-help/donate-food/,England,Food Bank,1
Tameside East,https://tamesideeast.foodbank.org.uk,"Holy Trinity & Christ Church
Corporation Street
Stalybridge
Cheshire
SK15 2JS",Tameside,SK15 2JS,info@tamesideeast.foodbank.org.uk,1613049308,53.4826325,-2.0556545,https://tamesideeast.foodbank.org.uk/give-help/donate-food/,England,Food Bank,1
Wigtownshire,https://wigtownshire.foodbank.org.uk,"Apex Stranraer
2 Back Rampart
High Street
Stranraer
DG9 7LW",Dumfries and Galloway,DG9 7LW,info@wigtownshire.foodbank.org.uk,1776700973,54.9047685,-5.0324585,https://wigtownshire.foodbank.org.uk/give-help/donate-food/,Scotland,Food Bank,1
Victoria Park,https://www.victoriapark.org.uk/activities/#vpbc-foodbank,"Victoria Park Baptist Church
Charles Padfield Centre
Sylvia Ave
BS3 5DA","Bristol, City of",BS3 5DA,vpbc.foodbank@gmail.com,1179772484,51.4374659,-2.5835278,https://www.victoriapark.org.uk/activities/#vpbc-foodbank,England,Food Bank,1
Skye,https://www.skyefoodbank.co.uk/,"Portree Parish Church Hall
Portree
Isle of Skye
IV51 9EH",Highland,IV51 9EH,info@skyefoodbank.co.uk,1478612032,57.4132285,-6.1939396,https://www.skyefoodbank.co.uk/,Scotland,Food Bank,1
Eastbourne,https://eastbourne.foodbank.org.uk,"Unit 3
55 Brampton Road
Eastbourne
BN22 9AF",Eastbourne,BN22 9AF,admin@eastbourne.foodbank.org.uk,1323409925,50.7924759,0.2828774,https://eastbourne.foodbank.org.uk/give-help/donate-food/,England,Food Bank,1
Newark,https://newark.foodbank.org.uk,"Barnbygate Methodist Church
15a Barnbygate
Newark
NG24 1PX",Newark and Sherwood,NG24 1PX,info@newark.foodbank.org.uk,7307695310,53.0757008,-0.8065316,https://newark.foodbank.org.uk/give-help/donate-food/,England,Food Bank,1
Maidenhead,https://www.foodshare.today,"The New Market
King Street
Maidenhead
SL6 1DR",Windsor and Maidenhead,SL6 1DR,info@foodshare.today,1628660665,51.5217966,-0.7236765,https://www.foodshare.today/food-donations,England,Food Bank,1
Agape Care,http://www.lighthousechurch.org.uk/agape-care/,"The Lighthouse
10 Haverfield Road
Spalding
PE11 2XP",South Holland,PE11 2XP,info@lighthousechurch.org.uk,7858692289,52.7842178,-0.152991,http://www.lighthousechurch.org.uk/agape-care/,England,Food Bank,1
Launceston,https://launceston.foodbank.org.uk,"Unit 13D Newport Industrial Estate
Launceston
Cornwall
PL15 8EX",Cornwall,PL15 8EX,info@launceston.foodbank.org.uk,1566779550,50.640124,-4.3600652,https://launceston.foodbank.org.uk/give-help/donate-food/,England,Food Bank,1
Scunthorpe,https://scunthorpe.foodbank.org.uk,"Scunthorpe Baptist Church
Ashby Road
Scunthorpe
North Lincolnshire
DN16 1NR",North Lincolnshire,DN16 1NR,info@scunthorpe.foodbank.org.uk,1724848388,53.5804042,-0.653708,https://scunthorpe.foodbank.org.uk/give-help/donate-food/,England,Food Bank,1
Bicester,https://bicester.foodbank.org.uk,"29a Market Square
Bicester
OX26 6AG",Cherwell,OX26 6AG,info@bicester.foodbank.org.uk,1869357181,51.896615,-1.1515742,https://bicester.foodbank.org.uk/give-help/donate-food/,England,Food Bank,1
Haywards Heath,https://haywardsheath.foodbank.org.uk,"9 Sussex Road
Haywards Heath
West Sussex
RH16 4DZ",Mid Sussex,RH16 4DZ,info@haywardsheath.foodbank.org.uk,7884106719,50.9947529,-0.1002785,https://haywardsheath.foodbank.org.uk/give-help/donate-food/,England,Food Bank,1
Micah Liverpool,https://micahliverpool.com,"Liverpool Cathedral
St James Mount
Liverpool
L1 7AZ",Liverpool,L1 7AZ,paul.obrien@liverpoolcathedral.org.uk,1517027206,53.3974571,-2.9733015,https://micahliverpool.com,England,Food Bank,1
Banbury,https://banbury.foodbank.org.uk,"The People's Church
The Church Centre
Horsefair
Banbury
OX16 0AH",Cherwell,OX16 0AH,info@banbury.foodbank.org.uk,1295661304,52.061403,-1.34124,https://banbury.foodbank.org.uk/give-help/donate-food/,England,Food Bank,1
Caterham,https://caterham.foodbank.org.uk,"4 Beechwood Road
Caterham
Surrey
CR3 6NA",Tandridge,CR3 6NA,info@caterham.foodbank.org.uk,7523983122,51.2879719,-0.0769401,https://caterham.foodbank.org.uk/give-help/donate-food/,England,Food Bank,1
Chalk Farm,https://chalkfarm.foodbank.org.uk,"Revelation Church
c/o Chalk Farm Baptist Church
Berkley Road
Eglon Mews
London
NW1 8YS",Camden,NW1 8YS,info@chalkfarm.foodbank.org.uk,2074833763,51.541503,-0.155788,https://chalkfarm.foodbank.org.uk/give-help/donate-food/,England,Food Bank,1
Lifeshare (Manchester),https://www.lifeshare.org.uk/,"1st Floor
27 Houldsworth Street
Manchester
M1 1EB",Manchester,M1 1EB,office@lifeshare.co.uk,1612350744,53.4841946,-2.2330734,https://www.lifeshare.org.uk/food-or-clothing-donation/,England,Food Bank,1
Bognor Regis,https://bognorregis.foodbank.org.uk,"Argyle Hall
Argyle Road
Bognor Regis
PO21 1DY",Arun,PO21 1DY,BognorFB@hotmail.co.uk,1243866952,50.7834286,-0.6785803,https://bognorregis.foodbank.org.uk/give-help/donate-food/,England,Food Bank,1
Epsom and Ewell,https://epsomewell.foodbank.org.uk,"Generation Resource Centre
Ruxley Lane
Ewell
Surrey
KT19 0JG",Epsom and Ewell,KT19 0JG,foodbank@generation.org.uk,2087868221,51.3623486,-0.2675649,https://epsomewell.foodbank.org.uk/give-help/donate-food/,England,Food Bank,1
Andover,https://andover.foodbank.org.uk,"St John the Baptist RC Church 
Alexandra Road
Andover
Hampshire
SP10 3AD",Test Valley,SP10 3AD,office@andoverfoodbank.org.uk,1264362111,51.2085947,-1.4882991,https://andover.foodbank.org.uk/give-help/donate-food/,England,Food Bank,1
Integrate Scotland Storehouse,https://www.integratescotland.org/storehouse,"49 Gilcomston Park
Aberdeen
AB25 1PN",Aberdeen City,AB25 1PN,info@integratescotland.org,1224608018,57.1488727,-2.1089143,https://www.integratescotland.org/storehouse-get-involved,Scotland,Food Bank,1
Carlisle,https://www.carlislefoodbank.org.uk,"The Courts 
Nisi Prius Building
English Street 
Carlisle
CA3 8LZ",Carlisle,CA3 8LZ,hello@carlislefoodbank.org.uk,7512552449,54.8921718,-2.9332879,https://www.carlislefoodbank.org.uk/donate-food/shopping-list/,England,Food Bank,1
Monmouth and District,https://monmouthdistrict.foodbank.org.uk,"Monmouth Baptist Church
3 Monk Street
Monmouth
NP25 3LR",Monmouthshire,NP25 3LR,info@monmouthdistrict.foodbank.org.uk,7960579062,51.8136539,-2.7124857,https://monmouthdistrict.foodbank.org.uk/give-help/donate-food/,Wales,Food Bank,1
Ballymoney,https://ballymoney.foodbank.org.uk,"Unit 10
41 Ballymena Road
Ballymoney
BT53 7EX",Causeway Coast and Glens,BT53 7EX,info@ballymoney.foodbank.org.uk,7565840571,55.067521,-6.493828,https://ballymoney.foodbank.org.uk/give-help/donate-food/,Northern Ireland,Food Bank,1
Dundee,https://dundee.foodbank.org.uk,"Unit 5
Dunsinane Avenue
Dundee
DD2 3QN",Dundee City,DD2 3QN,info@dundee.foodbank.org.uk,1382698020,56.480265,-3.0176229,https://dundee.foodbank.org.uk/give-help/donate-food/,Scotland,Food Bank,1
Ashby,https://ashby.foodbank.org.uk/,"Ashby Congregational Church
Kilwardby Street
Ashby de la Zouch
LE65 2FQ",North West Leicestershire,LE65 2FQ,info@ashbyfoodbank.org.uk,7542118878,52.746405,-1.475472,https://ashby.foodbank.org.uk/give-help/donate-food/,England,Food Bank,1
The Olive Branch,https://www.the-olivebranch.org.uk,"1 Westbourne Road
Lancaster
Lancashire
LA1 5DB",Lancaster,LA1 5DB,info@the-olivebranch.org.uk,1524555715,54.0478422,-2.8087231,https://www.the-olivebranch.org.uk/shopping-list/,England,Food Bank,1
Collier Row & Romford,https://collierrowromford.foodbank.org.uk,"The Wykeham Centre and Church House
Market Place
Romford
RM1 3AB",Havering,RM1 3AB,info@collierrowromford.foodbank.org.uk,7548674958,51.5793824,0.1809206,https://collierrowromford.foodbank.org.uk/give-help/donate-food/,England,Food Bank,1
Knottingley,https://knottingley.foodbank.org.uk,"Knottingley Community Church
Tythe Barn Road
Knottingley
West Yorkshire
WF11 9BU",Wakefield,WF11 9BU,info@knottingley.foodbank.org.uk,1977278616,53.7096247,-1.2383223,https://knottingley.foodbank.org.uk/give-help/donate-food/,England,Food Bank,1
Bedworth,https://bedworth.foodbank.org.uk,"Bedworth Baptist Church
28 Coventry Road
Bedworth
CV12 8NN",Nuneaton and Bedworth,CV12 8NN,info@bedworth.foodbank.org.uk,7809203178,52.4770848,-1.4724305,https://bedworth.foodbank.org.uk/give-help/donate-food/,England,Food Bank,1
Harrogate District,https://harrogatedistrict.foodbank.org.uk/,"Life Destiny Church
93b High Street
Starbeck
HG2 7LH",Harrogate,HG2 7LH,info@harrogatedistrict.foodbank.org.uk,7885529864,54.0009678,-1.4978606,https://harrogatedistrict.foodbank.org.uk/give-help/donate-food/,England,Food Bank,1
Tamworth,https://tamworth.foodbank.org.uk,"Manna House
258-264 Glascote Road
Glascote
Tamworth
Staffordshire
B77 2AY",Tamworth,B77 2AY,info@tamworth.foodbank.org.uk,1827302434,52.6283935,-1.6762674,https://tamworth.foodbank.org.uk/give-help/donate-food/,England,Food Bank,1
Sadaka,http://www.mysadaka.co.uk/,"46 Eastern Avenue
Reading
RG1 5RY",Reading,RG1 5RY,info@sadakagives.org.uk,1183246565,51.4504006,-0.9468592,http://www.mysadaka.co.uk/,England,Food Bank,1
Welshpool and District,https://welshpooldistrict.foodbank.org.uk,"Kingswood Church
Church Road
Welshpool
Powys
SY21 7LN",Powys,SY21 7LN,info@welshpooldistrict.foodbank.org.uk,1938536379,52.6600407,-3.152567,https://welshpooldistrict.foodbank.org.uk/give-help/donate-food/,England,Food Bank,1
Sustain,https://www.tonbridgebaptist.church/get-involved/tn10/sustain/?from=HomeSustain,"Tonbridge Baptist Church
Darenth Avenue
Tonbridge
Kent
TN10 3HZ",Tonbridge and Malling,TN10 3HZ,jemma.graffin@tonbridgebaptist.church,1732352824,51.2104819,0.2754415,https://www.tonbridgebaptist.church/get-involved/tn10/sustain/?from=HomeSustain,England,Food Bank,1
Durham,https://durham.foodbank.org.uk/,"Evangel Church
Durham Road
Chester le Street
DH3 3JL",County Durham,DH3 3JL,web1@durhamfoodbank.org.uk,1913037559,54.8493085,-1.5734455,https://durham.foodbank.org.uk/give-help/donate-food/,England,Food Bank,1
DN7,https://www.facebook.com/DN7FoodBank/,"18 Princess Ave
Stainforth
Doncaster
DN7 5RG",Doncaster,DN7 5RG,DN7CommunityFoodBank@gmail.com,7561699586,53.5983739,-1.030996,https://www.facebook.com/DN7FoodBank/,England,Food Bank,1
Wythenshawe,https://wythenshawe.foodbank.org.uk,"Unit-E
10-11 Etrop Way
Wythenshawe
Manchester
M22 5RE",Manchester,M22 5RE,info@wythenshawe.foodbank.org.uk,7858498549,53.3710247,-2.275051,https://wythenshawe.foodbank.org.uk/give-help/donate-food/,England,Food Bank,1
Pershore,https://pershore.foodbank.org.uk/,"St Andrews
Church Walk
Pershore
WR10 1BH",Wychavon,WR10 1BH,info@pershore.foodbank.org.uk,1386555347,52.110672,-2.0768767,https://pershore.foodbank.org.uk/give-help/donate-food/,England,Food Bank,1
Tavistock,https://tavistock.foodbank.org.uk,"Tavistock United Reformed Church
Russell Street
Tavistock
PL19 8BD",West Devon,PL19 8BD,info@tavistock.foodbank.org.uk,7941436149,50.5491095,-4.1469382,https://tavistock.foodbank.org.uk/give-help/donate-food/,England,Food Bank,1
The Forest,https://theforest.foodbank.org.uk,"Coleford Baptist Church
Newland Street
Coleford
Gloucestershire
GL16 8AN",Forest of Dean,GL16 8AN,info@theforest.foodbank.org.uk,7775265263,51.7928278,-2.6198052,https://theforest.foodbank.org.uk/give-help/donate-food/,England,Food Bank,1
Camden Mobile,https://www.urbancommunityprojects.org.uk/camden-mobile-food-bank,"The Saint Pancras and Somers Town Living Centre
2 Ossulston St
Somers Town
London
NW1 1DF",Camden,NW1 1DF,info@urbancommunityprojects.org.uk,2070183730,51.5310901,-0.129785,https://www.urbancommunityprojects.org.uk/camden-mobile-food-bank,England,Food Bank,1
Rutherglen & Cambuslang,https://rutherglencambuslang.foodbank.org.uk/,"2 Kirkwood Street
Rutherglen
G73 2SL",South Lanarkshire,G73 2SL,info@rutherglencambuslang.foodbank.org.uk,7393737030,55.827713,-4.214017,https://rutherglencambuslang.foodbank.org.uk/give-help/donate-food/,Scotland,Food Bank,1
Cwmtawe Action To Combat Hardship,http://www.catch-online.org.uk,"Gurnos Chapel
Gurnos Road
Ystalyfera
SA9 2JA",Neath Port Talbot,SA9 2JA,info@catch-online.org.uk,7923986379,51.7672568,-3.7810155,http://www.catch-online.org.uk/food-pack-parcel-donations/,Wales,Food Bank,1
Colchester,https://colchester.foodbank.org.uk,"33 Moorside Business Park
Moorside
Colchester
CO1 2ZF",Colchester,CO1 2ZF,info@colchester.foodbank.org.uk,1206621998,51.8882642,0.9178662,https://colchester.foodbank.org.uk/give-help/donate-food/,England,Food Bank,1
Chelwood Foodbank Plus,http://www.chelwoodfoodbankplus.org/,"Chelwood Baptist Church
Adswood Road
Cheadle Hulme
SK8 5QA",Stockport,SK8 5QA,info@chelwoodfoodbankplus.org,1614860043,53.3870093,-2.1768485,http://www.chelwoodfoodbankplus.org/,England,Food Bank,1
Mid Norfolk,https://midnorfolk.foodbank.org.uk,"Wellspring Family Church
35 Neatherd Road
Dereham
NR19 2AE",Breckland,NR19 2AE,info@midnorfolk.foodbank.org.uk,1362850624,52.6821972,0.9474458,https://midnorfolk.foodbank.org.uk/give-help/donate-food/,England,Food Bank,1
Ormskirk,https://ormskirk.foodbank.org.uk,"New Church House
Church Street
Ormskirk
Lancashire
L39 3RD",West Lancashire,L39 3RD,info@ormskirk.foodbank.org.uk,7748951274,53.5692513,-2.8877814,https://ormskirk.foodbank.org.uk/give-help/donate-food/,England,Food Bank,1
Poole,https://faithworkswessex.org.uk/projects/foodbank/poole/,"Longfleet United Reformed Church
Longfleet Road
Poole
BH15 2HP","Bournemouth, Christchurch and Poole",BH15 2HP,poolefood@faithworkswessex.org.uk,1202669566,50.7216722,-1.9748221,https://faithworkswessex.org.uk/projects/foodbank/poole/,England,Food Bank,1
Arnold,https://arnold.foodbank.org.uk,"Daybrook Baptist Church
Mansfield Road
Nottingham
NG5 6AA",Gedling,NG5 6AA,info@arnold.foodbank.org.uk,7854690694,52.9958067,-1.1376737,https://arnold.foodbank.org.uk/give-help/donate-food/,England,Food Bank,1
Causeway,https://causeway.foodbank.org.uk/,"Vineyard Compassion
Hope Centre
10 Hillmans Way
Ballycastle Road
Coleraine
Londonderry
BT52 2ED",Causeway Coast and Glens,BT52 2ED,info@causeway.foodbank.org.uk,2870220005,55.1305584,-6.656818,https://causeway.foodbank.org.uk/give-help/donate-food/,Northern Ireland,Food Bank,1
Chesterfield,https://chesterfield.foodbank.org.uk,"Unit 3
Carrwood Road Industrial Estate
Carrwood Road
Chesterfield
S41 9QB",Chesterfield,S41 9QB,info@chesterfield.foodbank.org.uk,7984589456,53.2756412,-1.4602253,https://chesterfield.foodbank.org.uk/give-help/donate-food/,England,Food Bank,1
Harrow,https://harrow.foodbank.org.uk,"Unit F2
Phoenix Business Centre
Harrow
London
HA1 2SP",Harrow,HA1 2SP,info@harrow.foodbank.org.uk,2084167344,51.588673,-0.3287718,https://harrow.foodbank.org.uk/give-help/donate-food/,England,Food Bank,1
Provide Devon,https://providedevon.org.uk,"Unit 12
Walkham Business Park
Burrington Industrial Estate
Plymouth
PL5 3LS",Plymouth,PL5 3LS,info@providedevon.org.uk,7928670704,50.4042683,-4.1597535,https://providedevon.org.uk,England,Food Bank,1
Newhaven,http://sussexcommunity.org.uk/advice-services/newhaven-food-bank/,"31a High Street,
Newhaven, East Sussex
BN9 9PD",Lewes,BN9 9PD,enquiries.info@sussexcommunity.org.uk,1273516032,50.7938341,0.0484788,http://sussexcommunity.org.uk/advice-services/newhaven-food-bank/,England,Food Bank,1
Chichester District,https://chichesterdistrict.foodbank.org.uk,"The Family Centre
21 Orchard Street
Chichester
PO19 1DD",Chichester,PO19 1DD,info@chichesterdistrict.foodbank.org.uk,1243773687,50.838553,-0.7843756,https://chichesterdistrict.foodbank.org.uk/give-help/donate-food/,England,Food Bank,1
The Pantry,https://www.stjohnsnewcastle.org/the-pantry-foodbank,"St John's Parish Church & Parish Hall
The Rock
161 Central Promenade
Newcastle
Co Down
BT33 OEU",,BT33 OEU,thepantryfoodbank@gmail.com,7517766006,54.2022401,-5.8921353,https://www.stjohnsnewcastle.org/the-pantry-foodbank,Northern Ireland,Food Bank,1
North Guildford,http://northguildfordfoodbank.co.uk,"St Clare's Church
Cabell Road
Park Barn
Guildford
GU2 8JW",Guildford,GU2 8JW,northguildfordfoodbank@gmail.com,7583025435,51.243713,-0.6116369,http://northguildfordfoodbank.co.uk/food-donations/,England,Food Bank,1
Codicote,https://www.facebook.com/codicotefoodbank/,"119 High Street
Codicote
Hertfordshire
SG4 8UB",North Hertfordshire,SG4 8UB,codicoteffodbank@gmail.com,7507295627,51.8485436,-0.2337751,https://www.facebook.com/codicotefoodbank/,England,Food Bank,1
CMFFA,http://www.cmffa.org.uk/,"F15 Gloucester House
399 Silbury Boulevard
Milton Keynes
MK9 2AH",Milton Keynes,MK9 2AH,admin@cmffa.org.uk,1908303784,52.0414953,-0.7649082,http://www.cmffa.org.uk/,England,Food Bank,1
Kinross,https://brokenotbroken.org/,"St Paul's Church
Muirs
Kinross
KY13 8AY",Perth and Kinross,KY13 8AY,admin@brokenotbroken.org,7518913107,56.21152,-3.425184,https://brokenotbroken.org/,Scotland,Food Bank,1
Warminster and District,http://warminsteranddistrictfoodbank.co.uk/,"Foodbank Centre
Dewey House
North Row
Warminster
BA12 9AD",Wiltshire,BA12 9AD,warminsterfb@gmail.com,1985214463,51.2054729,-2.1812625,http://warminsteranddistrictfoodbank.co.uk/can_you_help/,England,Food Bank,1
West Northumberland Foodbank,https://www.westnorthumberlandfoodbank.org.uk/,"â€‹Unit 2 Adapt Enterprise Hub
Burn Lane
â€‹Hexham
NE46 3HN",Northumberland,NE46 3HN,getintouch@westnorthumberlandfoodbank.org.uk,7958000719,54.9759352,-2.1056863,https://www.westnorthumberlandfoodbank.org.uk/donate.html,England,Food Bank,1
Salvation Army,https://www.salvationarmy.org.uk,"101 Newington Causeway
London
SE1 6BN",Southwark,SE1 6BN,info@salvationarmy.org.uk,2073674500,51.4965956,-0.099385,https://www.salvationarmy.org.uk,England,Food Bank,1
Lampeter Food Bank,https://www.facebook.com/lampeterfoodbank/,"Lampeter
SA48 7EA",Ceredigion,SA48 7EA,lampeterfoodbank@gmail.com,7582905743,52.116547,-4.0731203,https://www.facebook.com/lampeterfoodbank/,Wales,Food Bank,1
Okehampton,https://okefoodbank.org,"Okehampton Baptist Church
Fore Street
Okehampton
Devon
EX20 1AN",West Devon,EX20 1AN,okefoodbank@gmail.com,7791449796,50.7395908,-4.0016608,https://okefoodbank.org/donations/,England,Food Bank,1
Churches,http://www.churchesfoodbank.org.uk/,"St Paulâ€™s Stratford
65 Maryland Rd
London
E15 1JL",Newham,E15 1JL,rev.ivo.anderson@gmail.com,2089234432,51.5474783,0.0009013,http://www.churchesfoodbank.org.uk/,England,Religious Institution,1
Worthing Food Foundation,https://lesaldenfoundation.org.uk/,"East Worthing Baptist Church
43, Pendine Avenue
Worthing
BN11 2NA",Worthing,BN11 2NA,contact@lesaldenfoundation.org.uk,1903442149,50.8156214,-0.3524665,https://lesaldenfoundation.org.uk/,England,Food Bank,1
The Gate,http://www.the-gate-charity.org/what-we-do/foodbank/,"2 Ludgate
Alloa
FK10 2DR",Clackmannanshire,FK10 2DR,marie@the-gate-charity.org,1259218766,56.1183694,-3.7971949,http://www.the-gate-charity.org/donations-urgently-required/,Scotland,Food Bank,1
Pontarddulais,https://www.facebook.com/pontarddulaisfoodbank/,"28 Dulais Road
Pontarddulais
SA4 8RY",Swansea,SA4 8RY,canolfanybont@gmail.com,1792885532,51.7147865,-4.037876,https://www.facebook.com/pontarddulaisfoodbank/,Wales,Food Bank,1
Dartmoor Community Kitchen Hub,https://communitykitchenhub.org.uk/,"45 Fore Street
Bovey Tracey
TQ13 9BP",,TQ13 9BP,communitykitchenhub@gmail.com,1626836899,50.5938432,-3.6745061,https://communitykitchenhub.org.uk/,England,Community Centre,1
Southwark,https://southwark.foodbank.org.uk,"Pecan
121A Peckham High Street
Peckham
London
SE15 5SE",Southwark,SE15 5SE,foodbank.support@pecan.org.uk,2077320007,51.4740883,-0.0679916,https://southwark.foodbank.org.uk/give-help/donate-food/,England,Food Bank,1
Ryedale,https://ryedale.foodbank.org.uk,"Elim Ryedale Church Centre
62-64 Castlegate
Malton
North Yorkshire
YO17 7DZ",Ryedale,YO17 7DZ,info@ryedale.foodbank.org.uk,7470564745,54.133823,-0.793815,https://ryedale.foodbank.org.uk/give-help/donate-food/,England,Food Bank,1
Worcester,https://worcester.foodbank.org.uk,"7 Lowesmoor Wharf
Lowesmoor
Worcester
WR1 2RS",Worcester,WR1 2RS,info@worcester.foodbank.org.uk,1905780400,52.1953383,-2.2171118,https://worcester.foodbank.org.uk/give-help/donate-food/,England,Food Bank,1
Watford,http://www.watfordfoodbank.co.uk/,"Unit 5
The Empire Centre
Imperial Way
Watford
WD24 4YH",Watford,WD24 4YH,info@watford.foodbank.org.uk,7925813027,51.66869,-0.3936141,http://www.watfordfoodbank.co.uk/donate-food/,England,Food Bank,1
Fareham & Gosport Basics Bank,https://friendsofthehomeless.org.uk,"Aspect House
Westbury Road
Fareham
Hants
PO16 7XU",Fareham,PO16 7XU,enquiries@friendsofthehomeless.org.uk,1329822204,50.8531253,-1.1798135,https://friendsofthehomeless.org.uk/current-needs,England,Food Bank,1
Granville Community Kitchen,https://granvillecommunitykitchen.wordpress.com/,"The Granville
140 Carlton Vale
NW6 5HE",Brent,NW6 5HE,granvillecommunitykitchen@gmail.com,7543824439,51.5327778,-0.1975,https://granvillecommunitykitchen.wordpress.com/,England,Community Centre,1
Wantage and Grove,https://www.wantageandgrovefoodbank.org.uk/,"Wantage Community Church
Primary School Stockham
Stockham Park
Wantage
OX12 9HL",Vale of White Horse,OX12 9HL,wantageandgrovefoodbank@gmail.com,7543852939,51.593121,-1.435754,https://www.wantageandgrovefoodbank.org.uk/,England,Food Bank,1
Coatbridge,http://www.coatbridgefoodbank.com,"25 Coatbank St
Coatbridge
ML5 3SP",North Lanarkshire,ML5 3SP,CoatbridgeCommunity@outlook.com,1236427959,55.8579877,-4.019826,http://www.coatbridgefoodbank.com/aboutus.html,Scotland,Food Bank,1
Eat Or Heat,http://eatorheat.org/,"1A Jewel Road
Walthamstow
London
E17 4QU",Waltham Forest,E17 4QU,info@eatorheat.org,8007720212,51.5882053,-0.0211144,http://eatorheat.org/,England,Food Bank,1
Islington,https://islington.foodbank.org.uk,"Highbury Roundhouse,
71 Ronalds Road
London
N5 1XB",Islington,N5 1XB,info@islington.foodbank.org.uk,7753222755,51.5508393,-0.1040395,https://islington.foodbank.org.uk/give-help/donate-food/,England,Food Bank,1
Ashington Life Centre,http://www.realdealplus.org.uk/,"104-108 Station Road
Ashington
Northumberland
NE63 9FE",Northumberland,NE63 9FE,kath.falcus@realdealplus.org.uk,7403888546,55.1829675,-1.5777082,http://www.realdealplus.org.uk/,England,Food Bank,1
Dartmouth & District,http://www.dartmouthanddistrictfoodbank.org.uk,"Ivy Lane Centre
Ivy Lane
Dartmouth
TQ6 9QQ",South Hams,TQ6 9QQ,dartmouthfoodbank@gmail.com,7925120024,50.3513217,-3.5818393,http://www.dartmouthanddistrictfoodbank.org.uk/Donate-food,England,Food Bank,1
Al-Ikhlas,https://www.alikhlas.org.uk/foodbank.html,"92 Broadway
Cardiff
CF24 1NH",Cardiff,CF24 1NH,info@alikhlas.org,7536761723,51.4881414,-3.1546927,https://www.alikhlas.org.uk/foodbank.html,England,Food Bank,1
Shepway,https://shepway.foodbank.org.uk,"Folkestone Rainbow Centre
69 Sandgate Road
Folkestone
CT20 2AF",Folkestone and Hythe,CT20 2AF,foodbank@rainbow-centre.org,7913573403,51.0782756,1.1783798,https://shepway.foodbank.org.uk/give-help/donate-food/,England,Food Bank,1
Cupboard Love,https://www.bridport-team-ministry.org/food-bank/,"St Mary's Church
84 South St
Bridport
DT6 3NW",Dorset,DT6 3NW,cupboardlove.bridport@gmail.com,7443596096,50.7305026,-2.7583536,https://www.bridport-team-ministry.org/food-bank/,England,Food Bank,1
Lochaber,https://www.lochaberfoodbank.org,"Unit 4
Airds Crossing
High Street
Fort William
PH33 6EU",Highland,PH33 6EU,info@lochaberfoodbank.org,1397700212,56.8157671,-5.1151285,https://www.lochaberfoodbank.org/give-help/donate-food/,Scotland,Food Bank,1
Family Food Bank,https://www.familyfoodbank.org,"Unit 4
St Johns Court
Ashford Business Park
Ashford
Kent
TN24 0SJ",Ashford,TN24 0SJ,familyfoodbank@children-families.org,1233500477,51.1321149,0.9027329,https://www.familyfoodbank.org/make-a-donation.html,England,Food Bank,1
Square Mile,https://barbicanvolunteers.wordpress.com/city-of-london-food-bank/,"Lilac Room
Seddon North Stairs 02
Barbican
London
EC2Y 8DS",City of London,EC2Y 8DS,SquareMileFoodBank@gmail.com,8001698080,51.5202077,-0.0937864,https://barbicanvolunteers.wordpress.com/city-of-london-food-bank/,England,Food Bank,1
Haverhill,https://haverhill.foodbank.org.uk/,"Reach Resource Centre
Gloucester Road/Leiston Road
Haverhill
CB9 8JL",West Suffolk,CB9 8JL,info@reachhaverhill.org.uk,1440712950,52.0788745,0.4282089,https://www.reachhaverhill.org.uk/Articles/562720/_Whats_in.aspx,England,Food Bank,1
Amman Valley,https://www.facebook.com/AmmanValleyFoodbank/,"GCG Community Centre
Gwaen-Cae-Gurwen
SA18 1UN",Neath Port Talbot,SA18 1UN,mikethecamerauk@hotmail.com,7394904324,51.7930954,-3.8828798,https://www.facebook.com/AmmanValleyFoodbank/,Wales,Food Bank,1
Stoke-on-Trent,https://stokeontrent.foodbank.org.uk,"Magdalen Road
Blurton
Stoke-on-Trent
ST3 3HS",Stoke-on-Trent,ST3 3HS,info@stokeontrent.foodbank.org.uk,1782317942,52.9708222,-2.1636788,https://stokeontrent.foodbank.org.uk/give-help/donate-food/,England,Food Bank,1
Moray Food Plus,http://www.morayfoodplus.org.uk/,"203 High Street
Elgin
IV30 1DJ",Moray,IV30 1DJ,admin@morayfoodplus.org.uk,1343208293,57.6484361,-3.3183381,http://www.morayfoodplus.org.uk/,Scotland,Food Bank,1
Guernsey,https://guernseywelfare.com/food-bank,"Guernsey Welfare Service
Holy Trinity Church Centre
Trinity Square
St Peter Port
Guernsey
GY1 1LP",,GY1 1LP,guernseywelfare@cwgsy.net,7839724300,49.4523407,-2.5405902,https://guernseywelfare.com/food-bank,Guernsey,Food Bank,1
Rochdale,https://rochdale.foodbank.org.uk,"8 South Parade
Rochdale
OL16 1LR",Rochdale,OL16 1LR,info@rochdale.foodbank.org.uk,1706713701,53.6166921,-2.1571942,https://rochdale.foodbank.org.uk/give-help/donate-food/,England,Food Bank,1
Salford Food Parcels,https://salfordfoodparcels.org/index.php/174-2/salford-food-parcels/,"Emmanuel Church
174 Langworthy Road
Salford
M6 5PN",Salford,M6 5PN,salfordfoodparcels@gmail.com,7815089568,53.4859633,-2.2944321,https://salfordfoodparcels.org/index.php/174-2/salford-food-parcels/,England,Food Bank,1
East Neuk,https://www.facebook.com/eastneukfoodbank,"Anstruther Parish Church
School Green
Anstruther
Fife
KY10 3HF",Fife,KY10 3HF,eastneukfoodbank@gmail.com,1333310156,56.2235421,-2.699889,https://www.facebook.com/eastneukfoodbank,Scotland,Food Bank,1
Batley,http://www.batleyfoodbank.org.uk,"Town Hall Annexe
Brunswick Street
Batley
WF17 5DT",Kirklees,WF17 5DT,info@batleyfoodbank.org.uk,1924474999,53.7137406,-1.632845,http://www.batleyfoodbank.org.uk,England,Food Bank,1
Blackburn,https://blackburn.foodbank.org.uk,"The Oaks
Oakenhurst Rd
Blackburn
BB2 1SN",Blackburn with Darwen,BB2 1SN,info@blackburn.foodbank.org.uk,1254672756,53.7468733,-2.493413,https://blackburn.foodbank.org.uk/give-help/donate-food/,England,Food Bank,1
St Paul's (Hounslow),https://www.stpaulshw.org.uk/foodbanks,"St Paul's Church
Bath Road
Hounslow West
TW3 3DA",Hounslow,TW3 3DA,foodbank@hwparish.org.uk,7763083049,51.4716405,-0.3812615,https://www.stpaulshw.org.uk/foodbanks,England,Food Bank,1
Newquay,https://newquay.foodbank.org.uk/,"St Columb Minor Parish Church
76 Church St
Newquay
TR7 3EY",Cornwall,TR7 3EY,newquayfoodbank@gmail.com,7810271202,50.4216392,-5.0424904,https://newquay.foodbank.org.uk/give-help/donate-food/,England,Food Bank,1
The Brick,https://www.thebrick.org.uk,"10 Arcade Street
Wigan
WN1 1LU",Wigan,WN1 1LU,enquiries@thebrick.org.uk,1942236953,53.5448353,-2.6309863,https://www.thebrick.org.uk/project/foodbank-2/,England,Food Bank,1
Fair Frome,https://fairfrome.org/,"Frome Town Hall
Christchurch Street West
Frome
BA11 1EB",Mendip,BA11 1EB,fairfromefurniture@gmail.com,1373488578,51.2294375,-2.3250268,https://fairfrome.org/,England,Food Bank,1
Haslemere,https://haslemerefoodbank.com,"Haslemere Methodist Church
5-7 Junction Place
Haslemere
GU27 1LE",Waverley,GU27 1LE,haslemerefoodbank@gmail.com,7818692389,51.0875698,-0.7325497,https://haslemerefoodbank.com/make-a-donation/,England,Food Bank,1
Melksham,http://melkshamfoodbank.org.uk,"c/o Melksham Baptist Church
Old Broughton Road
Melksham
SN12 8BX",Wiltshire,SN12 8BX,melkshamfoodbank@gmail.com,3004560100,51.3773228,-2.1418465,http://melkshamfoodbank.org.uk/foodbox-contents/,England,Food Bank,1
Loveworks,https://www.loveworks.org.uk/,"3a-7a Bell Street
Reigate
RH2 7BH",Reigate and Banstead,RH2 7BH,info@loveworks.org.uk,1737457160,51.2375512,-0.2054021,https://www.loveworks.org.uk/givefood-2/,England,Food Bank,1
Glasgow Vineyard Storehouse,https://glasgowvineyard.org/?projects=storehouse-food-bank,"89 Dumbarton Road
Glasgow
G11 6PW",Glasgow City,G11 6PW,compassion@glasgowvineyard.org,1413346746,55.8700034,-4.2978576,https://glasgowvineyard.org/?projects=storehouse-food-bank,Scotland,Food Bank,1
The Community Storehouse,https://communitystorehouse.co.uk,"31 Church Road
Paddock Wood
Tonbridge
Kent
TN12 6HD",Tunbridge Wells,TN12 6HD,enquiries@communitystorehouse.co.uk,7582142948,51.177583,0.3968636,https://communitystorehouse.co.uk/how-to-help-us/,England,Community Centre,1
Weardale,https://www.facebook.com/Weardalefoodbank/,"St Thomas' Church Hall
Front Street
Stanhope
DL13 2UE",County Durham,DL13 2UE,weardaleaap@durham.gov.uk,1388517572,54.751314,-2.0125453,https://www.facebook.com/Weardalefoodbank/,England,Food Bank,1
Wycombe,http://wycombefoodhub.org/,"Chilterns Shopping Centre
Frogmoor
High Wycombe
HP13 5ES",Buckinghamshire,HP13 5ES,contact@wycombefoodhub.org,7971475401,51.6310771,-0.7519411,http://wycombefoodhub.org/,England,Food Bank,1
